{
"type": "FeatureCollection",
"name": "curtailment_nodes",
"crs": { "type": "name", "properties": { "name": "urn:ogc:def:crs:OGC:1.3:CRS84" } },
"features": [
{ "type": "Feature", "properties": { "Node": "Senegal States|Dagana", "zone": "LS", "curtailment_gwh": 0.0 }, "geometry": { "type": "Point", "coordinates": [ -15.46626099, 16.51184168 ] } },
{ "type": "Feature", "properties": { "Node": "Senegal States|Sakal", "zone": "LS", "curtailment_gwh": 0.0 }, "geometry": { "type": "Point", "coordinates": [ -16.22852109, 15.8590443 ] } },
{ "type": "Feature", "properties": { "Node": "Senegal States|Touba_1", "zone": "Diourbel", "curtailment_gwh": 0.0 }, "geometry": { "type": "Point", "coordinates": [ -15.93549626, 14.7934067 ] } },
{ "type": "Feature", "properties": { "Node": "Senegal States|Kahone", "zone": "FKK", "curtailment_gwh": 0.0 }, "geometry": { "type": "Point", "coordinates": [ -16.03163124, 14.16707562 ] } },
{ "type": "Feature", "properties": { "Node": "Senegal States|Diass", "zone": "Thies", "curtailment_gwh": 0.0 }, "geometry": { "type": "Point", "coordinates": [ -17.1016541, 14.65867849 ] } },
{ "type": "Feature", "properties": { "Node": "Senegal States|Tobene", "zone": "Thies", "curtailment_gwh": 0.0 }, "geometry": { "type": "Point", "coordinates": [ -16.8652695, 15.00464525 ] } },
{ "type": "Feature", "properties": { "Node": "Senegal States|ICS", "zone": "Thies", "curtailment_gwh": 0.0 }, "geometry": { "type": "Point", "coordinates": [ -16.84036432, 15.10108352 ] } },
{ "type": "Feature", "properties": { "Node": "Senegal States|SDE", "zone": "Thies", "curtailment_gwh": 0.0 }, "geometry": { "type": "Point", "coordinates": [ -16.61997372, 15.1461977 ] } },
{ "type": "Feature", "properties": { "Node": "Senegal States|Mbour", "zone": "Thies", "curtailment_gwh": 0.0 }, "geometry": { "type": "Point", "coordinates": [ -16.95060872, 14.47026212 ] } },
{ "type": "Feature", "properties": { "Node": "Senegal States|Kayes", "zone": "MTKK", "curtailment_gwh": 0.0 }, "geometry": { "type": "Point", "coordinates": [ -11.34984138, 14.35825708 ] } },
{ "type": "Feature", "properties": { "Node": "Senegal States|Fabrimetal", "zone": "Dakar", "curtailment_gwh": 0.0 }, "geometry": { "type": "Point", "coordinates": [ -17.16256509, 14.74474044 ] } }
]
}
