{
"type": "FeatureCollection",
"name": "ens_nodes",
"crs": { "type": "name", "properties": { "name": "urn:ogc:def:crs:OGC:1.3:CRS84" } },
"features": [
{ "type": "Feature", "properties": { "Node": "Senegal States|Dagana", "zone": "LS", "ens_gwh": 0.019250601897912098, "ens_mwh": 19.250601897912098 }, "geometry": { "type": "Point", "coordinates": [ -15.46626099, 16.51184168 ] } },
{ "type": "Feature", "properties": { "Node": "Senegal States|Sakal", "zone": "LS", "ens_gwh": 0.0, "ens_mwh": 0.0 }, "geometry": { "type": "Point", "coordinates": [ -16.22852109, 15.8590443 ] } },
{ "type": "Feature", "properties": { "Node": "Senegal States|Touba_1", "zone": "Diourbel", "ens_gwh": 0.16340202690845917, "ens_mwh": 163.40202690845916 }, "geometry": { "type": "Point", "coordinates": [ -15.93549626, 14.7934067 ] } },
{ "type": "Feature", "properties": { "Node": "Senegal States|Kahone", "zone": "FKK", "ens_gwh": 0.0, "ens_mwh": 0.0 }, "geometry": { "type": "Point", "coordinates": [ -16.03163124, 14.16707562 ] } },
{ "type": "Feature", "properties": { "Node": "Senegal States|Diass", "zone": "Thies", "ens_gwh": 0.0, "ens_mwh": 0.0 }, "geometry": { "type": "Point", "coordinates": [ -17.1016541, 14.65867849 ] } },
{ "type": "Feature", "properties": { "Node": "Senegal States|Bakel", "zone": "MTKK", "ens_gwh": 0.0, "ens_mwh": 0.0 }, "geometry": { "type": "Point", "coordinates": [ -12.47410162, 14.89074035 ] } },
{ "type": "Feature", "properties": { "Node": "Senegal States|Thiona", "zone": "Thies", "ens_gwh": 0.0, "ens_mwh": 0.0 }, "geometry": { "type": "Point", "coordinates": [ -16.94273687, 14.77996895 ] } },
{ "type": "Feature", "properties": { "Node": "Senegal States|Tobene", "zone": "Thies", "ens_gwh": 0.0, "ens_mwh": 0.0 }, "geometry": { "type": "Point", "coordinates": [ -16.8652695, 15.00464525 ] } },
{ "type": "Feature", "properties": { "Node": "Senegal States|ICS", "zone": "Thies", "ens_gwh": 0.0, "ens_mwh": 0.0 }, "geometry": { "type": "Point", "coordinates": [ -16.84036432, 15.10108352 ] } },
{ "type": "Feature", "properties": { "Node": "Senegal States|SDE", "zone": "Thies", "ens_gwh": 0.0, "ens_mwh": 0.0 }, "geometry": { "type": "Point", "coordinates": [ -16.61997372, 15.1461977 ] } },
{ "type": "Feature", "properties": { "Node": "Senegal States|Fatick", "zone": "FKK", "ens_gwh": 0.0, "ens_mwh": 0.0 }, "geometry": { "type": "Point", "coordinates": [ -16.41655, 14.36650969 ] } },
{ "type": "Feature", "properties": { "Node": "Senegal States|Mbour", "zone": "Thies", "ens_gwh": 0.0, "ens_mwh": 0.0 }, "geometry": { "type": "Point", "coordinates": [ -16.95060872, 14.47026212 ] } },
{ "type": "Feature", "properties": { "Node": "Senegal States|Ziguinchor", "zone": "ZS", "ens_gwh": 0.093292784298234205, "ens_mwh": 93.29278429823421 }, "geometry": { "type": "Point", "coordinates": [ -16.22497827, 12.55982815 ] } },
{ "type": "Feature", "properties": { "Node": "Senegal States|Tanaf", "zone": "ZS", "ens_gwh": 0.0, "ens_mwh": 0.0 }, "geometry": { "type": "Point", "coordinates": [ -15.4644387, 12.6591533 ] } },
{ "type": "Feature", "properties": { "Node": "Senegal States|Tambacounda", "zone": "MTKK", "ens_gwh": 0.0, "ens_mwh": 0.0 }, "geometry": { "type": "Point", "coordinates": [ -13.72938682, 13.77472789 ] } },
{ "type": "Feature", "properties": { "Node": "Senegal States|Kolda", "zone": "FKK", "ens_gwh": 0.0, "ens_mwh": 0.0 }, "geometry": { "type": "Point", "coordinates": [ -14.93616241, 12.86405574 ] } },
{ "type": "Feature", "properties": { "Node": "Senegal States|Sabangalou", "zone": "MTKK", "ens_gwh": 0.0, "ens_mwh": 0.0 }, "geometry": { "type": "Point", "coordinates": [ -12.21717132, 12.39794221 ] } },
{ "type": "Feature", "properties": { "Node": "Senegal States|Kedougou", "zone": "MTKK", "ens_gwh": 0.0, "ens_mwh": 0.0 }, "geometry": { "type": "Point", "coordinates": [ -12.24961422, 12.54565362 ] } },
{ "type": "Feature", "properties": { "Node": "Senegal States|Matam", "zone": "MTKK", "ens_gwh": 0.0, "ens_mwh": 0.0 }, "geometry": { "type": "Point", "coordinates": [ -13.31461, 15.61303 ] } },
{ "type": "Feature", "properties": { "Node": "Senegal States|Velingara", "zone": "FKK", "ens_gwh": 0.0, "ens_mwh": 0.0 }, "geometry": { "type": "Point", "coordinates": [ -14.06433258, 13.16064066 ] } },
{ "type": "Feature", "properties": { "Node": "Senegal States|Koungheul", "zone": "FKK", "ens_gwh": 0.0, "ens_mwh": 0.0 }, "geometry": { "type": "Point", "coordinates": [ -14.83189326, 13.96710115 ] } },
{ "type": "Feature", "properties": { "Node": "Senegal States|Pekesse", "zone": "Thies", "ens_gwh": 0.0, "ens_mwh": 0.0 }, "geometry": { "type": "Point", "coordinates": [ -16.43307608, 15.11332631 ] } },
{ "type": "Feature", "properties": { "Node": "Senegal States|Ndioum", "zone": "LS", "ens_gwh": 0.055125916868767506, "ens_mwh": 55.125916868767504 }, "geometry": { "type": "Point", "coordinates": [ -14.67801386, 16.51634241 ] } },
{ "type": "Feature", "properties": { "Node": "Senegal States|Touba_2", "zone": "Diourbel", "ens_gwh": 0.0, "ens_mwh": 0.0 }, "geometry": { "type": "Point", "coordinates": [ -15.79681638, 14.92570948 ] } },
{ "type": "Feature", "properties": { "Node": "Senegal States|Kayes", "zone": "MTKK", "ens_gwh": 0.0, "ens_mwh": 0.0 }, "geometry": { "type": "Point", "coordinates": [ -11.34984138, 14.35825708 ] } },
{ "type": "Feature", "properties": { "Node": "Senegal States|Linguere", "zone": "LS", "ens_gwh": 0.0, "ens_mwh": 0.0 }, "geometry": { "type": "Point", "coordinates": [ -15.18648003, 15.40111559 ] } },
{ "type": "Feature", "properties": { "Node": "Senegal States|Wack_Ngouna", "zone": "FKK", "ens_gwh": 0.0, "ens_mwh": 0.0 }, "geometry": { "type": "Point", "coordinates": [ -16.06047435, 13.76829692 ] } },
{ "type": "Feature", "properties": { "Node": "Senegal States|Saint_Louis", "zone": "LS", "ens_gwh": 0.0, "ens_mwh": 0.0 }, "geometry": { "type": "Point", "coordinates": [ -16.43143115, 15.99976973 ] } },
{ "type": "Feature", "properties": { "Node": "Senegal States|Aeroport", "zone": "Dakar", "ens_gwh": 0.0, "ens_mwh": 0.0 }, "geometry": { "type": "Point", "coordinates": [ -17.48615655, 14.74681949 ] } },
{ "type": "Feature", "properties": { "Node": "Senegal States|Sicap", "zone": "Dakar", "ens_gwh": 0.0, "ens_mwh": 0.0 }, "geometry": { "type": "Point", "coordinates": [ -17.4534123, 14.7135658 ] } },
{ "type": "Feature", "properties": { "Node": "Senegal States|Universite", "zone": "Dakar", "ens_gwh": 0.0, "ens_mwh": 0.0 }, "geometry": { "type": "Point", "coordinates": [ -17.46118234, 14.69173114 ] } },
{ "type": "Feature", "properties": { "Node": "Senegal States|Centre_Ville", "zone": "Dakar", "ens_gwh": 0.0, "ens_mwh": 0.0 }, "geometry": { "type": "Point", "coordinates": [ -17.43904434, 14.66886225 ] } },
{ "type": "Feature", "properties": { "Node": "Senegal States|Bel_Air", "zone": "Dakar", "ens_gwh": 0.0, "ens_mwh": 0.0 }, "geometry": { "type": "Point", "coordinates": [ -17.43480838, 14.68990925 ] } },
{ "type": "Feature", "properties": { "Node": "Senegal States|Hann", "zone": "Dakar", "ens_gwh": 0.0, "ens_mwh": 0.0 }, "geometry": { "type": "Point", "coordinates": [ -17.43771175, 14.73139415 ] } },
{ "type": "Feature", "properties": { "Node": "Senegal States|Patte_Doie", "zone": "Dakar", "ens_gwh": 0.0, "ens_mwh": 0.0 }, "geometry": { "type": "Point", "coordinates": [ -17.43249346, 14.73703537 ] } },
{ "type": "Feature", "properties": { "Node": "Senegal States|Guediawaye", "zone": "Dakar", "ens_gwh": 0.0, "ens_mwh": 0.0 }, "geometry": { "type": "Point", "coordinates": [ -17.38915175, 14.77147116 ] } },
{ "type": "Feature", "properties": { "Node": "Senegal States|Mbao", "zone": "Dakar", "ens_gwh": 0.0, "ens_mwh": 0.0 }, "geometry": { "type": "Point", "coordinates": [ -17.34341222, 14.75841087 ] } },
{ "type": "Feature", "properties": { "Node": "Senegal States|Cap_Des_Biches", "zone": "Dakar", "ens_gwh": 0.0, "ens_mwh": 0.0 }, "geometry": { "type": "Point", "coordinates": [ -17.30051519, 14.71989523 ] } },
{ "type": "Feature", "properties": { "Node": "Senegal States|Kounoune", "zone": "Dakar", "ens_gwh": 0.0, "ens_mwh": 0.0 }, "geometry": { "type": "Point", "coordinates": [ -17.26460936, 14.74293601 ] } },
{ "type": "Feature", "properties": { "Node": "Senegal States|Sococim", "zone": "Dakar", "ens_gwh": 0.0, "ens_mwh": 0.0 }, "geometry": { "type": "Point", "coordinates": [ -17.24829086, 14.71018467 ] } },
{ "type": "Feature", "properties": { "Node": "Senegal States|Sendou", "zone": "Dakar", "ens_gwh": 0.0, "ens_mwh": 0.0 }, "geometry": { "type": "Point", "coordinates": [ -17.21360927, 14.68875284 ] } },
{ "type": "Feature", "properties": { "Node": "Senegal States|Diamniadio", "zone": "Dakar", "ens_gwh": 0.0, "ens_mwh": 0.0 }, "geometry": { "type": "Point", "coordinates": [ -17.21505744, 14.7115875 ] } },
{ "type": "Feature", "properties": { "Node": "Senegal States|Olam", "zone": "Dakar", "ens_gwh": 0.0, "ens_mwh": 0.0 }, "geometry": { "type": "Point", "coordinates": [ -17.17572712, 14.72069022 ] } },
{ "type": "Feature", "properties": { "Node": "Senegal States|Someta", "zone": "Dakar", "ens_gwh": 0.0, "ens_mwh": 0.0 }, "geometry": { "type": "Point", "coordinates": [ -17.15590517, 14.7319769 ] } },
{ "type": "Feature", "properties": { "Node": "Senegal States|Fabrimetal", "zone": "Dakar", "ens_gwh": 0.0, "ens_mwh": 0.0 }, "geometry": { "type": "Point", "coordinates": [ -17.16256509, 14.74474044 ] } },
{ "type": "Feature", "properties": { "Node": "Senegal States|Thies_Numerique", "zone": "Thies", "ens_gwh": 0.0, "ens_mwh": 0.0 }, "geometry": { "type": "Point", "coordinates": [ -16.85965679, 14.76196798 ] } },
{ "type": "Feature", "properties": { "Node": "Senegal States|mtkk", "zone": "MTKK", "ens_gwh": 0.017145558742642602, "ens_mwh": 17.145558742642603 }, "geometry": { "type": "Point", "coordinates": [ -13.0174, 15.1722 ] } },
{ "type": "Feature", "properties": { "Node": "Senegal States|ls", "zone": "LS", "ens_gwh": 0.3997507783961109, "ens_mwh": 399.75077839611089 }, "geometry": { "type": "Point", "coordinates": [ -15.5828, 15.9012 ] } }
]
}
