{
"type": "FeatureCollection",
"name": "generators",
"crs": { "type": "name", "properties": { "name": "urn:ogc:def:crs:OGC:1.3:CRS84" } },
"features": [
{ "type": "Feature", "properties": { "Generator": "Centrale_C_Cap_CTag", "Node": "Senegal States|Cap_Des_Biches", "Technology": "P_Oil", "MutuallyExclusive": null, "StorageType": null, "OutflowsType": null, "EnergyType": null, "MustRun": null, "OutflowsIncompatibility": null, "NoOperatingReserve": "yes", "BinaryInvestment": null, "BinaryRetirement": null, "BinaryCommitment": null, "InitialPeriod": 2003, "FinalPeriod": 2035, "MaximumPower": 113.5236888, "MinimumPower": null, "MaximumPowerHeat": null, "MinimumPowerHeat": null, "MaximumCharge": null, "MinimumCharge": null, "InitialStorage": null, "MaximumStorage": null, "MinimumStorage": null, "Efficiency": 0.383885865, "ShiftTime": null, "EFOR": 0.05, "RampUp": null, "RampDown": null, "UpTime": null, "DownTime": null, "StableTime": null, "FuelCost": 15.0, "LinearTerm": 9.377787326, "ConstantTerm": 1500.0, "OMVariableCost": 5.0, "OperReserveCost": null, "StartUpCost": 7.48896, "ShutDownCost": null, "CO2EmissionRate": 0.693956262, "Availability": 0.95, "FixedInvestmentCost": null, "FixedRetirementCost": null, "FixedChargeRate": null, "StorageInvestment": null, "Inertia": null, "MaximumReactivePower": null, "MinimumReactivePower": null, "InvestmentLo": null, "InvestmentUp": null, "RetirementLo": null, "RetirementUp": null, "ProductionFunctionHydro": null, "ProductionFunctionH2": null, "ProductionFunctionHeat": null, "ProductionFunctionH2ToHeat": null, "longitude": -17.299561500549, "latitude": 14.71918913597, "zone": "Dakar", "coordinate_source": "plant inventory", "generation_gwh": 395.62593324212196, "technology_group": "oil", "is_renewable": false, "is_candidate": false, "installed_mw": 113.5236888, "selected_in_2030": true }, "geometry": { "type": "Point", "coordinates": [ -17.299561500549, 14.71918913597 ] } },
{ "type": "Feature", "properties": { "Generator": "Diesel_Bel_Air", "Node": "Senegal States|Bel_Air", "Technology": "P_Oil", "MutuallyExclusive": null, "StorageType": null, "OutflowsType": null, "EnergyType": null, "MustRun": null, "OutflowsIncompatibility": null, "NoOperatingReserve": "yes", "BinaryInvestment": null, "BinaryRetirement": null, "BinaryCommitment": null, "InitialPeriod": 2009, "FinalPeriod": 2040, "MaximumPower": 169.778731, "MinimumPower": null, "MaximumPowerHeat": null, "MinimumPowerHeat": null, "MaximumCharge": null, "MinimumCharge": null, "InitialStorage": null, "MaximumStorage": null, "MinimumStorage": null, "Efficiency": 0.383885865, "ShiftTime": null, "EFOR": 0.05, "RampUp": null, "RampDown": null, "UpTime": null, "DownTime": null, "StableTime": null, "FuelCost": 15.0, "LinearTerm": 9.377787326, "ConstantTerm": 1500.0, "OMVariableCost": 5.0, "OperReserveCost": null, "StartUpCost": 7.48897, "ShutDownCost": null, "CO2EmissionRate": 0.693956262, "Availability": 0.95, "FixedInvestmentCost": null, "FixedRetirementCost": null, "FixedChargeRate": null, "StorageInvestment": null, "Inertia": null, "MaximumReactivePower": null, "MinimumReactivePower": null, "InvestmentLo": null, "InvestmentUp": null, "RetirementLo": null, "RetirementUp": null, "ProductionFunctionHydro": null, "ProductionFunctionH2": null, "ProductionFunctionHeat": null, "ProductionFunctionH2ToHeat": null, "longitude": -17.435581684115, "latitude": 14.690588957375001, "zone": "Dakar", "coordinate_source": "plant inventory", "generation_gwh": 295.7263949492143, "technology_group": "oil", "is_renewable": false, "is_candidate": false, "installed_mw": 169.778731, "selected_in_2030": true }, "geometry": { "type": "Point", "coordinates": [ -17.435581684115, 14.690588957375001 ] } },
{ "type": "Feature", "properties": { "Generator": "Gas_Turbines", "Node": "Senegal States|Cap_Des_Biches", "Technology": "P_Oil", "MutuallyExclusive": null, "StorageType": null, "OutflowsType": null, "EnergyType": null, "MustRun": null, "OutflowsIncompatibility": null, "NoOperatingReserve": "yes", "BinaryInvestment": null, "BinaryRetirement": null, "BinaryCommitment": null, "InitialPeriod": 2008, "FinalPeriod": 2035, "MaximumPower": 18.81812036, "MinimumPower": null, "MaximumPowerHeat": null, "MinimumPowerHeat": null, "MaximumCharge": null, "MinimumCharge": null, "InitialStorage": null, "MaximumStorage": null, "MinimumStorage": null, "Efficiency": 0.383885865, "ShiftTime": null, "EFOR": 0.05, "RampUp": null, "RampDown": null, "UpTime": null, "DownTime": null, "StableTime": null, "FuelCost": 15.0, "LinearTerm": 9.377787326, "ConstantTerm": 1500.0, "OMVariableCost": 5.0, "OperReserveCost": null, "StartUpCost": 7.48898, "ShutDownCost": null, "CO2EmissionRate": 0.693956262, "Availability": 0.95, "FixedInvestmentCost": null, "FixedRetirementCost": null, "FixedChargeRate": null, "StorageInvestment": null, "Inertia": null, "MaximumReactivePower": null, "MinimumReactivePower": null, "InvestmentLo": null, "InvestmentUp": null, "RetirementLo": null, "RetirementUp": null, "ProductionFunctionHydro": null, "ProductionFunctionH2": null, "ProductionFunctionHeat": null, "ProductionFunctionH2ToHeat": null, "longitude": -17.30051519, "latitude": 14.71989523, "zone": "Dakar", "coordinate_source": "model node", "generation_gwh": 50.218316487369492, "technology_group": "oil", "is_renewable": false, "is_candidate": false, "installed_mw": 18.81812036, "selected_in_2030": true }, "geometry": { "type": "Point", "coordinates": [ -17.30051519, 14.71989523 ] } },
{ "type": "Feature", "properties": { "Generator": "Boutoute", "Node": "Senegal States|Ziguinchor", "Technology": "P_Oil", "MutuallyExclusive": null, "StorageType": null, "OutflowsType": null, "EnergyType": null, "MustRun": null, "OutflowsIncompatibility": null, "NoOperatingReserve": "yes", "BinaryInvestment": null, "BinaryRetirement": null, "BinaryCommitment": null, "InitialPeriod": 2005, "FinalPeriod": 2040, "MaximumPower": 15.0, "MinimumPower": null, "MaximumPowerHeat": null, "MinimumPowerHeat": null, "MaximumCharge": null, "MinimumCharge": null, "InitialStorage": null, "MaximumStorage": null, "MinimumStorage": null, "Efficiency": 0.383885865, "ShiftTime": null, "EFOR": 0.05, "RampUp": null, "RampDown": null, "UpTime": null, "DownTime": null, "StableTime": null, "FuelCost": 15.0, "LinearTerm": 9.377787326, "ConstantTerm": 1500.0, "OMVariableCost": 5.0, "OperReserveCost": null, "StartUpCost": 7.48896, "ShutDownCost": null, "CO2EmissionRate": 0.693956262, "Availability": 0.95, "FixedInvestmentCost": null, "FixedRetirementCost": null, "FixedChargeRate": null, "StorageInvestment": null, "Inertia": null, "MaximumReactivePower": null, "MinimumReactivePower": null, "InvestmentLo": null, "InvestmentUp": null, "RetirementLo": null, "RetirementUp": null, "ProductionFunctionHydro": null, "ProductionFunctionH2": null, "ProductionFunctionHeat": null, "ProductionFunctionH2ToHeat": null, "longitude": -16.225337786654261, "latitude": 12.559923985977838, "zone": "ZS", "coordinate_source": "plant inventory", "generation_gwh": 77.53715393649027, "technology_group": "oil", "is_renewable": false, "is_candidate": false, "installed_mw": 15.0, "selected_in_2030": true }, "geometry": { "type": "Point", "coordinates": [ -16.225337786654261, 12.559923985977838 ] } },
{ "type": "Feature", "properties": { "Generator": "Secondary_Plants", "Node": "Senegal States|Bakel", "Technology": "P_Oil", "MutuallyExclusive": null, "StorageType": null, "OutflowsType": null, "EnergyType": null, "MustRun": null, "OutflowsIncompatibility": null, "NoOperatingReserve": "yes", "BinaryInvestment": null, "BinaryRetirement": null, "BinaryCommitment": null, "InitialPeriod": 2010, "FinalPeriod": 2040, "MaximumPower": 13.87, "MinimumPower": null, "MaximumPowerHeat": null, "MinimumPowerHeat": null, "MaximumCharge": null, "MinimumCharge": null, "InitialStorage": null, "MaximumStorage": null, "MinimumStorage": null, "Efficiency": 0.383885865, "ShiftTime": null, "EFOR": 0.05, "RampUp": null, "RampDown": null, "UpTime": null, "DownTime": null, "StableTime": null, "FuelCost": 15.0, "LinearTerm": 9.377787326, "ConstantTerm": 1500.0, "OMVariableCost": 5.0, "OperReserveCost": null, "StartUpCost": 7.48898, "ShutDownCost": null, "CO2EmissionRate": 0.693956262, "Availability": 0.95, "FixedInvestmentCost": null, "FixedRetirementCost": null, "FixedChargeRate": null, "StorageInvestment": null, "Inertia": null, "MaximumReactivePower": null, "MinimumReactivePower": null, "InvestmentLo": null, "InvestmentUp": null, "RetirementLo": null, "RetirementUp": null, "ProductionFunctionHydro": null, "ProductionFunctionH2": null, "ProductionFunctionHeat": null, "ProductionFunctionH2ToHeat": null, "longitude": -12.4741016166, "latitude": 14.8907403483, "zone": "MTKK", "coordinate_source": "plant inventory", "generation_gwh": 69.369457797231647, "technology_group": "oil", "is_renewable": false, "is_candidate": false, "installed_mw": 13.87, "selected_in_2030": true }, "geometry": { "type": "Point", "coordinates": [ -12.4741016166, 14.8907403483 ] } },
{ "type": "Feature", "properties": { "Generator": "Kounoune_Power", "Node": "Senegal States|Kounoune", "Technology": "P_Oil", "MutuallyExclusive": null, "StorageType": null, "OutflowsType": null, "EnergyType": null, "MustRun": null, "OutflowsIncompatibility": null, "NoOperatingReserve": "yes", "BinaryInvestment": null, "BinaryRetirement": null, "BinaryCommitment": null, "InitialPeriod": 2008, "FinalPeriod": 2033, "MaximumPower": 34.46742353, "MinimumPower": null, "MaximumPowerHeat": null, "MinimumPowerHeat": null, "MaximumCharge": null, "MinimumCharge": null, "InitialStorage": null, "MaximumStorage": null, "MinimumStorage": null, "Efficiency": 0.383885865, "ShiftTime": null, "EFOR": 0.05, "RampUp": null, "RampDown": null, "UpTime": null, "DownTime": null, "StableTime": null, "FuelCost": 15.0, "LinearTerm": 9.377787326, "ConstantTerm": 1500.0, "OMVariableCost": 5.0, "OperReserveCost": null, "StartUpCost": 7.48898, "ShutDownCost": null, "CO2EmissionRate": 0.693956262, "Availability": 0.95, "FixedInvestmentCost": null, "FixedRetirementCost": null, "FixedChargeRate": null, "StorageInvestment": null, "Inertia": null, "MaximumReactivePower": null, "MinimumReactivePower": null, "InvestmentLo": null, "InvestmentUp": null, "RetirementLo": null, "RetirementUp": null, "ProductionFunctionHydro": null, "ProductionFunctionH2": null, "ProductionFunctionHeat": null, "ProductionFunctionH2ToHeat": null, "longitude": -17.26552, "latitude": 14.74645, "zone": "Dakar", "coordinate_source": "plant inventory", "generation_gwh": 168.1445873328951, "technology_group": "oil", "is_renewable": false, "is_candidate": false, "installed_mw": 34.46742353, "selected_in_2030": true }, "geometry": { "type": "Point", "coordinates": [ -17.26552, 14.74645 ] } },
{ "type": "Feature", "properties": { "Generator": "Tobene_Power", "Node": "Senegal States|Tobene", "Technology": "P_Oil", "MutuallyExclusive": null, "StorageType": null, "OutflowsType": null, "EnergyType": null, "MustRun": null, "OutflowsIncompatibility": null, "NoOperatingReserve": "yes", "BinaryInvestment": null, "BinaryRetirement": null, "BinaryCommitment": null, "InitialPeriod": 2019, "FinalPeriod": 2024, "MaximumPower": 115.0, "MinimumPower": null, "MaximumPowerHeat": null, "MinimumPowerHeat": null, "MaximumCharge": null, "MinimumCharge": null, "InitialStorage": null, "MaximumStorage": null, "MinimumStorage": null, "Efficiency": 0.383885865, "ShiftTime": null, "EFOR": 0.05, "RampUp": null, "RampDown": null, "UpTime": null, "DownTime": null, "StableTime": null, "FuelCost": 15.0, "LinearTerm": 9.377787326, "ConstantTerm": 1500.0, "OMVariableCost": 5.0, "OperReserveCost": null, "StartUpCost": 7.48899, "ShutDownCost": null, "CO2EmissionRate": 0.693956262, "Availability": 0.95, "FixedInvestmentCost": null, "FixedRetirementCost": null, "FixedChargeRate": null, "StorageInvestment": null, "Inertia": null, "MaximumReactivePower": null, "MinimumReactivePower": null, "InvestmentLo": null, "InvestmentUp": null, "RetirementLo": null, "RetirementUp": null, "ProductionFunctionHydro": null, "ProductionFunctionH2": null, "ProductionFunctionHeat": null, "ProductionFunctionH2ToHeat": null, "longitude": -16.862649098041999, "latitude": 15.006794227127999, "zone": "Thies", "coordinate_source": "plant inventory", "generation_gwh": 0.0, "technology_group": "oil", "is_renewable": false, "is_candidate": false, "installed_mw": 0.0, "selected_in_2030": true }, "geometry": { "type": "Point", "coordinates": [ -16.862649098041999, 15.006794227127999 ] } },
{ "type": "Feature", "properties": { "Generator": "Contour_Global", "Node": "Senegal States|Cap_Des_Biches", "Technology": "P_Oil", "MutuallyExclusive": null, "StorageType": null, "OutflowsType": null, "EnergyType": null, "MustRun": null, "OutflowsIncompatibility": null, "NoOperatingReserve": "yes", "BinaryInvestment": null, "BinaryRetirement": null, "BinaryCommitment": null, "InitialPeriod": 2016, "FinalPeriod": 2036, "MaximumPower": 40.22945394, "MinimumPower": null, "MaximumPowerHeat": null, "MinimumPowerHeat": null, "MaximumCharge": null, "MinimumCharge": null, "InitialStorage": null, "MaximumStorage": null, "MinimumStorage": null, "Efficiency": 0.383885865, "ShiftTime": null, "EFOR": 0.05, "RampUp": null, "RampDown": null, "UpTime": null, "DownTime": null, "StableTime": null, "FuelCost": 15.0, "LinearTerm": 9.377787326, "ConstantTerm": 1500.0, "OMVariableCost": 5.0, "OperReserveCost": null, "StartUpCost": 7.48896, "ShutDownCost": null, "CO2EmissionRate": 0.693956262, "Availability": 0.95, "FixedInvestmentCost": null, "FixedRetirementCost": null, "FixedChargeRate": null, "StorageInvestment": null, "Inertia": null, "MaximumReactivePower": null, "MinimumReactivePower": null, "InvestmentLo": null, "InvestmentUp": null, "RetirementLo": null, "RetirementUp": null, "ProductionFunctionHydro": null, "ProductionFunctionH2": null, "ProductionFunctionHeat": null, "ProductionFunctionH2ToHeat": null, "longitude": -17.295984474496915, "latitude": 14.726264688964411, "zone": "Dakar", "coordinate_source": "plant inventory", "generation_gwh": 120.18693030743657, "technology_group": "oil", "is_renewable": false, "is_candidate": false, "installed_mw": 40.22945394, "selected_in_2030": true }, "geometry": { "type": "Point", "coordinates": [ -17.295984474496915, 14.726264688964411 ] } },
{ "type": "Feature", "properties": { "Generator": "KPS_KarPowerShip", "Node": "Senegal States|Bel_Air", "Technology": "P_Oil", "MutuallyExclusive": null, "StorageType": null, "OutflowsType": null, "EnergyType": null, "MustRun": null, "OutflowsIncompatibility": null, "NoOperatingReserve": "yes", "BinaryInvestment": null, "BinaryRetirement": null, "BinaryCommitment": null, "InitialPeriod": 2019, "FinalPeriod": 2040, "MaximumPower": 169.9098342, "MinimumPower": null, "MaximumPowerHeat": null, "MinimumPowerHeat": null, "MaximumCharge": null, "MinimumCharge": null, "InitialStorage": null, "MaximumStorage": null, "MinimumStorage": null, "Efficiency": 0.383885865, "ShiftTime": null, "EFOR": 0.05, "RampUp": null, "RampDown": null, "UpTime": null, "DownTime": null, "StableTime": null, "FuelCost": 15.0, "LinearTerm": 9.377787326, "ConstantTerm": 1500.0, "OMVariableCost": 5.0, "OperReserveCost": null, "StartUpCost": 7.48896, "ShutDownCost": null, "CO2EmissionRate": 0.693956262, "Availability": 0.95, "FixedInvestmentCost": null, "FixedRetirementCost": null, "FixedChargeRate": null, "StorageInvestment": null, "Inertia": null, "MaximumReactivePower": null, "MinimumReactivePower": null, "InvestmentLo": null, "InvestmentUp": null, "RetirementLo": null, "RetirementUp": null, "ProductionFunctionHydro": null, "ProductionFunctionH2": null, "ProductionFunctionHeat": null, "ProductionFunctionH2ToHeat": null, "longitude": -17.410527906901009, "latitude": 14.67292462978237, "zone": "Dakar", "coordinate_source": "plant inventory", "generation_gwh": 293.08685259803582, "technology_group": "oil", "is_renewable": false, "is_candidate": false, "installed_mw": 169.9098342, "selected_in_2030": true }, "geometry": { "type": "Point", "coordinates": [ -17.410527906901009, 14.67292462978237 ] } },
{ "type": "Feature", "properties": { "Generator": "Aggreko_Boutoute", "Node": "Senegal States|Tanaf", "Technology": "P_Oil", "MutuallyExclusive": null, "StorageType": null, "OutflowsType": null, "EnergyType": null, "MustRun": null, "OutflowsIncompatibility": null, "NoOperatingReserve": "yes", "BinaryInvestment": null, "BinaryRetirement": null, "BinaryCommitment": null, "InitialPeriod": 2012, "FinalPeriod": 2040, "MaximumPower": 6.5, "MinimumPower": null, "MaximumPowerHeat": null, "MinimumPowerHeat": null, "MaximumCharge": null, "MinimumCharge": null, "InitialStorage": null, "MaximumStorage": null, "MinimumStorage": null, "Efficiency": 0.383885865, "ShiftTime": null, "EFOR": 0.05, "RampUp": null, "RampDown": null, "UpTime": null, "DownTime": null, "StableTime": null, "FuelCost": 15.0, "LinearTerm": 9.377787326, "ConstantTerm": 1500.0, "OMVariableCost": 5.0, "OperReserveCost": null, "StartUpCost": 7.48896, "ShutDownCost": null, "CO2EmissionRate": 0.693956262, "Availability": 0.95, "FixedInvestmentCost": null, "FixedRetirementCost": null, "FixedChargeRate": null, "StorageInvestment": null, "Inertia": null, "MaximumReactivePower": null, "MinimumReactivePower": null, "InvestmentLo": null, "InvestmentUp": null, "RetirementLo": null, "RetirementUp": null, "ProductionFunctionHydro": null, "ProductionFunctionH2": null, "ProductionFunctionHeat": null, "ProductionFunctionH2ToHeat": null, "longitude": -16.283, "latitude": 12.58, "zone": "ZS", "coordinate_source": "plant inventory", "generation_gwh": 32.374698596773854, "technology_group": "oil", "is_renewable": false, "is_candidate": false, "installed_mw": 6.5, "selected_in_2030": true }, "geometry": { "type": "Point", "coordinates": [ -16.283, 12.58 ] } },
{ "type": "Feature", "properties": { "Generator": "Dakar_CCGT_25", "Node": "Senegal States|Cap_Des_Biches", "Technology": "P_Gas_CCGT", "MutuallyExclusive": null, "StorageType": null, "OutflowsType": null, "EnergyType": null, "MustRun": null, "OutflowsIncompatibility": null, "NoOperatingReserve": "yes", "BinaryInvestment": null, "BinaryRetirement": null, "BinaryCommitment": null, "InitialPeriod": 2025, "FinalPeriod": 2050, "MaximumPower": 473.8, "MinimumPower": null, "MaximumPowerHeat": null, "MinimumPowerHeat": null, "MaximumCharge": null, "MinimumCharge": null, "InitialStorage": null, "MaximumStorage": null, "MinimumStorage": null, "Efficiency": 0.62, "ShiftTime": null, "EFOR": 0.05, "RampUp": null, "RampDown": null, "UpTime": null, "DownTime": null, "StableTime": null, "FuelCost": 8.0, "LinearTerm": 5.806451614, "ConstantTerm": 1500.0, "OMVariableCost": 3.0, "OperReserveCost": null, "StartUpCost": 7.48896, "ShutDownCost": null, "CO2EmissionRate": 0.324, "Availability": 0.87, "FixedInvestmentCost": 144.0064847, "FixedRetirementCost": null, "FixedChargeRate": 0.1, "StorageInvestment": null, "Inertia": null, "MaximumReactivePower": null, "MinimumReactivePower": null, "InvestmentLo": null, "InvestmentUp": null, "RetirementLo": null, "RetirementUp": null, "ProductionFunctionHydro": null, "ProductionFunctionH2": null, "ProductionFunctionHeat": null, "ProductionFunctionH2ToHeat": null, "longitude": -17.300515186999998, "latitude": 14.719895230100001, "zone": "Dakar", "coordinate_source": "plant inventory", "generation_gwh": 3929.4060704663016, "technology_group": "gas", "is_renewable": false, "is_candidate": true, "installed_mw": 450.11, "selected_in_2030": true }, "geometry": { "type": "Point", "coordinates": [ -17.300515187, 14.719895230100001 ] } },
{ "type": "Feature", "properties": { "Generator": "Dakar_OCGT_25", "Node": "Senegal States|Bel_Air", "Technology": "P_Gas_OCGT", "MutuallyExclusive": null, "StorageType": null, "OutflowsType": null, "EnergyType": null, "MustRun": null, "OutflowsIncompatibility": null, "NoOperatingReserve": "yes", "BinaryInvestment": null, "BinaryRetirement": null, "BinaryCommitment": null, "InitialPeriod": 2025, "FinalPeriod": 2050, "MaximumPower": 218.7, "MinimumPower": null, "MaximumPowerHeat": null, "MinimumPowerHeat": null, "MaximumCharge": null, "MinimumCharge": null, "InitialStorage": null, "MaximumStorage": null, "MinimumStorage": null, "Efficiency": 0.44, "ShiftTime": null, "EFOR": 0.05, "RampUp": null, "RampDown": null, "UpTime": null, "DownTime": null, "StableTime": null, "FuelCost": 8.0, "LinearTerm": 8.0, "ConstantTerm": 1500.0, "OMVariableCost": 5.0, "OperReserveCost": null, "StartUpCost": 7.48896, "ShutDownCost": null, "CO2EmissionRate": 0.455463793, "Availability": 0.87, "FixedInvestmentCost": 84.1980543, "FixedRetirementCost": null, "FixedChargeRate": 0.1, "StorageInvestment": null, "Inertia": null, "MaximumReactivePower": null, "MinimumReactivePower": null, "InvestmentLo": null, "InvestmentUp": null, "RetirementLo": null, "RetirementUp": null, "ProductionFunctionHydro": null, "ProductionFunctionH2": null, "ProductionFunctionHeat": null, "ProductionFunctionH2ToHeat": null, "longitude": -17.4348083812, "latitude": 14.689909246399999, "zone": "Dakar", "coordinate_source": "plant inventory", "generation_gwh": 1709.4755772301571, "technology_group": "gas", "is_renewable": false, "is_candidate": true, "installed_mw": 207.765, "selected_in_2030": true }, "geometry": { "type": "Point", "coordinates": [ -17.4348083812, 14.689909246399999 ] } },
{ "type": "Feature", "properties": { "Generator": "LS_PV_2029", "Node": "Senegal States|Dagana", "Technology": "RES_PV_Utility_Opt", "MutuallyExclusive": null, "StorageType": null, "OutflowsType": null, "EnergyType": null, "MustRun": null, "OutflowsIncompatibility": null, "NoOperatingReserve": "yes", "BinaryInvestment": null, "BinaryRetirement": null, "BinaryCommitment": null, "InitialPeriod": 2025, "FinalPeriod": 2050, "MaximumPower": 33.3, "MinimumPower": null, "MaximumPowerHeat": null, "MinimumPowerHeat": null, "MaximumCharge": null, "MinimumCharge": null, "InitialStorage": null, "MaximumStorage": null, "MinimumStorage": null, "Efficiency": 0.206546466, "ShiftTime": null, "EFOR": null, "RampUp": null, "RampDown": null, "UpTime": null, "DownTime": null, "StableTime": null, "FuelCost": null, "LinearTerm": null, "ConstantTerm": null, "OMVariableCost": 0.5, "OperReserveCost": null, "StartUpCost": null, "ShutDownCost": null, "CO2EmissionRate": null, "Availability": 0.98, "FixedInvestmentCost": 183.9488, "FixedRetirementCost": null, "FixedChargeRate": 0.1, "StorageInvestment": null, "Inertia": null, "MaximumReactivePower": null, "MinimumReactivePower": null, "InvestmentLo": null, "InvestmentUp": null, "RetirementLo": null, "RetirementUp": null, "ProductionFunctionHydro": null, "ProductionFunctionH2": null, "ProductionFunctionHeat": null, "ProductionFunctionH2ToHeat": null, "longitude": -15.46626099, "latitude": 16.51184168, "zone": "LS", "coordinate_source": "model node", "generation_gwh": 0.0, "technology_group": "solar", "is_renewable": true, "is_candidate": true, "installed_mw": 0.0, "selected_in_2030": false }, "geometry": { "type": "Point", "coordinates": [ -15.46626099, 16.51184168 ] } },
{ "type": "Feature", "properties": { "Generator": "Thies_P_Gas_CCGT_25", "Node": "Senegal States|Mbour", "Technology": "P_Gas_CCGT", "MutuallyExclusive": null, "StorageType": null, "OutflowsType": null, "EnergyType": null, "MustRun": null, "OutflowsIncompatibility": null, "NoOperatingReserve": "yes", "BinaryInvestment": null, "BinaryRetirement": null, "BinaryCommitment": null, "InitialPeriod": 2025, "FinalPeriod": 2050, "MaximumPower": 164.0, "MinimumPower": null, "MaximumPowerHeat": null, "MinimumPowerHeat": null, "MaximumCharge": null, "MinimumCharge": null, "InitialStorage": null, "MaximumStorage": null, "MinimumStorage": null, "Efficiency": 0.62, "ShiftTime": null, "EFOR": 0.05, "RampUp": null, "RampDown": null, "UpTime": null, "DownTime": null, "StableTime": null, "FuelCost": 3.0, "LinearTerm": 9.377787326, "ConstantTerm": 1500.0, "OMVariableCost": 2.0, "OperReserveCost": null, "StartUpCost": 7.48896, "ShutDownCost": null, "CO2EmissionRate": 0.324, "Availability": 0.98, "FixedInvestmentCost": 6.480291812, "FixedRetirementCost": null, "FixedChargeRate": 0.1, "StorageInvestment": null, "Inertia": null, "MaximumReactivePower": null, "MinimumReactivePower": null, "InvestmentLo": null, "InvestmentUp": null, "RetirementLo": null, "RetirementUp": null, "ProductionFunctionHydro": null, "ProductionFunctionH2": null, "ProductionFunctionHeat": null, "ProductionFunctionH2ToHeat": null, "longitude": -16.93660872, "latitude": 14.47026212, "zone": "Thies", "coordinate_source": "model node", "generation_gwh": 1361.0688, "technology_group": "gas", "is_renewable": false, "is_candidate": true, "installed_mw": 155.8, "selected_in_2030": true }, "geometry": { "type": "Point", "coordinates": [ -16.93660872, 14.47026212 ] } },
{ "type": "Feature", "properties": { "Generator": "Diourbel_PV_25", "Node": "Senegal States|Touba_1", "Technology": "RES_PV_Utility_Opt", "MutuallyExclusive": null, "StorageType": null, "OutflowsType": null, "EnergyType": null, "MustRun": null, "OutflowsIncompatibility": null, "NoOperatingReserve": "yes", "BinaryInvestment": null, "BinaryRetirement": null, "BinaryCommitment": null, "InitialPeriod": 2025, "FinalPeriod": 2050, "MaximumPower": 10.6, "MinimumPower": null, "MaximumPowerHeat": null, "MinimumPowerHeat": null, "MaximumCharge": null, "MinimumCharge": null, "InitialStorage": null, "MaximumStorage": null, "MinimumStorage": null, "Efficiency": 0.199821669, "ShiftTime": null, "EFOR": null, "RampUp": null, "RampDown": null, "UpTime": null, "DownTime": null, "StableTime": null, "FuelCost": null, "LinearTerm": null, "ConstantTerm": null, "OMVariableCost": 0.5, "OperReserveCost": null, "StartUpCost": null, "ShutDownCost": null, "CO2EmissionRate": null, "Availability": 0.98, "FixedInvestmentCost": 11.82528, "FixedRetirementCost": null, "FixedChargeRate": 0.1, "StorageInvestment": null, "Inertia": null, "MaximumReactivePower": null, "MinimumReactivePower": null, "InvestmentLo": null, "InvestmentUp": null, "RetirementLo": null, "RetirementUp": null, "ProductionFunctionHydro": null, "ProductionFunctionH2": null, "ProductionFunctionHeat": null, "ProductionFunctionH2ToHeat": null, "longitude": -15.93549626, "latitude": 14.7934067, "zone": "Diourbel", "coordinate_source": "model node", "generation_gwh": 18.555083100654002, "technology_group": "solar", "is_renewable": true, "is_candidate": true, "installed_mw": 10.6, "selected_in_2030": true }, "geometry": { "type": "Point", "coordinates": [ -15.93549626, 14.7934067 ] } },
{ "type": "Feature", "properties": { "Generator": "Thies_PV_2025", "Node": "Senegal States|ICS", "Technology": "RES_PV_Utility_Opt", "MutuallyExclusive": null, "StorageType": null, "OutflowsType": null, "EnergyType": null, "MustRun": null, "OutflowsIncompatibility": null, "NoOperatingReserve": "yes", "BinaryInvestment": null, "BinaryRetirement": null, "BinaryCommitment": null, "InitialPeriod": 2025, "FinalPeriod": 2050, "MaximumPower": 180.6, "MinimumPower": null, "MaximumPowerHeat": null, "MinimumPowerHeat": null, "MaximumCharge": null, "MinimumCharge": null, "InitialStorage": null, "MaximumStorage": null, "MinimumStorage": null, "Efficiency": 0.204588444, "ShiftTime": null, "EFOR": null, "RampUp": null, "RampDown": null, "UpTime": null, "DownTime": null, "StableTime": null, "FuelCost": null, "LinearTerm": null, "ConstantTerm": null, "OMVariableCost": 0.5, "OperReserveCost": null, "StartUpCost": null, "ShutDownCost": null, "CO2EmissionRate": null, "Availability": 0.98, "FixedInvestmentCost": 243.0752, "FixedRetirementCost": null, "FixedChargeRate": 0.1, "StorageInvestment": null, "Inertia": null, "MaximumReactivePower": null, "MinimumReactivePower": null, "InvestmentLo": null, "InvestmentUp": null, "RetirementLo": null, "RetirementUp": null, "ProductionFunctionHydro": null, "ProductionFunctionH2": null, "ProductionFunctionHeat": null, "ProductionFunctionH2ToHeat": null, "longitude": -16.84036432, "latitude": 15.10108352, "zone": "Thies", "coordinate_source": "model node", "generation_gwh": 323.58786632906464, "technology_group": "solar", "is_renewable": true, "is_candidate": true, "installed_mw": 180.6, "selected_in_2030": true }, "geometry": { "type": "Point", "coordinates": [ -16.84036432, 15.10108352 ] } },
{ "type": "Feature", "properties": { "Generator": "Thies_wind_2025", "Node": "Senegal States|Tobene", "Technology": "RES_Wind_Onshore_Opt", "MutuallyExclusive": null, "StorageType": null, "OutflowsType": null, "EnergyType": null, "MustRun": null, "OutflowsIncompatibility": null, "NoOperatingReserve": "yes", "BinaryInvestment": null, "BinaryRetirement": null, "BinaryCommitment": null, "InitialPeriod": 2025, "FinalPeriod": 2050, "MaximumPower": 101.0, "MinimumPower": null, "MaximumPowerHeat": null, "MinimumPowerHeat": null, "MaximumCharge": null, "MinimumCharge": null, "InitialStorage": null, "MaximumStorage": null, "MinimumStorage": null, "Efficiency": 0.331754934, "ShiftTime": null, "EFOR": null, "RampUp": null, "RampDown": null, "UpTime": null, "DownTime": null, "StableTime": null, "FuelCost": null, "LinearTerm": null, "ConstantTerm": null, "OMVariableCost": 2.0, "OperReserveCost": null, "StartUpCost": null, "ShutDownCost": null, "CO2EmissionRate": null, "Availability": 0.98, "FixedInvestmentCost": 6.5696, "FixedRetirementCost": null, "FixedChargeRate": 0.1, "StorageInvestment": null, "Inertia": null, "MaximumReactivePower": null, "MinimumReactivePower": null, "InvestmentLo": null, "InvestmentUp": null, "RetirementLo": null, "RetirementUp": null, "ProductionFunctionHydro": null, "ProductionFunctionH2": null, "ProductionFunctionHeat": null, "ProductionFunctionH2ToHeat": null, "longitude": -16.8652695, "latitude": 15.00464525, "zone": "Thies", "coordinate_source": "model node", "generation_gwh": 287.30522167932634, "technology_group": "wind", "is_renewable": true, "is_candidate": true, "installed_mw": 101.0, "selected_in_2030": true }, "geometry": { "type": "Point", "coordinates": [ -16.8652695, 15.00464525 ] } },
{ "type": "Feature", "properties": { "Generator": "Solar_CICAD", "Node": "Senegal States|Fabrimetal", "Technology": "RES_PV_Utility_Opt", "MutuallyExclusive": null, "StorageType": null, "OutflowsType": null, "EnergyType": null, "MustRun": null, "OutflowsIncompatibility": null, "NoOperatingReserve": "yes", "BinaryInvestment": null, "BinaryRetirement": null, "BinaryCommitment": null, "InitialPeriod": 2014, "FinalPeriod": 2035, "MaximumPower": 2.0, "MinimumPower": null, "MaximumPowerHeat": null, "MinimumPowerHeat": null, "MaximumCharge": null, "MinimumCharge": null, "InitialStorage": null, "MaximumStorage": null, "MinimumStorage": null, "Efficiency": 0.207073226, "ShiftTime": null, "EFOR": null, "RampUp": null, "RampDown": null, "UpTime": null, "DownTime": null, "StableTime": null, "FuelCost": null, "LinearTerm": null, "ConstantTerm": null, "OMVariableCost": 0.5, "OperReserveCost": null, "StartUpCost": null, "ShutDownCost": null, "CO2EmissionRate": null, "Availability": 0.98, "FixedInvestmentCost": null, "FixedRetirementCost": null, "FixedChargeRate": null, "StorageInvestment": null, "Inertia": null, "MaximumReactivePower": null, "MinimumReactivePower": null, "InvestmentLo": null, "InvestmentUp": null, "RetirementLo": null, "RetirementUp": null, "ProductionFunctionHydro": null, "ProductionFunctionH2": null, "ProductionFunctionHeat": null, "ProductionFunctionH2ToHeat": null, "longitude": -17.194058418547002, "latitude": 14.743622752004001, "zone": "Dakar", "coordinate_source": "plant inventory", "generation_gwh": 9.1588641875040011, "technology_group": "solar", "is_renewable": true, "is_candidate": false, "installed_mw": 2.0, "selected_in_2030": true }, "geometry": { "type": "Point", "coordinates": [ -17.194058418547002, 14.743622752004001 ] } },
{ "type": "Feature", "properties": { "Generator": "Solar_DIASS", "Node": "Senegal States|Diass", "Technology": "RES_PV_Utility_Opt", "MutuallyExclusive": null, "StorageType": null, "OutflowsType": null, "EnergyType": null, "MustRun": null, "OutflowsIncompatibility": null, "NoOperatingReserve": "yes", "BinaryInvestment": null, "BinaryRetirement": null, "BinaryCommitment": null, "InitialPeriod": 2019, "FinalPeriod": 2039, "MaximumPower": 12.8696629, "MinimumPower": null, "MaximumPowerHeat": null, "MinimumPowerHeat": null, "MaximumCharge": null, "MinimumCharge": null, "InitialStorage": null, "MaximumStorage": null, "MinimumStorage": null, "Efficiency": 0.204588444, "ShiftTime": null, "EFOR": null, "RampUp": null, "RampDown": null, "UpTime": null, "DownTime": null, "StableTime": null, "FuelCost": null, "LinearTerm": null, "ConstantTerm": null, "OMVariableCost": 0.5, "OperReserveCost": null, "StartUpCost": null, "ShutDownCost": null, "CO2EmissionRate": null, "Availability": 0.98, "FixedInvestmentCost": null, "FixedRetirementCost": null, "FixedChargeRate": null, "StorageInvestment": null, "Inertia": null, "MaximumReactivePower": null, "MinimumReactivePower": null, "InvestmentLo": null, "InvestmentUp": null, "RetirementLo": null, "RetirementUp": null, "ProductionFunctionHydro": null, "ProductionFunctionH2": null, "ProductionFunctionHeat": null, "ProductionFunctionH2ToHeat": null, "longitude": -17.103123028656, "latitude": 14.653847682279206, "zone": "Thies", "coordinate_source": "plant inventory", "generation_gwh": 23.058902787392835, "technology_group": "solar", "is_renewable": true, "is_candidate": false, "installed_mw": 12.8696629, "selected_in_2030": true }, "geometry": { "type": "Point", "coordinates": [ -17.103123028656, 14.653847682279206 ] } },
{ "type": "Feature", "properties": { "Generator": "Manantali", "Node": "Senegal States|Kayes", "Technology": "RES_Hydro_Large", "MutuallyExclusive": null, "StorageType": "Hourly", "OutflowsType": "Hourly", "EnergyType": null, "MustRun": null, "OutflowsIncompatibility": null, "NoOperatingReserve": "No", "BinaryInvestment": null, "BinaryRetirement": null, "BinaryCommitment": null, "InitialPeriod": 1988, "FinalPeriod": 2041, "MaximumPower": 200.0, "MinimumPower": null, "MaximumPowerHeat": null, "MinimumPowerHeat": null, "MaximumCharge": null, "MinimumCharge": null, "InitialStorage": 0.1, "MaximumStorage": 1000.0, "MinimumStorage": 1.0, "Efficiency": 0.9, "ShiftTime": null, "EFOR": null, "RampUp": null, "RampDown": null, "UpTime": null, "DownTime": null, "StableTime": null, "FuelCost": null, "LinearTerm": null, "ConstantTerm": null, "OMVariableCost": 1.6, "OperReserveCost": null, "StartUpCost": null, "ShutDownCost": null, "CO2EmissionRate": null, "Availability": 0.417282298, "FixedInvestmentCost": null, "FixedRetirementCost": null, "FixedChargeRate": null, "StorageInvestment": null, "Inertia": null, "MaximumReactivePower": null, "MinimumReactivePower": null, "InvestmentLo": null, "InvestmentUp": null, "RetirementLo": null, "RetirementUp": null, "ProductionFunctionHydro": null, "ProductionFunctionH2": null, "ProductionFunctionHeat": null, "ProductionFunctionH2ToHeat": null, "longitude": -11.33584138, "latitude": 14.35825708, "zone": "MTKK", "coordinate_source": "model node", "generation_gwh": 674.53091793213844, "technology_group": "hydro", "is_renewable": true, "is_candidate": false, "installed_mw": 200.0, "selected_in_2030": true }, "geometry": { "type": "Point", "coordinates": [ -11.33584138, 14.35825708 ] } },
{ "type": "Feature", "properties": { "Generator": "PETN_Taiba_Ndiaye_Wind", "Node": "Senegal States|Tobene", "Technology": "RES_Wind_Onshore_Opt", "MutuallyExclusive": null, "StorageType": null, "OutflowsType": null, "EnergyType": null, "MustRun": null, "OutflowsIncompatibility": null, "NoOperatingReserve": "yes", "BinaryInvestment": null, "BinaryRetirement": null, "BinaryCommitment": null, "InitialPeriod": 2020, "FinalPeriod": 2040, "MaximumPower": 158.7, "MinimumPower": null, "MaximumPowerHeat": null, "MinimumPowerHeat": null, "MaximumCharge": null, "MinimumCharge": null, "InitialStorage": null, "MaximumStorage": null, "MinimumStorage": null, "Efficiency": 0.331754934, "ShiftTime": null, "EFOR": null, "RampUp": null, "RampDown": null, "UpTime": null, "DownTime": null, "StableTime": null, "FuelCost": null, "LinearTerm": null, "ConstantTerm": null, "OMVariableCost": 2.0, "OperReserveCost": null, "StartUpCost": null, "ShutDownCost": null, "CO2EmissionRate": null, "Availability": 0.98, "FixedInvestmentCost": null, "FixedRetirementCost": null, "FixedChargeRate": null, "StorageInvestment": null, "Inertia": null, "MaximumReactivePower": null, "MinimumReactivePower": null, "InvestmentLo": null, "InvestmentUp": null, "RetirementLo": null, "RetirementUp": null, "ProductionFunctionHydro": null, "ProductionFunctionH2": null, "ProductionFunctionHeat": null, "ProductionFunctionH2ToHeat": null, "longitude": -16.881072521212001, "latitude": 15.040501208298, "zone": "Thies", "coordinate_source": "plant inventory", "generation_gwh": 451.43964615642005, "technology_group": "wind", "is_renewable": true, "is_candidate": false, "installed_mw": 158.7, "selected_in_2030": true }, "geometry": { "type": "Point", "coordinates": [ -16.881072521212001, 15.040501208298 ] } },
{ "type": "Feature", "properties": { "Generator": "PV_Bokhol", "Node": "Senegal States|Dagana", "Technology": "RES_PV_Utility_Opt", "MutuallyExclusive": null, "StorageType": null, "OutflowsType": null, "EnergyType": null, "MustRun": null, "OutflowsIncompatibility": null, "NoOperatingReserve": "yes", "BinaryInvestment": null, "BinaryRetirement": null, "BinaryCommitment": null, "InitialPeriod": 2016, "FinalPeriod": 2036, "MaximumPower": 25.0, "MinimumPower": null, "MaximumPowerHeat": null, "MinimumPowerHeat": null, "MaximumCharge": null, "MinimumCharge": null, "InitialStorage": null, "MaximumStorage": null, "MinimumStorage": null, "Efficiency": 0.206546466, "ShiftTime": null, "EFOR": null, "RampUp": null, "RampDown": null, "UpTime": null, "DownTime": null, "StableTime": null, "FuelCost": null, "LinearTerm": null, "ConstantTerm": null, "OMVariableCost": 0.5, "OperReserveCost": null, "StartUpCost": null, "ShutDownCost": null, "CO2EmissionRate": null, "Availability": 0.98, "FixedInvestmentCost": null, "FixedRetirementCost": null, "FixedChargeRate": null, "StorageInvestment": null, "Inertia": null, "MaximumReactivePower": null, "MinimumReactivePower": null, "InvestmentLo": null, "InvestmentUp": null, "RetirementLo": null, "RetirementUp": null, "ProductionFunctionHydro": null, "ProductionFunctionH2": null, "ProductionFunctionHeat": null, "ProductionFunctionH2ToHeat": null, "longitude": -15.467164608921331, "latitude": 16.522171106544, "zone": "LS", "coordinate_source": "plant inventory", "generation_gwh": 45.186695602998924, "technology_group": "solar", "is_renewable": true, "is_candidate": false, "installed_mw": 25.0, "selected_in_2030": true }, "geometry": { "type": "Point", "coordinates": [ -15.467164608921331, 16.522171106544 ] } },
{ "type": "Feature", "properties": { "Generator": "PV_Malicounda", "Node": "Senegal States|Mbour", "Technology": "RES_PV_Utility_Opt", "MutuallyExclusive": null, "StorageType": null, "OutflowsType": null, "EnergyType": null, "MustRun": null, "OutflowsIncompatibility": null, "NoOperatingReserve": "yes", "BinaryInvestment": null, "BinaryRetirement": null, "BinaryCommitment": null, "InitialPeriod": 2016, "FinalPeriod": 2036, "MaximumPower": 67.14606742, "MinimumPower": null, "MaximumPowerHeat": null, "MinimumPowerHeat": null, "MaximumCharge": null, "MinimumCharge": null, "InitialStorage": null, "MaximumStorage": null, "MinimumStorage": null, "Efficiency": 0.204588444, "ShiftTime": null, "EFOR": null, "RampUp": null, "RampDown": null, "UpTime": null, "DownTime": null, "StableTime": null, "FuelCost": null, "LinearTerm": null, "ConstantTerm": null, "OMVariableCost": 0.5, "OperReserveCost": null, "StartUpCost": null, "ShutDownCost": null, "CO2EmissionRate": null, "Availability": 0.98, "FixedInvestmentCost": null, "FixedRetirementCost": null, "FixedChargeRate": null, "StorageInvestment": null, "Inertia": null, "MaximumReactivePower": null, "MinimumReactivePower": null, "InvestmentLo": null, "InvestmentUp": null, "RetirementLo": null, "RetirementUp": null, "ProductionFunctionHydro": null, "ProductionFunctionH2": null, "ProductionFunctionHeat": null, "ProductionFunctionH2ToHeat": null, "longitude": -16.966675826989, "latitude": 14.452296698174999, "zone": "Thies", "coordinate_source": "plant inventory", "generation_gwh": 120.30823288868487, "technology_group": "solar", "is_renewable": true, "is_candidate": false, "installed_mw": 67.14606742, "selected_in_2030": true }, "geometry": { "type": "Point", "coordinates": [ -16.966675826989, 14.452296698174999 ] } },
{ "type": "Feature", "properties": { "Generator": "PV_Senergy_or_Santhiou_Mekhe", "Node": "Senegal States|Tobene", "Technology": "RES_PV_Utility_Opt", "MutuallyExclusive": null, "StorageType": null, "OutflowsType": null, "EnergyType": null, "MustRun": null, "OutflowsIncompatibility": null, "NoOperatingReserve": "yes", "BinaryInvestment": null, "BinaryRetirement": null, "BinaryCommitment": null, "InitialPeriod": 2018, "FinalPeriod": 2040, "MaximumPower": 16.7865169, "MinimumPower": null, "MaximumPowerHeat": null, "MinimumPowerHeat": null, "MaximumCharge": null, "MinimumCharge": null, "InitialStorage": null, "MaximumStorage": null, "MinimumStorage": null, "Efficiency": 0.204588444, "ShiftTime": null, "EFOR": null, "RampUp": null, "RampDown": null, "UpTime": null, "DownTime": null, "StableTime": null, "FuelCost": null, "LinearTerm": null, "ConstantTerm": null, "OMVariableCost": 0.5, "OperReserveCost": null, "StartUpCost": null, "ShutDownCost": null, "CO2EmissionRate": null, "Availability": 0.98, "FixedInvestmentCost": null, "FixedRetirementCost": null, "FixedChargeRate": null, "StorageInvestment": null, "Inertia": null, "MaximumReactivePower": null, "MinimumReactivePower": null, "InvestmentLo": null, "InvestmentUp": null, "RetirementLo": null, "RetirementUp": null, "ProductionFunctionHydro": null, "ProductionFunctionH2": null, "ProductionFunctionHeat": null, "ProductionFunctionH2ToHeat": null, "longitude": -16.761232495045, "latitude": 15.079213616988, "zone": "Thies", "coordinate_source": "plant inventory", "generation_gwh": 30.077002269310785, "technology_group": "solar", "is_renewable": true, "is_candidate": false, "installed_mw": 16.7865169, "selected_in_2030": true }, "geometry": { "type": "Point", "coordinates": [ -16.761232495045, 15.079213616988 ] } },
{ "type": "Feature", "properties": { "Generator": "PV_Ten_Merina", "Node": "Senegal States|SDE", "Technology": "RES_PV_Utility_Opt", "MutuallyExclusive": null, "StorageType": null, "OutflowsType": null, "EnergyType": null, "MustRun": null, "OutflowsIncompatibility": null, "NoOperatingReserve": "yes", "BinaryInvestment": null, "BinaryRetirement": null, "BinaryCommitment": null, "InitialPeriod": 2011, "FinalPeriod": 2040, "MaximumPower": 16.50674157, "MinimumPower": null, "MaximumPowerHeat": null, "MinimumPowerHeat": null, "MaximumCharge": null, "MinimumCharge": null, "InitialStorage": null, "MaximumStorage": null, "MinimumStorage": null, "Efficiency": 0.204588444, "ShiftTime": null, "EFOR": null, "RampUp": null, "RampDown": null, "UpTime": null, "DownTime": null, "StableTime": null, "FuelCost": null, "LinearTerm": null, "ConstantTerm": null, "OMVariableCost": 0.5, "OperReserveCost": null, "StartUpCost": null, "ShutDownCost": null, "CO2EmissionRate": null, "Availability": 0.98, "FixedInvestmentCost": null, "FixedRetirementCost": null, "FixedChargeRate": null, "StorageInvestment": null, "Inertia": null, "MaximumReactivePower": null, "MinimumReactivePower": null, "InvestmentLo": null, "InvestmentUp": null, "RetirementLo": null, "RetirementUp": null, "ProductionFunctionHydro": null, "ProductionFunctionH2": null, "ProductionFunctionHeat": null, "ProductionFunctionH2ToHeat": null, "longitude": -16.593794775342477, "latitude": 15.155667288260569, "zone": "Thies", "coordinate_source": "plant inventory", "generation_gwh": 29.57572136167899, "technology_group": "solar", "is_renewable": true, "is_candidate": false, "installed_mw": 16.50674157, "selected_in_2030": true }, "geometry": { "type": "Point", "coordinates": [ -16.593794775342477, 15.155667288260569 ] } },
{ "type": "Feature", "properties": { "Generator": "PV_Kahone", "Node": "Senegal States|Kahone", "Technology": "RES_PV_Utility_Opt", "MutuallyExclusive": null, "StorageType": null, "OutflowsType": null, "EnergyType": null, "MustRun": null, "OutflowsIncompatibility": null, "NoOperatingReserve": "yes", "BinaryInvestment": null, "BinaryRetirement": null, "BinaryCommitment": null, "InitialPeriod": 2011, "FinalPeriod": 2050, "MaximumPower": 21.0, "MinimumPower": null, "MaximumPowerHeat": null, "MinimumPowerHeat": null, "MaximumCharge": null, "MinimumCharge": null, "InitialStorage": null, "MaximumStorage": null, "MinimumStorage": null, "Efficiency": 0.195250885, "ShiftTime": null, "EFOR": null, "RampUp": null, "RampDown": null, "UpTime": null, "DownTime": null, "StableTime": null, "FuelCost": null, "LinearTerm": null, "ConstantTerm": null, "OMVariableCost": 0.5, "OperReserveCost": null, "StartUpCost": null, "ShutDownCost": null, "CO2EmissionRate": null, "Availability": 0.98, "FixedInvestmentCost": null, "FixedRetirementCost": null, "FixedChargeRate": null, "StorageInvestment": null, "Inertia": null, "MaximumReactivePower": null, "MinimumReactivePower": null, "InvestmentLo": null, "InvestmentUp": null, "RetirementLo": null, "RetirementUp": null, "ProductionFunctionHydro": null, "ProductionFunctionH2": null, "ProductionFunctionHeat": null, "ProductionFunctionH2ToHeat": null, "longitude": -16.02548, "latitude": 14.16559, "zone": "FKK", "coordinate_source": "plant inventory", "generation_gwh": 35.898648362647961, "technology_group": "solar", "is_renewable": true, "is_candidate": false, "installed_mw": 21.0, "selected_in_2030": true }, "geometry": { "type": "Point", "coordinates": [ -16.02548, 14.16559 ] } },
{ "type": "Feature", "properties": { "Generator": "PV_Sakal", "Node": "Senegal States|Sakal", "Technology": "RES_PV_Utility_Opt", "MutuallyExclusive": null, "StorageType": null, "OutflowsType": null, "EnergyType": null, "MustRun": null, "OutflowsIncompatibility": null, "NoOperatingReserve": "yes", "BinaryInvestment": null, "BinaryRetirement": null, "BinaryCommitment": null, "InitialPeriod": 2018, "FinalPeriod": 2038, "MaximumPower": 11.19101124, "MinimumPower": null, "MaximumPowerHeat": null, "MinimumPowerHeat": null, "MaximumCharge": null, "MinimumCharge": null, "InitialStorage": null, "MaximumStorage": null, "MinimumStorage": null, "Efficiency": 0.204588444, "ShiftTime": null, "EFOR": null, "RampUp": null, "RampDown": null, "UpTime": null, "DownTime": null, "StableTime": null, "FuelCost": null, "LinearTerm": null, "ConstantTerm": null, "OMVariableCost": 0.5, "OperReserveCost": null, "StartUpCost": null, "ShutDownCost": null, "CO2EmissionRate": null, "Availability": 0.98, "FixedInvestmentCost": null, "FixedRetirementCost": null, "FixedChargeRate": null, "StorageInvestment": null, "Inertia": null, "MaximumReactivePower": null, "MinimumReactivePower": null, "InvestmentLo": null, "InvestmentUp": null, "RetirementLo": null, "RetirementUp": null, "ProductionFunctionHydro": null, "ProductionFunctionH2": null, "ProductionFunctionHeat": null, "ProductionFunctionH2ToHeat": null, "longitude": -16.221377849570001, "latitude": 15.832259074035001, "zone": "LS", "coordinate_source": "plant inventory", "generation_gwh": 20.0510585843268, "technology_group": "solar", "is_renewable": true, "is_candidate": false, "installed_mw": 11.19101124, "selected_in_2030": true }, "geometry": { "type": "Point", "coordinates": [ -16.221377849570001, 15.832259074035001 ] } },
{ "type": "Feature", "properties": { "Generator": "Malicounda_Power", "Node": "Senegal States|Mbour", "Technology": "P_Oil", "MutuallyExclusive": null, "StorageType": null, "OutflowsType": null, "EnergyType": null, "MustRun": null, "OutflowsIncompatibility": null, "NoOperatingReserve": "yes", "BinaryInvestment": null, "BinaryRetirement": null, "BinaryCommitment": null, "InitialPeriod": 2012, "FinalPeriod": 2040, "MaximumPower": 120.0, "MinimumPower": null, "MaximumPowerHeat": null, "MinimumPowerHeat": null, "MaximumCharge": null, "MinimumCharge": null, "InitialStorage": null, "MaximumStorage": null, "MinimumStorage": null, "Efficiency": 0.383885865, "ShiftTime": null, "EFOR": 0.05, "RampUp": null, "RampDown": null, "UpTime": null, "DownTime": null, "StableTime": null, "FuelCost": 15.0, "LinearTerm": 9.377787326, "ConstantTerm": 1500.0, "OMVariableCost": 5.0, "OperReserveCost": null, "StartUpCost": 7.48896, "ShutDownCost": null, "CO2EmissionRate": null, "Availability": 0.95, "FixedInvestmentCost": null, "FixedRetirementCost": null, "FixedChargeRate": null, "StorageInvestment": null, "Inertia": null, "MaximumReactivePower": null, "MinimumReactivePower": null, "InvestmentLo": null, "InvestmentUp": null, "RetirementLo": null, "RetirementUp": null, "ProductionFunctionHydro": null, "ProductionFunctionH2": null, "ProductionFunctionHeat": null, "ProductionFunctionH2ToHeat": null, "longitude": -16.96460872, "latitude": 14.47026212, "zone": "Thies", "coordinate_source": "model node", "generation_gwh": 793.90817453953764, "technology_group": "oil", "is_renewable": false, "is_candidate": false, "installed_mw": 120.0, "selected_in_2030": true }, "geometry": { "type": "Point", "coordinates": [ -16.96460872, 14.47026212 ] } },
{ "type": "Feature", "properties": { "Generator": "Centrale_Kahone_Solaire", "Node": "Senegal States|Kahone", "Technology": "RES_PV_Utility_Opt", "MutuallyExclusive": null, "StorageType": null, "OutflowsType": null, "EnergyType": null, "MustRun": null, "OutflowsIncompatibility": null, "NoOperatingReserve": "yes", "BinaryInvestment": null, "BinaryRetirement": null, "BinaryCommitment": null, "InitialPeriod": 2018, "FinalPeriod": 2050, "MaximumPower": 35.0, "MinimumPower": null, "MaximumPowerHeat": null, "MinimumPowerHeat": null, "MaximumCharge": null, "MinimumCharge": null, "InitialStorage": null, "MaximumStorage": null, "MinimumStorage": null, "Efficiency": 0.195250885, "ShiftTime": null, "EFOR": null, "RampUp": null, "RampDown": null, "UpTime": null, "DownTime": null, "StableTime": null, "FuelCost": null, "LinearTerm": null, "ConstantTerm": null, "OMVariableCost": 0.5, "OperReserveCost": null, "StartUpCost": null, "ShutDownCost": null, "CO2EmissionRate": null, "Availability": 0.98, "FixedInvestmentCost": null, "FixedRetirementCost": null, "FixedChargeRate": null, "StorageInvestment": null, "Inertia": null, "MaximumReactivePower": null, "MinimumReactivePower": null, "InvestmentLo": null, "InvestmentUp": null, "RetirementLo": null, "RetirementUp": null, "ProductionFunctionHydro": null, "ProductionFunctionH2": null, "ProductionFunctionHeat": null, "ProductionFunctionH2ToHeat": null, "longitude": -16.03396, "latitude": 14.14331, "zone": "FKK", "coordinate_source": "plant inventory", "generation_gwh": 59.831153755170789, "technology_group": "solar", "is_renewable": true, "is_candidate": false, "installed_mw": 35.0, "selected_in_2030": true }, "geometry": { "type": "Point", "coordinates": [ -16.03396, 14.14331 ] } },
{ "type": "Feature", "properties": { "Generator": "Centrale_Kael_Solaire", "Node": "Senegal States|Touba_1", "Technology": "RES_PV_Utility_Opt", "MutuallyExclusive": null, "StorageType": null, "OutflowsType": null, "EnergyType": null, "MustRun": null, "OutflowsIncompatibility": null, "NoOperatingReserve": "yes", "BinaryInvestment": null, "BinaryRetirement": null, "BinaryCommitment": null, "InitialPeriod": 2021, "FinalPeriod": 2050, "MaximumPower": 30.0, "MinimumPower": null, "MaximumPowerHeat": null, "MinimumPowerHeat": null, "MaximumCharge": null, "MinimumCharge": null, "InitialStorage": null, "MaximumStorage": null, "MinimumStorage": null, "Efficiency": 0.199821669, "ShiftTime": null, "EFOR": null, "RampUp": null, "RampDown": null, "UpTime": null, "DownTime": null, "StableTime": null, "FuelCost": null, "LinearTerm": null, "ConstantTerm": null, "OMVariableCost": 0.5, "OperReserveCost": null, "StartUpCost": null, "ShutDownCost": null, "CO2EmissionRate": null, "Availability": 0.98, "FixedInvestmentCost": null, "FixedRetirementCost": null, "FixedChargeRate": null, "StorageInvestment": null, "Inertia": null, "MaximumReactivePower": null, "MinimumReactivePower": null, "InvestmentLo": null, "InvestmentUp": null, "RetirementLo": null, "RetirementUp": null, "ProductionFunctionHydro": null, "ProductionFunctionH2": null, "ProductionFunctionHeat": null, "ProductionFunctionH2ToHeat": null, "longitude": -15.921114746513682, "latitude": 14.772142283133316, "zone": "Diourbel", "coordinate_source": "plant inventory", "generation_gwh": 52.515600904803961, "technology_group": "solar", "is_renewable": true, "is_candidate": false, "installed_mw": 30.0, "selected_in_2030": true }, "geometry": { "type": "Point", "coordinates": [ -15.921114746513682, 14.772142283133316 ] } },
{ "type": "Feature", "properties": { "Generator": "FKK_PV_25", "Node": "Senegal States|Kahone", "Technology": "RES_PV_Utility_Opt", "MutuallyExclusive": null, "StorageType": null, "OutflowsType": null, "EnergyType": null, "MustRun": null, "OutflowsIncompatibility": null, "NoOperatingReserve": "yes", "BinaryInvestment": null, "BinaryRetirement": null, "BinaryCommitment": null, "InitialPeriod": 2025, "FinalPeriod": 2050, "MaximumPower": 44.6, "MinimumPower": null, "MaximumPowerHeat": null, "MinimumPowerHeat": null, "MaximumCharge": null, "MinimumCharge": null, "InitialStorage": null, "MaximumStorage": null, "MinimumStorage": null, "Efficiency": 0.195250885, "ShiftTime": null, "EFOR": null, "RampUp": null, "RampDown": null, "UpTime": null, "DownTime": null, "StableTime": null, "FuelCost": null, "LinearTerm": null, "ConstantTerm": null, "OMVariableCost": 0.5, "OperReserveCost": null, "StartUpCost": null, "ShutDownCost": null, "CO2EmissionRate": null, "Availability": 0.98, "FixedInvestmentCost": 246.3698643, "FixedRetirementCost": null, "FixedChargeRate": 0.1, "StorageInvestment": null, "Inertia": null, "MaximumReactivePower": null, "MinimumReactivePower": null, "InvestmentLo": null, "InvestmentUp": null, "RetirementLo": null, "RetirementUp": null, "ProductionFunctionHydro": null, "ProductionFunctionH2": null, "ProductionFunctionHeat": null, "ProductionFunctionH2ToHeat": null, "longitude": -16.03163124, "latitude": 14.16707562, "zone": "FKK", "coordinate_source": "model node", "generation_gwh": 0.0, "technology_group": "solar", "is_renewable": true, "is_candidate": true, "installed_mw": 0.0, "selected_in_2030": false }, "geometry": { "type": "Point", "coordinates": [ -16.03163124, 14.16707562 ] } },
{ "type": "Feature", "properties": { "Generator": "Felou_Gouina", "Node": "Senegal States|Kayes", "Technology": "RES_Hydro_Small", "MutuallyExclusive": null, "StorageType": null, "OutflowsType": null, "EnergyType": null, "MustRun": null, "OutflowsIncompatibility": null, "NoOperatingReserve": "yes", "BinaryInvestment": null, "BinaryRetirement": null, "BinaryCommitment": null, "InitialPeriod": 2020, "FinalPeriod": 2050, "MaximumPower": 200.0, "MinimumPower": null, "MaximumPowerHeat": null, "MinimumPowerHeat": null, "MaximumCharge": null, "MinimumCharge": null, "InitialStorage": null, "MaximumStorage": null, "MinimumStorage": null, "Efficiency": 0.444938232, "ShiftTime": null, "EFOR": null, "RampUp": null, "RampDown": null, "UpTime": null, "DownTime": null, "StableTime": null, "FuelCost": null, "LinearTerm": null, "ConstantTerm": null, "OMVariableCost": 1.0, "OperReserveCost": null, "StartUpCost": null, "ShutDownCost": null, "CO2EmissionRate": null, "Availability": 0.9, "FixedInvestmentCost": null, "FixedRetirementCost": null, "FixedChargeRate": null, "StorageInvestment": null, "Inertia": null, "MaximumReactivePower": null, "MinimumReactivePower": null, "InvestmentLo": null, "InvestmentUp": null, "RetirementLo": null, "RetirementUp": null, "ProductionFunctionHydro": null, "ProductionFunctionH2": null, "ProductionFunctionHeat": null, "ProductionFunctionH2ToHeat": null, "longitude": -11.36384138, "latitude": 14.35825708, "zone": "MTKK", "coordinate_source": "model node", "generation_gwh": 631.05411902253593, "technology_group": "hydro", "is_renewable": true, "is_candidate": false, "installed_mw": 200.0, "selected_in_2030": true }, "geometry": { "type": "Point", "coordinates": [ -11.36384138, 14.35825708 ] } },
{ "type": "Feature", "properties": { "Generator": "Dakar_PV_29", "Node": "Senegal States|Fabrimetal", "Technology": "RES_PV_Utility_Opt", "MutuallyExclusive": null, "StorageType": null, "OutflowsType": null, "EnergyType": null, "MustRun": null, "OutflowsIncompatibility": null, "NoOperatingReserve": "yes", "BinaryInvestment": null, "BinaryRetirement": null, "BinaryCommitment": null, "InitialPeriod": 2029, "FinalPeriod": 2050, "MaximumPower": 36.7, "MinimumPower": null, "MaximumPowerHeat": null, "MinimumPowerHeat": null, "MaximumCharge": null, "MinimumCharge": null, "InitialStorage": null, "MaximumStorage": null, "MinimumStorage": null, "Efficiency": 0.207073226, "ShiftTime": null, "EFOR": null, "RampUp": null, "RampDown": null, "UpTime": null, "DownTime": null, "StableTime": null, "FuelCost": null, "LinearTerm": null, "ConstantTerm": null, "OMVariableCost": 0.5, "OperReserveCost": null, "StartUpCost": null, "ShutDownCost": null, "CO2EmissionRate": null, "Availability": 0.98, "FixedInvestmentCost": 202.7303592, "FixedRetirementCost": null, "FixedChargeRate": 0.1, "StorageInvestment": null, "Inertia": null, "MaximumReactivePower": null, "MinimumReactivePower": null, "InvestmentLo": null, "InvestmentUp": null, "RetirementLo": null, "RetirementUp": null, "ProductionFunctionHydro": null, "ProductionFunctionH2": null, "ProductionFunctionHeat": null, "ProductionFunctionH2ToHeat": null, "longitude": -17.16256509, "latitude": 14.74474044, "zone": "Dakar", "coordinate_source": "model node", "generation_gwh": 172.20589394728802, "technology_group": "solar", "is_renewable": true, "is_candidate": true, "installed_mw": 36.7, "selected_in_2030": true }, "geometry": { "type": "Point", "coordinates": [ -17.16256509, 14.74474044 ] } }
]
}
