{
"type": "FeatureCollection",
"name": "nodes",
"crs": { "type": "name", "properties": { "name": "urn:ogc:def:crs:OGC:1.3:CRS84" } },
"features": [
{ "type": "Feature", "properties": { "Node": "Senegal States|Dagana", "Latitude": 16.51184168, "Longitude": -15.46626099, "Zone": "Senegal Zones|LS", "zone": "LS" }, "geometry": { "type": "Point", "coordinates": [ -15.46626099, 16.51184168 ] } },
{ "type": "Feature", "properties": { "Node": "Senegal States|Sakal", "Latitude": 15.8590443, "Longitude": -16.22852109, "Zone": "Senegal Zones|LS", "zone": "LS" }, "geometry": { "type": "Point", "coordinates": [ -16.22852109, 15.8590443 ] } },
{ "type": "Feature", "properties": { "Node": "Senegal States|Touba_1", "Latitude": 14.7934067, "Longitude": -15.93549626, "Zone": "Senegal Zones|Diourbel", "zone": "Diourbel" }, "geometry": { "type": "Point", "coordinates": [ -15.93549626, 14.7934067 ] } },
{ "type": "Feature", "properties": { "Node": "Senegal States|Kahone", "Latitude": 14.16707562, "Longitude": -16.03163124, "Zone": "Senegal Zones|FKK", "zone": "FKK" }, "geometry": { "type": "Point", "coordinates": [ -16.03163124, 14.16707562 ] } },
{ "type": "Feature", "properties": { "Node": "Senegal States|Diass", "Latitude": 14.65867849, "Longitude": -17.1016541, "Zone": "Senegal Zones|Thies", "zone": "Thies" }, "geometry": { "type": "Point", "coordinates": [ -17.1016541, 14.65867849 ] } },
{ "type": "Feature", "properties": { "Node": "Senegal States|Bakel", "Latitude": 14.89074035, "Longitude": -12.47410162, "Zone": "Senegal Zones|MTKK", "zone": "MTKK" }, "geometry": { "type": "Point", "coordinates": [ -12.47410162, 14.89074035 ] } },
{ "type": "Feature", "properties": { "Node": "Senegal States|Thiona", "Latitude": 14.77996895, "Longitude": -16.94273687, "Zone": "Senegal Zones|Thies", "zone": "Thies" }, "geometry": { "type": "Point", "coordinates": [ -16.94273687, 14.77996895 ] } },
{ "type": "Feature", "properties": { "Node": "Senegal States|Tobene", "Latitude": 15.00464525, "Longitude": -16.8652695, "Zone": "Senegal Zones|Thies", "zone": "Thies" }, "geometry": { "type": "Point", "coordinates": [ -16.8652695, 15.00464525 ] } },
{ "type": "Feature", "properties": { "Node": "Senegal States|ICS", "Latitude": 15.10108352, "Longitude": -16.84036432, "Zone": "Senegal Zones|Thies", "zone": "Thies" }, "geometry": { "type": "Point", "coordinates": [ -16.84036432, 15.10108352 ] } },
{ "type": "Feature", "properties": { "Node": "Senegal States|SDE", "Latitude": 15.1461977, "Longitude": -16.61997372, "Zone": "Senegal Zones|Thies", "zone": "Thies" }, "geometry": { "type": "Point", "coordinates": [ -16.61997372, 15.1461977 ] } },
{ "type": "Feature", "properties": { "Node": "Senegal States|Fatick", "Latitude": 14.36650969, "Longitude": -16.41655, "Zone": "Senegal Zones|FKK", "zone": "FKK" }, "geometry": { "type": "Point", "coordinates": [ -16.41655, 14.36650969 ] } },
{ "type": "Feature", "properties": { "Node": "Senegal States|Mbour", "Latitude": 14.47026212, "Longitude": -16.95060872, "Zone": "Senegal Zones|Thies", "zone": "Thies" }, "geometry": { "type": "Point", "coordinates": [ -16.95060872, 14.47026212 ] } },
{ "type": "Feature", "properties": { "Node": "Senegal States|Ziguinchor", "Latitude": 12.55982815, "Longitude": -16.22497827, "Zone": "Senegal Zones|ZS", "zone": "ZS" }, "geometry": { "type": "Point", "coordinates": [ -16.22497827, 12.55982815 ] } },
{ "type": "Feature", "properties": { "Node": "Senegal States|Tanaf", "Latitude": 12.6591533, "Longitude": -15.4644387, "Zone": "Senegal Zones|ZS", "zone": "ZS" }, "geometry": { "type": "Point", "coordinates": [ -15.4644387, 12.6591533 ] } },
{ "type": "Feature", "properties": { "Node": "Senegal States|Tambacounda", "Latitude": 13.77472789, "Longitude": -13.72938682, "Zone": "Senegal Zones|MTKK", "zone": "MTKK" }, "geometry": { "type": "Point", "coordinates": [ -13.72938682, 13.77472789 ] } },
{ "type": "Feature", "properties": { "Node": "Senegal States|Kolda", "Latitude": 12.86405574, "Longitude": -14.93616241, "Zone": "Senegal Zones|FKK", "zone": "FKK" }, "geometry": { "type": "Point", "coordinates": [ -14.93616241, 12.86405574 ] } },
{ "type": "Feature", "properties": { "Node": "Senegal States|Sabangalou", "Latitude": 12.39794221, "Longitude": -12.21717132, "Zone": "Senegal Zones|MTKK", "zone": "MTKK" }, "geometry": { "type": "Point", "coordinates": [ -12.21717132, 12.39794221 ] } },
{ "type": "Feature", "properties": { "Node": "Senegal States|Kedougou", "Latitude": 12.54565362, "Longitude": -12.24961422, "Zone": "Senegal Zones|MTKK", "zone": "MTKK" }, "geometry": { "type": "Point", "coordinates": [ -12.24961422, 12.54565362 ] } },
{ "type": "Feature", "properties": { "Node": "Senegal States|Matam", "Latitude": 15.61303, "Longitude": -13.31461, "Zone": "Senegal Zones|MTKK", "zone": "MTKK" }, "geometry": { "type": "Point", "coordinates": [ -13.31461, 15.61303 ] } },
{ "type": "Feature", "properties": { "Node": "Senegal States|Velingara", "Latitude": 13.16064066, "Longitude": -14.06433258, "Zone": "Senegal Zones|FKK", "zone": "FKK" }, "geometry": { "type": "Point", "coordinates": [ -14.06433258, 13.16064066 ] } },
{ "type": "Feature", "properties": { "Node": "Senegal States|Koungheul", "Latitude": 13.96710115, "Longitude": -14.83189326, "Zone": "Senegal Zones|FKK", "zone": "FKK" }, "geometry": { "type": "Point", "coordinates": [ -14.83189326, 13.96710115 ] } },
{ "type": "Feature", "properties": { "Node": "Senegal States|Pekesse", "Latitude": 15.11332631, "Longitude": -16.43307608, "Zone": "Senegal Zones|Thies", "zone": "Thies" }, "geometry": { "type": "Point", "coordinates": [ -16.43307608, 15.11332631 ] } },
{ "type": "Feature", "properties": { "Node": "Senegal States|Ndioum", "Latitude": 16.51634241, "Longitude": -14.67801386, "Zone": "Senegal Zones|LS", "zone": "LS" }, "geometry": { "type": "Point", "coordinates": [ -14.67801386, 16.51634241 ] } },
{ "type": "Feature", "properties": { "Node": "Senegal States|Touba_2", "Latitude": 14.92570948, "Longitude": -15.79681638, "Zone": "Senegal Zones|Diourbel", "zone": "Diourbel" }, "geometry": { "type": "Point", "coordinates": [ -15.79681638, 14.92570948 ] } },
{ "type": "Feature", "properties": { "Node": "Senegal States|Kayes", "Latitude": 14.35825708, "Longitude": -11.34984138, "Zone": "Senegal Zones|MTKK", "zone": "MTKK" }, "geometry": { "type": "Point", "coordinates": [ -11.34984138, 14.35825708 ] } },
{ "type": "Feature", "properties": { "Node": "Senegal States|Linguere", "Latitude": 15.40111559, "Longitude": -15.18648003, "Zone": "Senegal Zones|LS", "zone": "LS" }, "geometry": { "type": "Point", "coordinates": [ -15.18648003, 15.40111559 ] } },
{ "type": "Feature", "properties": { "Node": "Senegal States|Wack_Ngouna", "Latitude": 13.76829692, "Longitude": -16.06047435, "Zone": "Senegal Zones|FKK", "zone": "FKK" }, "geometry": { "type": "Point", "coordinates": [ -16.06047435, 13.76829692 ] } },
{ "type": "Feature", "properties": { "Node": "Senegal States|Saint_Louis", "Latitude": 15.99976973, "Longitude": -16.43143115, "Zone": "Senegal Zones|LS", "zone": "LS" }, "geometry": { "type": "Point", "coordinates": [ -16.43143115, 15.99976973 ] } },
{ "type": "Feature", "properties": { "Node": "Senegal States|Aeroport", "Latitude": 14.74681949, "Longitude": -17.48615655, "Zone": "Senegal Zones|Dakar", "zone": "Dakar" }, "geometry": { "type": "Point", "coordinates": [ -17.48615655, 14.74681949 ] } },
{ "type": "Feature", "properties": { "Node": "Senegal States|Sicap", "Latitude": 14.7135658, "Longitude": -17.4534123, "Zone": "Senegal Zones|Dakar", "zone": "Dakar" }, "geometry": { "type": "Point", "coordinates": [ -17.4534123, 14.7135658 ] } },
{ "type": "Feature", "properties": { "Node": "Senegal States|Universite", "Latitude": 14.69173114, "Longitude": -17.46118234, "Zone": "Senegal Zones|Dakar", "zone": "Dakar" }, "geometry": { "type": "Point", "coordinates": [ -17.46118234, 14.69173114 ] } },
{ "type": "Feature", "properties": { "Node": "Senegal States|Centre_Ville", "Latitude": 14.66886225, "Longitude": -17.43904434, "Zone": "Senegal Zones|Dakar", "zone": "Dakar" }, "geometry": { "type": "Point", "coordinates": [ -17.43904434, 14.66886225 ] } },
{ "type": "Feature", "properties": { "Node": "Senegal States|Bel_Air", "Latitude": 14.68990925, "Longitude": -17.43480838, "Zone": "Senegal Zones|Dakar", "zone": "Dakar" }, "geometry": { "type": "Point", "coordinates": [ -17.43480838, 14.68990925 ] } },
{ "type": "Feature", "properties": { "Node": "Senegal States|Hann", "Latitude": 14.73139415, "Longitude": -17.43771175, "Zone": "Senegal Zones|Dakar", "zone": "Dakar" }, "geometry": { "type": "Point", "coordinates": [ -17.43771175, 14.73139415 ] } },
{ "type": "Feature", "properties": { "Node": "Senegal States|Patte_Doie", "Latitude": 14.73703537, "Longitude": -17.43249346, "Zone": "Senegal Zones|Dakar", "zone": "Dakar" }, "geometry": { "type": "Point", "coordinates": [ -17.43249346, 14.73703537 ] } },
{ "type": "Feature", "properties": { "Node": "Senegal States|Guediawaye", "Latitude": 14.77147116, "Longitude": -17.38915175, "Zone": "Senegal Zones|Dakar", "zone": "Dakar" }, "geometry": { "type": "Point", "coordinates": [ -17.38915175, 14.77147116 ] } },
{ "type": "Feature", "properties": { "Node": "Senegal States|Mbao", "Latitude": 14.75841087, "Longitude": -17.34341222, "Zone": "Senegal Zones|Dakar", "zone": "Dakar" }, "geometry": { "type": "Point", "coordinates": [ -17.34341222, 14.75841087 ] } },
{ "type": "Feature", "properties": { "Node": "Senegal States|Cap_Des_Biches", "Latitude": 14.71989523, "Longitude": -17.30051519, "Zone": "Senegal Zones|Dakar", "zone": "Dakar" }, "geometry": { "type": "Point", "coordinates": [ -17.30051519, 14.71989523 ] } },
{ "type": "Feature", "properties": { "Node": "Senegal States|Kounoune", "Latitude": 14.74293601, "Longitude": -17.26460936, "Zone": "Senegal Zones|Dakar", "zone": "Dakar" }, "geometry": { "type": "Point", "coordinates": [ -17.26460936, 14.74293601 ] } },
{ "type": "Feature", "properties": { "Node": "Senegal States|Sococim", "Latitude": 14.71018467, "Longitude": -17.24829086, "Zone": "Senegal Zones|Dakar", "zone": "Dakar" }, "geometry": { "type": "Point", "coordinates": [ -17.24829086, 14.71018467 ] } },
{ "type": "Feature", "properties": { "Node": "Senegal States|Sendou", "Latitude": 14.68875284, "Longitude": -17.21360927, "Zone": "Senegal Zones|Dakar", "zone": "Dakar" }, "geometry": { "type": "Point", "coordinates": [ -17.21360927, 14.68875284 ] } },
{ "type": "Feature", "properties": { "Node": "Senegal States|Diamniadio", "Latitude": 14.7115875, "Longitude": -17.21505744, "Zone": "Senegal Zones|Dakar", "zone": "Dakar" }, "geometry": { "type": "Point", "coordinates": [ -17.21505744, 14.7115875 ] } },
{ "type": "Feature", "properties": { "Node": "Senegal States|Olam", "Latitude": 14.72069022, "Longitude": -17.17572712, "Zone": "Senegal Zones|Dakar", "zone": "Dakar" }, "geometry": { "type": "Point", "coordinates": [ -17.17572712, 14.72069022 ] } },
{ "type": "Feature", "properties": { "Node": "Senegal States|Someta", "Latitude": 14.7319769, "Longitude": -17.15590517, "Zone": "Senegal Zones|Dakar", "zone": "Dakar" }, "geometry": { "type": "Point", "coordinates": [ -17.15590517, 14.7319769 ] } },
{ "type": "Feature", "properties": { "Node": "Senegal States|Fabrimetal", "Latitude": 14.74474044, "Longitude": -17.16256509, "Zone": "Senegal Zones|Dakar", "zone": "Dakar" }, "geometry": { "type": "Point", "coordinates": [ -17.16256509, 14.74474044 ] } },
{ "type": "Feature", "properties": { "Node": "Senegal States|Thies_Numerique", "Latitude": 14.76196798, "Longitude": -16.85965679, "Zone": "Senegal Zones|Thies", "zone": "Thies" }, "geometry": { "type": "Point", "coordinates": [ -16.85965679, 14.76196798 ] } },
{ "type": "Feature", "properties": { "Node": "Senegal States|mtkk", "Latitude": 15.1722, "Longitude": -13.0174, "Zone": "Senegal Zones|MTKK", "zone": "MTKK" }, "geometry": { "type": "Point", "coordinates": [ -13.0174, 15.1722 ] } },
{ "type": "Feature", "properties": { "Node": "Senegal States|ls", "Latitude": 15.9012, "Longitude": -15.5828, "Zone": "Senegal Zones|LS", "zone": "LS" }, "geometry": { "type": "Point", "coordinates": [ -15.5828, 15.9012 ] } }
]
}
