{
"type": "FeatureCollection",
"name": "transmission_lines",
"crs": { "type": "name", "properties": { "name": "urn:ogc:def:crs:OGC:1.3:CRS84" } },
"features": [
{ "type": "Feature", "properties": { "InitialNode": "Senegal States|Aeroport", "FinalNode": "Senegal States|Universite", "Circuit": "ac1", "LineType": "AC", "Switching": null, "InitialPeriod": 2000, "FinalPeriod": 2050, "Voltage": 90, "Length": 11.4, "Reactance": 0.05, "TTC": 200, "TTCBck": null, "SecurityFactor": 1, "FixedInvestmentCost": null, "FixedChargeRate": null, "BinaryInvestment": null, "SwOnTime": null, "SwOffTime": null, "Resistance": null, "Susceptance": null, "Tap": null, "AngMin": null, "LossFactor": 0.01, "AngMax": null, "InvestmentLo": null, "InvestmentUp": null, "candidate": false, "investment_decision": 0.0, "active_in_year": true, "max_abs_flow_mw": 32.936208094693555, "p95_abs_flow_mw": 27.547061177656147, "mean_abs_flow_mw": 6.5605093622110733, "max_loading_pct": 16.468104047346777, "p95_loading_pct": 13.773530588828073, "peak_load_level": "05-30 21:00:00+01:00", "plot_width": 1.4209373785154393, "loading_class": "0-50%", "plot_color": "#8D9591", "corridor_name": "Aeroport - Universite (ac1)" }, "geometry": { "type": "LineString", "coordinates": [ [ -17.48615655, 14.74681949 ], [ -17.46118234, 14.69173114 ] ] } },
{ "type": "Feature", "properties": { "InitialNode": "Senegal States|Aeroport", "FinalNode": "Senegal States|Patte_Doie", "Circuit": "ac1", "LineType": "AC", "Switching": null, "InitialPeriod": 2000, "FinalPeriod": 2050, "Voltage": 90, "Length": 7.9, "Reactance": 0.05, "TTC": 200, "TTCBck": null, "SecurityFactor": 1, "FixedInvestmentCost": null, "FixedChargeRate": null, "BinaryInvestment": null, "SwOnTime": null, "SwOffTime": null, "Resistance": null, "Susceptance": null, "Tap": null, "AngMin": null, "LossFactor": 0.01, "AngMax": null, "InvestmentLo": null, "InvestmentUp": null, "candidate": false, "investment_decision": 0.0, "active_in_year": true, "max_abs_flow_mw": 46.772937461060373, "p95_abs_flow_mw": 36.205916244659988, "mean_abs_flow_mw": 21.191666704601644, "max_loading_pct": 23.386468730530186, "p95_loading_pct": 18.102958122329994, "peak_load_level": "02-15 15:00:00+01:00", "plot_width": 1.5484792966795777, "loading_class": "0-50%", "plot_color": "#8D9591", "corridor_name": "Aeroport - Patte_Doie (ac1)" }, "geometry": { "type": "LineString", "coordinates": [ [ -17.48615655, 14.74681949 ], [ -17.43249346, 14.73703537 ] ] } },
{ "type": "Feature", "properties": { "InitialNode": "Senegal States|Aeroport", "FinalNode": "Senegal States|Universite", "Circuit": "ac2", "LineType": "AC", "Switching": null, "InitialPeriod": 2000, "FinalPeriod": 2050, "Voltage": 90, "Length": 11.4, "Reactance": 0.05, "TTC": 200, "TTCBck": null, "SecurityFactor": 1, "FixedInvestmentCost": null, "FixedChargeRate": null, "BinaryInvestment": null, "SwOnTime": null, "SwOffTime": null, "Resistance": null, "Susceptance": null, "Tap": null, "AngMin": null, "LossFactor": 0.01, "AngMax": null, "InvestmentLo": null, "InvestmentUp": null, "candidate": false, "investment_decision": 0.0, "active_in_year": true, "max_abs_flow_mw": 32.936208094693555, "p95_abs_flow_mw": 27.547061177656147, "mean_abs_flow_mw": 6.5605093622110733, "max_loading_pct": 16.468104047346777, "p95_loading_pct": 13.773530588828073, "peak_load_level": "05-30 21:00:00+01:00", "plot_width": 1.4209373785154393, "loading_class": "0-50%", "plot_color": "#8D9591", "corridor_name": "Aeroport - Universite (ac2)" }, "geometry": { "type": "LineString", "coordinates": [ [ -17.48615655, 14.74681949 ], [ -17.46118234, 14.69173114 ] ] } },
{ "type": "Feature", "properties": { "InitialNode": "Senegal States|Universite", "FinalNode": "Senegal States|Bel_Air", "Circuit": "ac1", "LineType": "AC", "Switching": null, "InitialPeriod": 2000, "FinalPeriod": 2050, "Voltage": 90, "Length": 2.9, "Reactance": 0.05, "TTC": 200, "TTCBck": null, "SecurityFactor": 1, "FixedInvestmentCost": null, "FixedChargeRate": null, "BinaryInvestment": null, "SwOnTime": null, "SwOffTime": null, "Resistance": null, "Susceptance": null, "Tap": null, "AngMin": null, "LossFactor": 0.01, "AngMax": null, "InvestmentLo": null, "InvestmentUp": null, "candidate": false, "investment_decision": 0.0, "active_in_year": true, "max_abs_flow_mw": 82.907254223507749, "p95_abs_flow_mw": 78.530022888179914, "mean_abs_flow_mw": 47.886521355509686, "max_loading_pct": 41.453627111753875, "p95_loading_pct": 39.265011444089957, "peak_load_level": "10-26 19:00:00+01:00", "plot_width": 2.0205071993231853, "loading_class": "0-50%", "plot_color": "#8D9591", "corridor_name": "Universite - Bel_Air (ac1)" }, "geometry": { "type": "LineString", "coordinates": [ [ -17.46118234, 14.69173114 ], [ -17.43480838, 14.68990925 ] ] } },
{ "type": "Feature", "properties": { "InitialNode": "Senegal States|Someta", "FinalNode": "Senegal States|Fabrimetal", "Circuit": "ac1", "LineType": "AC", "Switching": null, "InitialPeriod": 2000, "FinalPeriod": 2050, "Voltage": 90, "Length": 1.58388926, "Reactance": 0.05, "TTC": 200, "TTCBck": null, "SecurityFactor": 1, "FixedInvestmentCost": null, "FixedChargeRate": null, "BinaryInvestment": null, "SwOnTime": null, "SwOffTime": null, "Resistance": null, "Susceptance": null, "Tap": null, "AngMin": null, "LossFactor": 0.01, "AngMax": null, "InvestmentLo": null, "InvestmentUp": null, "candidate": false, "investment_decision": 0.0, "active_in_year": true, "max_abs_flow_mw": 66.728699728855759, "p95_abs_flow_mw": 56.041359267686644, "mean_abs_flow_mw": 20.37981753243923, "max_loading_pct": 33.364349864427879, "p95_loading_pct": 28.020679633843326, "peak_load_level": "03-25 15:00:00+01:00", "plot_width": 1.7922346050827394, "loading_class": "0-50%", "plot_color": "#8D9591", "corridor_name": "Someta - Fabrimetal (ac1)" }, "geometry": { "type": "LineString", "coordinates": [ [ -17.15590517, 14.7319769 ], [ -17.16256509, 14.74474044 ] ] } },
{ "type": "Feature", "properties": { "InitialNode": "Senegal States|Universite", "FinalNode": "Senegal States|Centre_Ville", "Circuit": "ac1", "LineType": "AC", "Switching": null, "InitialPeriod": 2000, "FinalPeriod": 2050, "Voltage": 90, "Length": 3.4768158, "Reactance": 0.05, "TTC": 200, "TTCBck": null, "SecurityFactor": 1, "FixedInvestmentCost": null, "FixedChargeRate": null, "BinaryInvestment": null, "SwOnTime": null, "SwOffTime": null, "Resistance": null, "Susceptance": null, "Tap": null, "AngMin": null, "LossFactor": 0.01, "AngMax": null, "InvestmentLo": null, "InvestmentUp": null, "candidate": false, "investment_decision": 0.0, "active_in_year": true, "max_abs_flow_mw": 19.634004894136247, "p95_abs_flow_mw": 15.857258416420068, "mean_abs_flow_mw": 9.6214836859288759, "max_loading_pct": 9.8170024470681234, "p95_loading_pct": 7.928629208210034, "peak_load_level": "02-15 15:00:00+01:00", "plot_width": 1.2107898218174697, "loading_class": "0-50%", "plot_color": "#8D9591", "corridor_name": "Universite - Centre_Ville (ac1)" }, "geometry": { "type": "LineString", "coordinates": [ [ -17.46118234, 14.69173114 ], [ -17.43904434, 14.66886225 ] ] } },
{ "type": "Feature", "properties": { "InitialNode": "Senegal States|Centre_Ville", "FinalNode": "Senegal States|Bel_Air", "Circuit": "ac1", "LineType": "AC", "Switching": null, "InitialPeriod": 2000, "FinalPeriod": 2050, "Voltage": 90, "Length": 2.373, "Reactance": 0.05, "TTC": 200, "TTCBck": null, "SecurityFactor": 1, "FixedInvestmentCost": null, "FixedChargeRate": null, "BinaryInvestment": null, "SwOnTime": null, "SwOffTime": null, "Resistance": null, "Susceptance": null, "Tap": null, "AngMin": null, "LossFactor": 0.01, "AngMax": null, "InvestmentLo": null, "InvestmentUp": null, "candidate": false, "investment_decision": 0.0, "active_in_year": true, "max_abs_flow_mw": 87.418859149442341, "p95_abs_flow_mw": 81.018506049210558, "mean_abs_flow_mw": 57.483613276142165, "max_loading_pct": 43.70942957472117, "p95_loading_pct": 40.509253024605279, "peak_load_level": "10-26 19:00:00+01:00", "plot_width": 2.043624430008419, "loading_class": "0-50%", "plot_color": "#8D9591", "corridor_name": "Centre_Ville - Bel_Air (ac1)" }, "geometry": { "type": "LineString", "coordinates": [ [ -17.43904434, 14.66886225 ], [ -17.43480838, 14.68990925 ] ] } },
{ "type": "Feature", "properties": { "InitialNode": "Senegal States|Aeroport", "FinalNode": "Senegal States|Patte_Doie", "Circuit": "ac2", "LineType": "AC", "Switching": null, "InitialPeriod": 2000, "FinalPeriod": 2050, "Voltage": 90, "Length": 7.9, "Reactance": 0.05, "TTC": 200, "TTCBck": null, "SecurityFactor": 1, "FixedInvestmentCost": null, "FixedChargeRate": null, "BinaryInvestment": null, "SwOnTime": null, "SwOffTime": null, "Resistance": null, "Susceptance": null, "Tap": null, "AngMin": null, "LossFactor": 0.01, "AngMax": null, "InvestmentLo": null, "InvestmentUp": null, "candidate": false, "investment_decision": 0.0, "active_in_year": true, "max_abs_flow_mw": 46.772937461060373, "p95_abs_flow_mw": 36.205916244659988, "mean_abs_flow_mw": 21.191666704601641, "max_loading_pct": 23.386468730530186, "p95_loading_pct": 18.102958122329994, "peak_load_level": "02-15 15:00:00+01:00", "plot_width": 1.5484792966795777, "loading_class": "0-50%", "plot_color": "#8D9591", "corridor_name": "Aeroport - Patte_Doie (ac2)" }, "geometry": { "type": "LineString", "coordinates": [ [ -17.48615655, 14.74681949 ], [ -17.43249346, 14.73703537 ] ] } },
{ "type": "Feature", "properties": { "InitialNode": "Senegal States|Sicap", "FinalNode": "Senegal States|Universite", "Circuit": "ac1", "LineType": "AC", "Switching": null, "InitialPeriod": 2000, "FinalPeriod": 2050, "Voltage": 90, "Length": 2.556, "Reactance": 0.05, "TTC": 200, "TTCBck": null, "SecurityFactor": 1, "FixedInvestmentCost": null, "FixedChargeRate": null, "BinaryInvestment": null, "SwOnTime": null, "SwOffTime": null, "Resistance": null, "Susceptance": null, "Tap": null, "AngMin": null, "LossFactor": 0.01, "AngMax": null, "InvestmentLo": null, "InvestmentUp": null, "candidate": false, "investment_decision": 0.0, "active_in_year": true, "max_abs_flow_mw": 55.158278447236171, "p95_abs_flow_mw": 51.938485341708528, "mean_abs_flow_mw": 40.248349575245733, "max_loading_pct": 27.579139223618085, "p95_loading_pct": 25.969242670854264, "peak_load_level": "10-01 19:00:00+01:00", "plot_width": 1.7458974317802001, "loading_class": "0-50%", "plot_color": "#8D9591", "corridor_name": "Sicap - Universite (ac1)" }, "geometry": { "type": "LineString", "coordinates": [ [ -17.4534123, 14.7135658 ], [ -17.46118234, 14.69173114 ] ] } },
{ "type": "Feature", "properties": { "InitialNode": "Senegal States|Bel_Air", "FinalNode": "Senegal States|Hann", "Circuit": "ac1", "LineType": "AC", "Switching": null, "InitialPeriod": 2000, "FinalPeriod": 2050, "Voltage": 90, "Length": 4.5, "Reactance": 0.05, "TTC": 200, "TTCBck": null, "SecurityFactor": 1, "FixedInvestmentCost": null, "FixedChargeRate": null, "BinaryInvestment": null, "SwOnTime": null, "SwOffTime": null, "Resistance": null, "Susceptance": null, "Tap": null, "AngMin": null, "LossFactor": 0.01, "AngMax": null, "InvestmentLo": null, "InvestmentUp": null, "candidate": false, "investment_decision": 0.0, "active_in_year": true, "max_abs_flow_mw": 81.150294812662509, "p95_abs_flow_mw": 73.84002314709808, "mean_abs_flow_mw": 22.631162897762955, "max_loading_pct": 40.575147406331254, "p95_loading_pct": 36.92001157354904, "peak_load_level": "05-29 21:00:00+01:00", "plot_width": 1.9759201465989018, "loading_class": "0-50%", "plot_color": "#8D9591", "corridor_name": "Bel_Air - Hann (ac1)" }, "geometry": { "type": "LineString", "coordinates": [ [ -17.43480838, 14.68990925 ], [ -17.43771175, 14.73139415 ] ] } },
{ "type": "Feature", "properties": { "InitialNode": "Senegal States|Bel_Air", "FinalNode": "Senegal States|Hann", "Circuit": "ac2", "LineType": "AC", "Switching": null, "InitialPeriod": 2000, "FinalPeriod": 2050, "Voltage": 90, "Length": 4.5, "Reactance": 0.05, "TTC": 200, "TTCBck": null, "SecurityFactor": 1, "FixedInvestmentCost": null, "FixedChargeRate": null, "BinaryInvestment": null, "SwOnTime": null, "SwOffTime": null, "Resistance": null, "Susceptance": null, "Tap": null, "AngMin": null, "LossFactor": 0.01, "AngMax": null, "InvestmentLo": null, "InvestmentUp": null, "candidate": false, "investment_decision": 0.0, "active_in_year": true, "max_abs_flow_mw": 81.150294812662509, "p95_abs_flow_mw": 73.84002314709808, "mean_abs_flow_mw": 22.631162897762955, "max_loading_pct": 40.575147406331254, "p95_loading_pct": 36.92001157354904, "peak_load_level": "05-29 21:00:00+01:00", "plot_width": 1.9759201465989018, "loading_class": "0-50%", "plot_color": "#8D9591", "corridor_name": "Bel_Air - Hann (ac2)" }, "geometry": { "type": "LineString", "coordinates": [ [ -17.43480838, 14.68990925 ], [ -17.43771175, 14.73139415 ] ] } },
{ "type": "Feature", "properties": { "InitialNode": "Senegal States|Bel_Air", "FinalNode": "Senegal States|Hann", "Circuit": "ac3", "LineType": "AC", "Switching": null, "InitialPeriod": 2000, "FinalPeriod": 2050, "Voltage": 90, "Length": 4.6, "Reactance": 0.05, "TTC": 200, "TTCBck": null, "SecurityFactor": 1, "FixedInvestmentCost": null, "FixedChargeRate": null, "BinaryInvestment": null, "SwOnTime": null, "SwOffTime": null, "Resistance": null, "Susceptance": null, "Tap": null, "AngMin": null, "LossFactor": 0.01, "AngMax": null, "InvestmentLo": null, "InvestmentUp": null, "candidate": false, "investment_decision": 0.0, "active_in_year": true, "max_abs_flow_mw": 81.150294812662509, "p95_abs_flow_mw": 73.84002314709808, "mean_abs_flow_mw": 22.631162897762955, "max_loading_pct": 40.575147406331254, "p95_loading_pct": 36.92001157354904, "peak_load_level": "05-29 21:00:00+01:00", "plot_width": 1.9759201465989018, "loading_class": "0-50%", "plot_color": "#8D9591", "corridor_name": "Bel_Air - Hann (ac3)" }, "geometry": { "type": "LineString", "coordinates": [ [ -17.43480838, 14.68990925 ], [ -17.43771175, 14.73139415 ] ] } },
{ "type": "Feature", "properties": { "InitialNode": "Senegal States|Universite", "FinalNode": "Senegal States|Bel_Air", "Circuit": "ac2", "LineType": "AC", "Switching": null, "InitialPeriod": 2000, "FinalPeriod": 2050, "Voltage": 90, "Length": 2.9, "Reactance": 0.05, "TTC": 200, "TTCBck": null, "SecurityFactor": 1, "FixedInvestmentCost": null, "FixedChargeRate": null, "BinaryInvestment": null, "SwOnTime": null, "SwOffTime": null, "Resistance": null, "Susceptance": null, "Tap": null, "AngMin": null, "LossFactor": 0.01, "AngMax": null, "InvestmentLo": null, "InvestmentUp": null, "candidate": false, "investment_decision": 0.0, "active_in_year": true, "max_abs_flow_mw": 82.907254223507749, "p95_abs_flow_mw": 78.530022888179914, "mean_abs_flow_mw": 47.886521355509686, "max_loading_pct": 41.453627111753875, "p95_loading_pct": 39.265011444089957, "peak_load_level": "10-26 19:00:00+01:00", "plot_width": 2.0205071993231853, "loading_class": "0-50%", "plot_color": "#8D9591", "corridor_name": "Universite - Bel_Air (ac2)" }, "geometry": { "type": "LineString", "coordinates": [ [ -17.46118234, 14.69173114 ], [ -17.43480838, 14.68990925 ] ] } },
{ "type": "Feature", "properties": { "InitialNode": "Senegal States|Kounoune", "FinalNode": "Senegal States|Patte_Doie", "Circuit": "ac1", "LineType": "AC", "Switching": null, "InitialPeriod": 2000, "FinalPeriod": 2050, "Voltage": 225, "Length": 23.0, "Reactance": 0.05, "TTC": 400, "TTCBck": null, "SecurityFactor": 1, "FixedInvestmentCost": null, "FixedChargeRate": null, "BinaryInvestment": null, "SwOnTime": null, "SwOffTime": null, "Resistance": null, "Susceptance": null, "Tap": null, "AngMin": null, "LossFactor": 0.01, "AngMax": null, "InvestmentLo": null, "InvestmentUp": null, "candidate": false, "investment_decision": 0.0, "active_in_year": true, "max_abs_flow_mw": 116.6917912858826, "p95_abs_flow_mw": 99.544426147632663, "mean_abs_flow_mw": 42.471248961213341, "max_loading_pct": 29.172947821470654, "p95_loading_pct": 24.886106536908166, "peak_load_level": "05-30 21:00:00+01:00", "plot_width": 2.2056089547501574, "loading_class": "0-50%", "plot_color": "#8D9591", "corridor_name": "Kounoune - Patte_Doie (ac1)" }, "geometry": { "type": "LineString", "coordinates": [ [ -17.26460936, 14.74293601 ], [ -17.43249346, 14.73703537 ] ] } },
{ "type": "Feature", "properties": { "InitialNode": "Senegal States|Kounoune", "FinalNode": "Senegal States|Patte_Doie", "Circuit": "ac2", "LineType": "AC", "Switching": null, "InitialPeriod": 2000, "FinalPeriod": 2025, "Voltage": 225, "Length": 23.0, "Reactance": 0.05, "TTC": 400, "TTCBck": null, "SecurityFactor": 1, "FixedInvestmentCost": null, "FixedChargeRate": null, "BinaryInvestment": null, "SwOnTime": null, "SwOffTime": null, "Resistance": null, "Susceptance": null, "Tap": null, "AngMin": null, "LossFactor": 0.01, "AngMax": null, "InvestmentLo": null, "InvestmentUp": null, "candidate": false, "investment_decision": 0.0, "active_in_year": false, "max_abs_flow_mw": 0.0, "p95_abs_flow_mw": 0.0, "mean_abs_flow_mw": 0.0, "max_loading_pct": 0.0, "p95_loading_pct": 0.0, "peak_load_level": "", "plot_width": 0.55, "loading_class": "0-50%", "plot_color": "#8D9591", "corridor_name": "Kounoune - Patte_Doie (ac2)" }, "geometry": { "type": "LineString", "coordinates": [ [ -17.26460936, 14.74293601 ], [ -17.43249346, 14.73703537 ] ] } },
{ "type": "Feature", "properties": { "InitialNode": "Senegal States|Tobene", "FinalNode": "Senegal States|ICS", "Circuit": "ac1", "LineType": "AC", "Switching": null, "InitialPeriod": 2000, "FinalPeriod": 2050, "Voltage": 90, "Length": 10.0, "Reactance": 0.05, "TTC": 200, "TTCBck": null, "SecurityFactor": 1, "FixedInvestmentCost": null, "FixedChargeRate": null, "BinaryInvestment": null, "SwOnTime": null, "SwOffTime": null, "Resistance": null, "Susceptance": null, "Tap": null, "AngMin": null, "LossFactor": 0.01, "AngMax": null, "InvestmentLo": null, "InvestmentUp": null, "candidate": false, "investment_decision": 0.0, "active_in_year": true, "max_abs_flow_mw": 125.13620537810952, "p95_abs_flow_mw": 111.27509412786085, "mean_abs_flow_mw": 35.447522381334771, "max_loading_pct": 62.568102689054761, "p95_loading_pct": 55.637547063930427, "peak_load_level": "04-02 15:00:00+01:00", "plot_width": 2.3004442289097264, "loading_class": "50-80%", "plot_color": "#E58A2F", "corridor_name": "Tobene - ICS (ac1)" }, "geometry": { "type": "LineString", "coordinates": [ [ -16.8652695, 15.00464525 ], [ -16.84036432, 15.10108352 ] ] } },
{ "type": "Feature", "properties": { "InitialNode": "Senegal States|Diamniadio", "FinalNode": "Senegal States|Sendou", "Circuit": "ac1", "LineType": "AC", "Switching": null, "InitialPeriod": 2020, "FinalPeriod": 2050, "Voltage": 225, "Length": 1.5, "Reactance": 0.05, "TTC": 400, "TTCBck": null, "SecurityFactor": 1, "FixedInvestmentCost": null, "FixedChargeRate": null, "BinaryInvestment": null, "SwOnTime": null, "SwOffTime": null, "Resistance": null, "Susceptance": null, "Tap": null, "AngMin": null, "LossFactor": 0.01, "AngMax": null, "InvestmentLo": null, "InvestmentUp": null, "candidate": false, "investment_decision": 0.0, "active_in_year": true, "max_abs_flow_mw": 67.132039741300829, "p95_abs_flow_mw": 51.750522505341515, "mean_abs_flow_mw": 21.694611493356753, "max_loading_pct": 16.783009935325207, "p95_loading_pct": 12.937630626335379, "peak_load_level": "05-21 07:00:00+01:00", "plot_width": 1.7437315232881543, "loading_class": "0-50%", "plot_color": "#8D9591", "corridor_name": "Diamniadio - Sendou (ac1)" }, "geometry": { "type": "LineString", "coordinates": [ [ -17.21505744, 14.7115875 ], [ -17.21360927, 14.68875284 ] ] } },
{ "type": "Feature", "properties": { "InitialNode": "Senegal States|Hann", "FinalNode": "Senegal States|Patte_Doie", "Circuit": "ac1", "LineType": "AC", "Switching": null, "InitialPeriod": 2000, "FinalPeriod": 2050, "Voltage": 90, "Length": 0.8, "Reactance": 0.05, "TTC": 200, "TTCBck": null, "SecurityFactor": 1, "FixedInvestmentCost": null, "FixedChargeRate": null, "BinaryInvestment": null, "SwOnTime": null, "SwOffTime": null, "Resistance": null, "Susceptance": null, "Tap": null, "AngMin": null, "LossFactor": 0.01, "AngMax": null, "InvestmentLo": null, "InvestmentUp": null, "candidate": false, "investment_decision": 0.0, "active_in_year": true, "max_abs_flow_mw": 36.249974017047052, "p95_abs_flow_mw": 32.262605097164837, "mean_abs_flow_mw": 9.7518738411456702, "max_loading_pct": 18.124987008523526, "p95_loading_pct": 16.131302548582418, "peak_load_level": "05-30 21:00:00+01:00", "plot_width": 1.4925383052724017, "loading_class": "0-50%", "plot_color": "#8D9591", "corridor_name": "Hann - Patte_Doie (ac1)" }, "geometry": { "type": "LineString", "coordinates": [ [ -17.43771175, 14.73139415 ], [ -17.43249346, 14.73703537 ] ] } },
{ "type": "Feature", "properties": { "InitialNode": "Senegal States|Diass", "FinalNode": "Senegal States|Mbour", "Circuit": "ac1", "LineType": "AC", "Switching": null, "InitialPeriod": 2000, "FinalPeriod": 2050, "Voltage": 225, "Length": 26.5, "Reactance": 0.05, "TTC": 400, "TTCBck": null, "SecurityFactor": 1, "FixedInvestmentCost": null, "FixedChargeRate": null, "BinaryInvestment": null, "SwOnTime": null, "SwOffTime": null, "Resistance": null, "Susceptance": null, "Tap": null, "AngMin": null, "LossFactor": 0.01, "AngMax": null, "InvestmentLo": null, "InvestmentUp": null, "candidate": false, "investment_decision": 0.0, "active_in_year": true, "max_abs_flow_mw": 201.70561173083399, "p95_abs_flow_mw": 186.12441724304892, "mean_abs_flow_mw": 97.699654601135748, "max_loading_pct": 50.426402932708498, "p95_loading_pct": 46.531104310762231, "peak_load_level": "10-12 13:00:00+01:00", "plot_width": 2.8138673110092709, "loading_class": "50-80%", "plot_color": "#E58A2F", "corridor_name": "Diass - Mbour (ac1)" }, "geometry": { "type": "LineString", "coordinates": [ [ -17.1016541, 14.65867849 ], [ -16.95060872, 14.47026212 ] ] } },
{ "type": "Feature", "properties": { "InitialNode": "Senegal States|Patte_Doie", "FinalNode": "Senegal States|Cap_Des_Biches", "Circuit": "ac1", "LineType": "AC", "Switching": null, "InitialPeriod": 2000, "FinalPeriod": 2050, "Voltage": 90, "Length": 14.338, "Reactance": 0.05, "TTC": 200, "TTCBck": null, "SecurityFactor": 1, "FixedInvestmentCost": null, "FixedChargeRate": null, "BinaryInvestment": null, "SwOnTime": null, "SwOffTime": null, "Resistance": null, "Susceptance": null, "Tap": null, "AngMin": null, "LossFactor": 0.01, "AngMax": null, "InvestmentLo": null, "InvestmentUp": null, "candidate": false, "investment_decision": 0.0, "active_in_year": true, "max_abs_flow_mw": 66.838898302935661, "p95_abs_flow_mw": 60.66703635573699, "mean_abs_flow_mw": 50.391398527428656, "max_loading_pct": 33.41944915146783, "p95_loading_pct": 30.333518177868495, "peak_load_level": "02-09 15:00:00+01:00", "plot_width": 1.842485509984876, "loading_class": "0-50%", "plot_color": "#8D9591", "corridor_name": "Patte_Doie - Cap_Des_Biches (ac1)" }, "geometry": { "type": "LineString", "coordinates": [ [ -17.43249346, 14.73703537 ], [ -17.30051519, 14.71989523 ] ] } },
{ "type": "Feature", "properties": { "InitialNode": "Senegal States|Hann", "FinalNode": "Senegal States|Mbao", "Circuit": "ac1", "LineType": "AC", "Switching": null, "InitialPeriod": 2020, "FinalPeriod": 2050, "Voltage": 90, "Length": 10.9, "Reactance": 0.05, "TTC": 200, "TTCBck": null, "SecurityFactor": 1, "FixedInvestmentCost": null, "FixedChargeRate": null, "BinaryInvestment": null, "SwOnTime": null, "SwOffTime": null, "Resistance": null, "Susceptance": null, "Tap": null, "AngMin": null, "LossFactor": 0.01, "AngMax": null, "InvestmentLo": null, "InvestmentUp": null, "candidate": false, "investment_decision": 0.0, "active_in_year": true, "max_abs_flow_mw": 24.554018083132625, "p95_abs_flow_mw": 21.466543402357917, "mean_abs_flow_mw": 6.0000143344849972, "max_loading_pct": 12.277009041566311, "p95_loading_pct": 10.733271701178957, "peak_load_level": "02-09 15:00:00+01:00", "plot_width": 1.3188300551989935, "loading_class": "0-50%", "plot_color": "#8D9591", "corridor_name": "Hann - Mbao (ac1)" }, "geometry": { "type": "LineString", "coordinates": [ [ -17.43771175, 14.73139415 ], [ -17.34341222, 14.75841087 ] ] } },
{ "type": "Feature", "properties": { "InitialNode": "Senegal States|Fatick", "FinalNode": "Senegal States|Kahone", "Circuit": "ac1", "LineType": "AC", "Switching": null, "InitialPeriod": 2000, "FinalPeriod": 2050, "Voltage": 225, "Length": 46.5, "Reactance": 0.05, "TTC": 400, "TTCBck": null, "SecurityFactor": 1, "FixedInvestmentCost": null, "FixedChargeRate": null, "BinaryInvestment": null, "SwOnTime": null, "SwOffTime": null, "Resistance": null, "Susceptance": null, "Tap": null, "AngMin": null, "LossFactor": 0.01, "AngMax": null, "InvestmentLo": null, "InvestmentUp": null, "candidate": false, "investment_decision": 0.0, "active_in_year": true, "max_abs_flow_mw": 155.30667140109821, "p95_abs_flow_mw": 145.34289438505147, "mean_abs_flow_mw": 87.982022570276968, "max_loading_pct": 38.826667850274553, "p95_loading_pct": 36.335723596262866, "peak_load_level": "06-14 11:00:00+01:00", "plot_width": 2.5505351908671727, "loading_class": "0-50%", "plot_color": "#8D9591", "corridor_name": "Fatick - Kahone (ac1)" }, "geometry": { "type": "LineString", "coordinates": [ [ -16.41655, 14.36650969 ], [ -16.03163124, 14.16707562 ] ] } },
{ "type": "Feature", "properties": { "InitialNode": "Senegal States|Someta", "FinalNode": "Senegal States|Thiona", "Circuit": "ac1", "LineType": "AC", "Switching": null, "InitialPeriod": 2000, "FinalPeriod": 2050, "Voltage": 90, "Length": 23.7, "Reactance": 0.05, "TTC": 200, "TTCBck": null, "SecurityFactor": 1, "FixedInvestmentCost": null, "FixedChargeRate": null, "BinaryInvestment": null, "SwOnTime": null, "SwOffTime": null, "Resistance": null, "Susceptance": null, "Tap": null, "AngMin": null, "LossFactor": 0.01, "AngMax": null, "InvestmentLo": null, "InvestmentUp": null, "candidate": false, "investment_decision": 0.0, "active_in_year": true, "max_abs_flow_mw": 48.379982828043623, "p95_abs_flow_mw": 32.288325151438436, "mean_abs_flow_mw": 14.08407112581588, "max_loading_pct": 24.189991414021812, "p95_loading_pct": 16.144162575719218, "peak_load_level": "06-06 13:00:00+01:00", "plot_width": 1.492913930655152, "loading_class": "0-50%", "plot_color": "#8D9591", "corridor_name": "Someta - Thiona (ac1)" }, "geometry": { "type": "LineString", "coordinates": [ [ -17.15590517, 14.7319769 ], [ -16.94273687, 14.77996895 ] ] } },
{ "type": "Feature", "properties": { "InitialNode": "Senegal States|Sococim", "FinalNode": "Senegal States|Olam", "Circuit": "ac1", "LineType": "AC", "Switching": null, "InitialPeriod": 2000, "FinalPeriod": 2050, "Voltage": 90, "Length": 9.1, "Reactance": 0.05, "TTC": 200, "TTCBck": null, "SecurityFactor": 1, "FixedInvestmentCost": null, "FixedChargeRate": null, "BinaryInvestment": null, "SwOnTime": null, "SwOffTime": null, "Resistance": null, "Susceptance": null, "Tap": null, "AngMin": null, "LossFactor": 0.01, "AngMax": null, "InvestmentLo": null, "InvestmentUp": null, "candidate": false, "investment_decision": 0.0, "active_in_year": true, "max_abs_flow_mw": 140.63682412282142, "p95_abs_flow_mw": 120.27939388450871, "mean_abs_flow_mw": 67.731950216014781, "max_loading_pct": 70.318412061410712, "p95_loading_pct": 60.139696942254346, "peak_load_level": "05-29 21:00:00+01:00", "plot_width": 2.3698890357518012, "loading_class": "50-80%", "plot_color": "#E58A2F", "corridor_name": "Sococim - Olam (ac1)" }, "geometry": { "type": "LineString", "coordinates": [ [ -17.24829086, 14.71018467 ], [ -17.17572712, 14.72069022 ] ] } },
{ "type": "Feature", "properties": { "InitialNode": "Senegal States|Sakal", "FinalNode": "Senegal States|Dagana", "Circuit": "ac1", "LineType": "AC", "Switching": null, "InitialPeriod": 2000, "FinalPeriod": 2050, "Voltage": 225, "Length": 113.9, "Reactance": 0.05, "TTC": 400, "TTCBck": null, "SecurityFactor": 1, "FixedInvestmentCost": null, "FixedChargeRate": null, "BinaryInvestment": null, "SwOnTime": null, "SwOffTime": null, "Resistance": null, "Susceptance": null, "Tap": null, "AngMin": null, "LossFactor": 0.01, "AngMax": null, "InvestmentLo": null, "InvestmentUp": null, "candidate": false, "investment_decision": 0.0, "active_in_year": true, "max_abs_flow_mw": 38.097930319850981, "p95_abs_flow_mw": 31.723540356007646, "mean_abs_flow_mw": 15.441378400857468, "max_loading_pct": 9.5244825799627453, "p95_loading_pct": 7.9308850890019116, "peak_load_level": "05-03 19:00:00+01:00", "plot_width": 1.4846308617160742, "loading_class": "0-50%", "plot_color": "#8D9591", "corridor_name": "Sakal - Dagana (ac1)" }, "geometry": { "type": "LineString", "coordinates": [ [ -16.22852109, 15.8590443 ], [ -15.46626099, 16.51184168 ] ] } },
{ "type": "Feature", "properties": { "InitialNode": "Senegal States|Tobene", "FinalNode": "Senegal States|Sakal", "Circuit": "ac1", "LineType": "AC", "Switching": null, "InitialPeriod": 2000, "FinalPeriod": 2050, "Voltage": 225, "Length": 124.0, "Reactance": 0.05, "TTC": 400, "TTCBck": null, "SecurityFactor": 1, "FixedInvestmentCost": null, "FixedChargeRate": null, "BinaryInvestment": null, "SwOnTime": null, "SwOffTime": null, "Resistance": null, "Susceptance": null, "Tap": null, "AngMin": null, "LossFactor": 0.01, "AngMax": null, "InvestmentLo": null, "InvestmentUp": null, "candidate": false, "investment_decision": 0.0, "active_in_year": true, "max_abs_flow_mw": 101.30159441816356, "p95_abs_flow_mw": 87.350675111314743, "mean_abs_flow_mw": 61.149962606593135, "max_loading_pct": 25.325398604540894, "p95_loading_pct": 21.837668777828686, "peak_load_level": "05-03 19:00:00+01:00", "plot_width": 2.1008951077039697, "loading_class": "0-50%", "plot_color": "#8D9591", "corridor_name": "Tobene - Sakal (ac1)" }, "geometry": { "type": "LineString", "coordinates": [ [ -16.8652695, 15.00464525 ], [ -16.22852109, 15.8590443 ] ] } },
{ "type": "Feature", "properties": { "InitialNode": "Senegal States|Ndioum", "FinalNode": "Senegal States|Matam", "Circuit": "ac1", "LineType": "AC", "Switching": null, "InitialPeriod": 2019, "FinalPeriod": 2050, "Voltage": 225, "Length": 176.843, "Reactance": 0.05, "TTC": 400, "TTCBck": null, "SecurityFactor": 1, "FixedInvestmentCost": null, "FixedChargeRate": null, "BinaryInvestment": null, "SwOnTime": null, "SwOffTime": null, "Resistance": null, "Susceptance": null, "Tap": null, "AngMin": null, "LossFactor": 0.01, "AngMax": null, "InvestmentLo": null, "InvestmentUp": null, "candidate": false, "investment_decision": 0.0, "active_in_year": true, "max_abs_flow_mw": 27.96532750289682, "p95_abs_flow_mw": 21.871853925182634, "mean_abs_flow_mw": 10.002716630992749, "max_loading_pct": 6.9913318757242049, "p95_loading_pct": 5.4679634812956586, "peak_load_level": "04-06 15:00:00+01:00", "plot_width": 1.3260542674833968, "loading_class": "0-50%", "plot_color": "#8D9591", "corridor_name": "Ndioum - Matam (ac1)" }, "geometry": { "type": "LineString", "coordinates": [ [ -14.67801386, 16.51634241 ], [ -13.31461, 15.61303 ] ] } },
{ "type": "Feature", "properties": { "InitialNode": "Senegal States|Matam", "FinalNode": "Senegal States|Bakel", "Circuit": "ac1", "LineType": "AC", "Switching": null, "InitialPeriod": 2019, "FinalPeriod": 2050, "Voltage": 225, "Length": 124.4, "Reactance": 0.05, "TTC": 400, "TTCBck": null, "SecurityFactor": 1, "FixedInvestmentCost": null, "FixedChargeRate": null, "BinaryInvestment": null, "SwOnTime": null, "SwOffTime": null, "Resistance": null, "Susceptance": null, "Tap": null, "AngMin": null, "LossFactor": 0.01, "AngMax": null, "InvestmentLo": null, "InvestmentUp": null, "candidate": false, "investment_decision": 0.0, "active_in_year": true, "max_abs_flow_mw": 21.916007490669799, "p95_abs_flow_mw": 19.752062387684681, "mean_abs_flow_mw": 9.1598409375877292, "max_loading_pct": 5.4790018726674496, "p95_loading_pct": 4.9380155969211703, "peak_load_level": "07-24 23:00:00+01:00", "plot_width": 1.2874889497319311, "loading_class": "0-50%", "plot_color": "#8D9591", "corridor_name": "Matam - Bakel (ac1)" }, "geometry": { "type": "LineString", "coordinates": [ [ -13.31461, 15.61303 ], [ -12.47410162, 14.89074035 ] ] } },
{ "type": "Feature", "properties": { "InitialNode": "Senegal States|Sendou", "FinalNode": "Senegal States|Diass", "Circuit": "ac1", "LineType": "AC", "Switching": null, "InitialPeriod": 2020, "FinalPeriod": 2050, "Voltage": 225, "Length": 12.509, "Reactance": 0.05, "TTC": 400, "TTCBck": null, "SecurityFactor": 1, "FixedInvestmentCost": null, "FixedChargeRate": null, "BinaryInvestment": null, "SwOnTime": null, "SwOffTime": null, "Resistance": null, "Susceptance": null, "Tap": null, "AngMin": null, "LossFactor": 0.01, "AngMax": null, "InvestmentLo": null, "InvestmentUp": null, "candidate": false, "investment_decision": 0.0, "active_in_year": true, "max_abs_flow_mw": 89.39479428413344, "p95_abs_flow_mw": 69.318857593032931, "mean_abs_flow_mw": 23.46350477582067, "max_loading_pct": 22.34869857103336, "p95_loading_pct": 17.329714398258233, "peak_load_level": "10-18 13:00:00+01:00", "plot_width": 1.9315766716325906, "loading_class": "0-50%", "plot_color": "#8D9591", "corridor_name": "Sendou - Diass (ac1)" }, "geometry": { "type": "LineString", "coordinates": [ [ -17.21360927, 14.68875284 ], [ -17.1016541, 14.65867849 ] ] } },
{ "type": "Feature", "properties": { "InitialNode": "Senegal States|Hann", "FinalNode": "Senegal States|Guediawaye", "Circuit": "ac1", "LineType": "AC", "Switching": null, "InitialPeriod": 2000, "FinalPeriod": 2050, "Voltage": 90, "Length": 6.855822, "Reactance": 0.05, "TTC": 200, "TTCBck": null, "SecurityFactor": 1, "FixedInvestmentCost": null, "FixedChargeRate": null, "BinaryInvestment": null, "SwOnTime": null, "SwOffTime": null, "Resistance": null, "Susceptance": null, "Tap": null, "AngMin": null, "LossFactor": 0.01, "AngMax": null, "InvestmentLo": null, "InvestmentUp": null, "candidate": false, "investment_decision": 0.0, "active_in_year": true, "max_abs_flow_mw": 106.7584373847222, "p95_abs_flow_mw": 99.71182801949017, "mean_abs_flow_mw": 52.309879277518981, "max_loading_pct": 53.3792186923611, "p95_loading_pct": 49.855914009745085, "peak_load_level": "05-30 21:00:00+01:00", "plot_width": 2.2070004722183967, "loading_class": "50-80%", "plot_color": "#E58A2F", "corridor_name": "Hann - Guediawaye (ac1)" }, "geometry": { "type": "LineString", "coordinates": [ [ -17.43771175, 14.73139415 ], [ -17.38915175, 14.77147116 ] ] } },
{ "type": "Feature", "properties": { "InitialNode": "Senegal States|Mbour", "FinalNode": "Senegal States|Fatick", "Circuit": "ac1", "LineType": "AC", "Switching": null, "InitialPeriod": 2000, "FinalPeriod": 2050, "Voltage": 225, "Length": 58.7, "Reactance": 0.05, "TTC": 400, "TTCBck": null, "SecurityFactor": 1, "FixedInvestmentCost": null, "FixedChargeRate": null, "BinaryInvestment": null, "SwOnTime": null, "SwOffTime": null, "Resistance": null, "Susceptance": null, "Tap": null, "AngMin": null, "LossFactor": 0.01, "AngMax": null, "InvestmentLo": null, "InvestmentUp": null, "candidate": false, "investment_decision": 0.0, "active_in_year": true, "max_abs_flow_mw": 196.60985343025595, "p95_abs_flow_mw": 185.35382933752189, "mean_abs_flow_mw": 122.8042354053842, "max_loading_pct": 49.152463357563995, "p95_loading_pct": 46.338457334380472, "peak_load_level": "06-15 13:00:00+01:00", "plot_width": 2.809176045385807, "loading_class": "0-50%", "plot_color": "#8D9591", "corridor_name": "Mbour - Fatick (ac1)" }, "geometry": { "type": "LineString", "coordinates": [ [ -16.95060872, 14.47026212 ], [ -16.41655, 14.36650969 ] ] } },
{ "type": "Feature", "properties": { "InitialNode": "Senegal States|Kedougou", "FinalNode": "Senegal States|Sabangalou", "Circuit": "ac1", "LineType": "AC", "Switching": null, "InitialPeriod": 2000, "FinalPeriod": 2050, "Voltage": 225, "Length": 31.0, "Reactance": 0.05, "TTC": 400, "TTCBck": null, "SecurityFactor": 1, "FixedInvestmentCost": null, "FixedChargeRate": null, "BinaryInvestment": null, "SwOnTime": null, "SwOffTime": null, "Resistance": null, "Susceptance": null, "Tap": null, "AngMin": null, "LossFactor": 0.01, "AngMax": null, "InvestmentLo": null, "InvestmentUp": null, "candidate": false, "investment_decision": 0.0, "active_in_year": true, "max_abs_flow_mw": 7.2022196763819046, "p95_abs_flow_mw": 6.773247343216104, "mean_abs_flow_mw": 5.3808576498097187, "max_loading_pct": 1.8005549190954762, "p95_loading_pct": 1.693311835804026, "peak_load_level": "10-01 19:00:00+01:00", "plot_width": 0.98186475352289815, "loading_class": "0-50%", "plot_color": "#8D9591", "corridor_name": "Kedougou - Sabangalou (ac1)" }, "geometry": { "type": "LineString", "coordinates": [ [ -12.24961422, 12.54565362 ], [ -12.21717132, 12.39794221 ] ] } },
{ "type": "Feature", "properties": { "InitialNode": "Senegal States|Touba_2", "FinalNode": "Senegal States|Linguere", "Circuit": "ac1", "LineType": "AC", "Switching": null, "InitialPeriod": 2000, "FinalPeriod": 2050, "Voltage": 225, "Length": 84.079, "Reactance": 0.05, "TTC": 400, "TTCBck": null, "SecurityFactor": 1, "FixedInvestmentCost": null, "FixedChargeRate": null, "BinaryInvestment": null, "SwOnTime": null, "SwOffTime": null, "Resistance": null, "Susceptance": null, "Tap": null, "AngMin": null, "LossFactor": 0.01, "AngMax": null, "InvestmentLo": null, "InvestmentUp": null, "candidate": false, "investment_decision": 0.0, "active_in_year": true, "max_abs_flow_mw": 28.209389930205159, "p95_abs_flow_mw": 22.43643278796814, "mean_abs_flow_mw": 6.7604785936339873, "max_loading_pct": 7.0523474825512888, "p95_loading_pct": 5.609108196992036, "peak_load_level": "10-02 23:00:00+01:00", "plot_width": 1.3360066084320708, "loading_class": "0-50%", "plot_color": "#8D9591", "corridor_name": "Touba_2 - Linguere (ac1)" }, "geometry": { "type": "LineString", "coordinates": [ [ -15.79681638, 14.92570948 ], [ -15.18648003, 15.40111559 ] ] } },
{ "type": "Feature", "properties": { "InitialNode": "Senegal States|Kolda", "FinalNode": "Senegal States|Ziguinchor", "Circuit": "ac1", "LineType": "AC", "Switching": null, "InitialPeriod": 2000, "FinalPeriod": 2050, "Voltage": 225, "Length": 157.3, "Reactance": 0.05, "TTC": 400, "TTCBck": null, "SecurityFactor": 1, "FixedInvestmentCost": null, "FixedChargeRate": null, "BinaryInvestment": null, "SwOnTime": null, "SwOffTime": null, "Resistance": null, "Susceptance": null, "Tap": null, "AngMin": null, "LossFactor": 0.01, "AngMax": null, "InvestmentLo": null, "InvestmentUp": null, "candidate": false, "investment_decision": 0.0, "active_in_year": true, "max_abs_flow_mw": 18.499962668341691, "p95_abs_flow_mw": 12.477082814070339, "mean_abs_flow_mw": 5.2826084133769413, "max_loading_pct": 4.6249906670854228, "p95_loading_pct": 3.1192707035175844, "peak_load_level": "10-11 13:00:00+01:00", "plot_width": 1.1361460219588577, "loading_class": "0-50%", "plot_color": "#8D9591", "corridor_name": "Kolda - Ziguinchor (ac1)" }, "geometry": { "type": "LineString", "coordinates": [ [ -14.93616241, 12.86405574 ], [ -16.22497827, 12.55982815 ] ] } },
{ "type": "Feature", "properties": { "InitialNode": "Senegal States|Tambacounda", "FinalNode": "Senegal States|Kolda", "Circuit": "ac1", "LineType": "AC", "Switching": null, "InitialPeriod": 2000, "FinalPeriod": 2050, "Voltage": 225, "Length": 197.2, "Reactance": 0.05, "TTC": 400, "TTCBck": null, "SecurityFactor": 1, "FixedInvestmentCost": null, "FixedChargeRate": null, "BinaryInvestment": null, "SwOnTime": null, "SwOffTime": null, "Resistance": null, "Susceptance": null, "Tap": null, "AngMin": null, "LossFactor": 0.01, "AngMax": null, "InvestmentLo": null, "InvestmentUp": null, "candidate": false, "investment_decision": 0.0, "active_in_year": true, "max_abs_flow_mw": 28.756537846810591, "p95_abs_flow_mw": 21.591664858407665, "mean_abs_flow_mw": 15.64436136931733, "max_loading_pct": 7.1891344617026478, "p95_loading_pct": 5.3979162146019171, "peak_load_level": "10-11 13:00:00+01:00", "plot_width": 1.3210674290926687, "loading_class": "0-50%", "plot_color": "#8D9591", "corridor_name": "Tambacounda - Kolda (ac1)" }, "geometry": { "type": "LineString", "coordinates": [ [ -13.72938682, 13.77472789 ], [ -14.93616241, 12.86405574 ] ] } },
{ "type": "Feature", "properties": { "InitialNode": "Senegal States|Tambacounda", "FinalNode": "Senegal States|Kolda", "Circuit": "ac2", "LineType": "AC", "Switching": null, "InitialPeriod": 2029, "FinalPeriod": 2050, "Voltage": 225, "Length": 197.2, "Reactance": 0.05, "TTC": 400, "TTCBck": null, "SecurityFactor": 1, "FixedInvestmentCost": 82.824, "FixedChargeRate": 0.1, "BinaryInvestment": null, "SwOnTime": null, "SwOffTime": null, "Resistance": null, "Susceptance": null, "Tap": null, "AngMin": null, "LossFactor": 0.01, "AngMax": null, "InvestmentLo": null, "InvestmentUp": null, "candidate": true, "investment_decision": 0.0, "active_in_year": true, "max_abs_flow_mw": 0.0, "p95_abs_flow_mw": 0.0, "mean_abs_flow_mw": 0.0, "max_loading_pct": 0.0, "p95_loading_pct": 0.0, "peak_load_level": "", "plot_width": 0.55, "loading_class": "0-50%", "plot_color": "#8D9591", "corridor_name": "Tambacounda - Kolda (ac2)" }, "geometry": { "type": "LineString", "coordinates": [ [ -13.72938682, 13.77472789 ], [ -14.93616241, 12.86405574 ] ] } },
{ "type": "Feature", "properties": { "InitialNode": "Senegal States|Tobene", "FinalNode": "Senegal States|Saint_Louis", "Circuit": "ac1", "LineType": "AC", "Switching": null, "InitialPeriod": 2000, "FinalPeriod": 2050, "Voltage": 225, "Length": 143.8, "Reactance": 0.05, "TTC": 400, "TTCBck": null, "SecurityFactor": 1, "FixedInvestmentCost": null, "FixedChargeRate": null, "BinaryInvestment": null, "SwOnTime": null, "SwOffTime": null, "Resistance": null, "Susceptance": null, "Tap": null, "AngMin": null, "LossFactor": 0.01, "AngMax": null, "InvestmentLo": null, "InvestmentUp": null, "candidate": false, "investment_decision": 0.0, "active_in_year": true, "max_abs_flow_mw": 8.9305322537688312, "p95_abs_flow_mw": 8.3986196708542575, "mean_abs_flow_mw": 6.5942812003772877, "max_loading_pct": 2.2326330634422078, "p95_loading_pct": 2.0996549177135644, "peak_load_level": "10-01 19:00:00+01:00", "plot_width": 1.0308983095595339, "loading_class": "0-50%", "plot_color": "#8D9591", "corridor_name": "Tobene - Saint_Louis (ac1)" }, "geometry": { "type": "LineString", "coordinates": [ [ -16.8652695, 15.00464525 ], [ -16.43143115, 15.99976973 ] ] } },
{ "type": "Feature", "properties": { "InitialNode": "Senegal States|Kahone", "FinalNode": "Senegal States|Wack_Ngouna", "Circuit": "ac1", "LineType": "AC", "Switching": null, "InitialPeriod": 2000, "FinalPeriod": 2050, "Voltage": 225, "Length": 44.2304, "Reactance": 0.05, "TTC": 400, "TTCBck": null, "SecurityFactor": 1, "FixedInvestmentCost": null, "FixedChargeRate": null, "BinaryInvestment": null, "SwOnTime": null, "SwOffTime": null, "Resistance": null, "Susceptance": null, "Tap": null, "AngMin": null, "LossFactor": 0.01, "AngMax": null, "InvestmentLo": null, "InvestmentUp": null, "candidate": false, "investment_decision": 0.0, "active_in_year": true, "max_abs_flow_mw": 30.5210740351759, "p95_abs_flow_mw": 28.703204417085399, "mean_abs_flow_mw": 22.625314268117144, "max_loading_pct": 7.6302685087939741, "p95_loading_pct": 7.1758011042713497, "peak_load_level": "10-01 19:00:00+01:00", "plot_width": 1.4390260465058118, "loading_class": "0-50%", "plot_color": "#8D9591", "corridor_name": "Kahone - Wack_Ngouna (ac1)" }, "geometry": { "type": "LineString", "coordinates": [ [ -16.03163124, 14.16707562 ], [ -16.06047435, 13.76829692 ] ] } },
{ "type": "Feature", "properties": { "InitialNode": "Senegal States|SDE", "FinalNode": "Senegal States|Pekesse", "Circuit": "ac1", "LineType": "AC", "Switching": null, "InitialPeriod": 2000, "FinalPeriod": 2050, "Voltage": 90, "Length": 20.4154, "Reactance": 0.05, "TTC": 200, "TTCBck": null, "SecurityFactor": 1, "FixedInvestmentCost": null, "FixedChargeRate": null, "BinaryInvestment": null, "SwOnTime": null, "SwOffTime": null, "Resistance": null, "Susceptance": null, "Tap": null, "AngMin": null, "LossFactor": 0.01, "AngMax": null, "InvestmentLo": null, "InvestmentUp": null, "candidate": false, "investment_decision": 0.0, "active_in_year": true, "max_abs_flow_mw": 0.0, "p95_abs_flow_mw": 0.0, "mean_abs_flow_mw": 0.0, "max_loading_pct": 0.0, "p95_loading_pct": 0.0, "peak_load_level": "", "plot_width": 0.55, "loading_class": "0-50%", "plot_color": "#8D9591", "corridor_name": "SDE - Pekesse (ac1)" }, "geometry": { "type": "LineString", "coordinates": [ [ -16.61997372, 15.1461977 ], [ -16.43307608, 15.11332631 ] ] } },
{ "type": "Feature", "properties": { "InitialNode": "Senegal States|Cap_Des_Biches", "FinalNode": "Senegal States|Sococim", "Circuit": "ac1", "LineType": "AC", "Switching": null, "InitialPeriod": 2000, "FinalPeriod": 2050, "Voltage": 90, "Length": 6.5, "Reactance": 0.05, "TTC": 200, "TTCBck": null, "SecurityFactor": 1, "FixedInvestmentCost": null, "FixedChargeRate": null, "BinaryInvestment": null, "SwOnTime": null, "SwOffTime": null, "Resistance": null, "Susceptance": null, "Tap": null, "AngMin": null, "LossFactor": 0.01, "AngMax": null, "InvestmentLo": null, "InvestmentUp": null, "candidate": false, "investment_decision": 0.0, "active_in_year": true, "max_abs_flow_mw": 173.08311817909228, "p95_abs_flow_mw": 160.42516333266252, "mean_abs_flow_mw": 103.92329469639374, "max_loading_pct": 86.541559089546141, "p95_loading_pct": 80.212581666331261, "peak_load_level": "05-29 21:00:00+01:00", "plot_width": 2.651771690714841, "loading_class": "80-95%", "plot_color": "#D13B3F", "corridor_name": "Cap_Des_Biches - Sococim (ac1)" }, "geometry": { "type": "LineString", "coordinates": [ [ -17.30051519, 14.71989523 ], [ -17.24829086, 14.71018467 ] ] } },
{ "type": "Feature", "properties": { "InitialNode": "Senegal States|Kounoune", "FinalNode": "Senegal States|Diamniadio", "Circuit": "ac1", "LineType": "AC", "Switching": null, "InitialPeriod": 2000, "FinalPeriod": 2050, "Voltage": 225, "Length": 6.3643, "Reactance": 0.05, "TTC": 400, "TTCBck": null, "SecurityFactor": 1, "FixedInvestmentCost": null, "FixedChargeRate": null, "BinaryInvestment": null, "SwOnTime": null, "SwOffTime": null, "Resistance": null, "Susceptance": null, "Tap": null, "AngMin": null, "LossFactor": 0.01, "AngMax": null, "InvestmentLo": null, "InvestmentUp": null, "candidate": false, "investment_decision": 0.0, "active_in_year": true, "max_abs_flow_mw": 121.2952956331732, "p95_abs_flow_mw": 108.07846696807226, "mean_abs_flow_mw": 57.368504167867883, "max_loading_pct": 30.323823908293299, "p95_loading_pct": 27.019616742018066, "peak_load_level": "05-21 07:00:00+01:00", "plot_width": 2.2751182952184044, "loading_class": "0-50%", "plot_color": "#8D9591", "corridor_name": "Kounoune - Diamniadio (ac1)" }, "geometry": { "type": "LineString", "coordinates": [ [ -17.26460936, 14.74293601 ], [ -17.21505744, 14.7115875 ] ] } },
{ "type": "Feature", "properties": { "InitialNode": "Senegal States|Tobene", "FinalNode": "Senegal States|Touba_1", "Circuit": "ac1", "LineType": "AC", "Switching": null, "InitialPeriod": 2000, "FinalPeriod": 2050, "Voltage": 225, "Length": 105.9, "Reactance": 0.05, "TTC": 400, "TTCBck": null, "SecurityFactor": 1, "FixedInvestmentCost": null, "FixedChargeRate": null, "BinaryInvestment": null, "SwOnTime": null, "SwOffTime": null, "Resistance": null, "Susceptance": null, "Tap": null, "AngMin": null, "LossFactor": 0.01, "AngMax": null, "InvestmentLo": null, "InvestmentUp": null, "candidate": false, "investment_decision": 0.0, "active_in_year": true, "max_abs_flow_mw": 193.18472865288484, "p95_abs_flow_mw": 151.16571727905799, "mean_abs_flow_mw": 79.579435685755001, "max_loading_pct": 48.296182163221211, "p95_loading_pct": 37.791429319764497, "peak_load_level": "05-03 19:00:00+01:00", "plot_width": 2.5902150534203043, "loading_class": "0-50%", "plot_color": "#8D9591", "corridor_name": "Tobene - Touba_1 (ac1)" }, "geometry": { "type": "LineString", "coordinates": [ [ -16.8652695, 15.00464525 ], [ -15.93549626, 14.7934067 ] ] } },
{ "type": "Feature", "properties": { "InitialNode": "Senegal States|Touba_1", "FinalNode": "Senegal States|Kahone", "Circuit": "ac1", "LineType": "AC", "Switching": null, "InitialPeriod": 2000, "FinalPeriod": 2050, "Voltage": 225, "Length": 70.0, "Reactance": 0.05, "TTC": 400, "TTCBck": null, "SecurityFactor": 1, "FixedInvestmentCost": null, "FixedChargeRate": null, "BinaryInvestment": null, "SwOnTime": null, "SwOffTime": null, "Resistance": null, "Susceptance": null, "Tap": null, "AngMin": null, "LossFactor": 0.01, "AngMax": null, "InvestmentLo": null, "InvestmentUp": null, "candidate": false, "investment_decision": 0.0, "active_in_year": true, "max_abs_flow_mw": 190.97470077039657, "p95_abs_flow_mw": 167.57079036368538, "mean_abs_flow_mw": 70.309334636398489, "max_loading_pct": 47.743675192599142, "p95_loading_pct": 41.892697590921344, "peak_load_level": "10-02 23:00:00+01:00", "plot_width": 2.6980701103054479, "loading_class": "0-50%", "plot_color": "#8D9591", "corridor_name": "Touba_1 - Kahone (ac1)" }, "geometry": { "type": "LineString", "coordinates": [ [ -15.93549626, 14.7934067 ], [ -16.03163124, 14.16707562 ] ] } },
{ "type": "Feature", "properties": { "InitialNode": "Senegal States|Tobene", "FinalNode": "Senegal States|Thies_Numerique", "Circuit": "ac1", "LineType": "AC", "Switching": null, "InitialPeriod": 2000, "FinalPeriod": 2050, "Voltage": 225, "Length": 26.8584, "Reactance": 0.05, "TTC": 400, "TTCBck": null, "SecurityFactor": 1, "FixedInvestmentCost": null, "FixedChargeRate": null, "BinaryInvestment": null, "SwOnTime": null, "SwOffTime": null, "Resistance": null, "Susceptance": null, "Tap": null, "AngMin": null, "LossFactor": 0.01, "AngMax": null, "InvestmentLo": null, "InvestmentUp": null, "candidate": false, "investment_decision": 0.0, "active_in_year": true, "max_abs_flow_mw": 49.235645367638917, "p95_abs_flow_mw": 32.169805563842701, "mean_abs_flow_mw": 9.2118563754697007, "max_loading_pct": 12.308911341909729, "p95_loading_pct": 8.0424513909606752, "peak_load_level": "06-15 05:00:00+01:00", "plot_width": 1.4911817796229019, "loading_class": "0-50%", "plot_color": "#8D9591", "corridor_name": "Tobene - Thies_Numerique (ac1)" }, "geometry": { "type": "LineString", "coordinates": [ [ -16.8652695, 15.00464525 ], [ -16.85965679, 14.76196798 ] ] } },
{ "type": "Feature", "properties": { "InitialNode": "Senegal States|Kounoune", "FinalNode": "Senegal States|Tobene", "Circuit": "ac1", "LineType": "AC", "Switching": null, "InitialPeriod": 2000, "FinalPeriod": 2050, "Voltage": 225, "Length": 53.2, "Reactance": 0.05, "TTC": 400, "TTCBck": null, "SecurityFactor": 1, "FixedInvestmentCost": null, "FixedChargeRate": null, "BinaryInvestment": null, "SwOnTime": null, "SwOffTime": null, "Resistance": null, "Susceptance": null, "Tap": null, "AngMin": null, "LossFactor": 0.01, "AngMax": null, "InvestmentLo": null, "InvestmentUp": null, "candidate": false, "investment_decision": 0.0, "active_in_year": true, "max_abs_flow_mw": 307.99003004060597, "p95_abs_flow_mw": 255.28917616106867, "mean_abs_flow_mw": 127.7379336368089, "max_loading_pct": 76.997507510151493, "p95_loading_pct": 63.822294040267167, "peak_load_level": "04-08 07:00:00+01:00", "plot_width": 3.2013404274986854, "loading_class": "50-80%", "plot_color": "#E58A2F", "corridor_name": "Kounoune - Tobene (ac1)" }, "geometry": { "type": "LineString", "coordinates": [ [ -17.26460936, 14.74293601 ], [ -16.8652695, 15.00464525 ] ] } },
{ "type": "Feature", "properties": { "InitialNode": "Senegal States|Thies_Numerique", "FinalNode": "Senegal States|Diass", "Circuit": "ac1", "LineType": "AC", "Switching": null, "InitialPeriod": 2000, "FinalPeriod": 2050, "Voltage": 225, "Length": 28.4573, "Reactance": 0.05, "TTC": 400, "TTCBck": null, "SecurityFactor": 1, "FixedInvestmentCost": null, "FixedChargeRate": null, "BinaryInvestment": null, "SwOnTime": null, "SwOffTime": null, "Resistance": null, "Susceptance": null, "Tap": null, "AngMin": null, "LossFactor": 0.01, "AngMax": null, "InvestmentLo": null, "InvestmentUp": null, "candidate": false, "investment_decision": 0.0, "active_in_year": true, "max_abs_flow_mw": 116.11552209484522, "p95_abs_flow_mw": 108.86620297894873, "mean_abs_flow_mw": 67.187963994260897, "max_loading_pct": 29.028880523711305, "p95_loading_pct": 27.216550744737184, "peak_load_level": "10-02 23:00:00+01:00", "plot_width": 2.2813936923971916, "loading_class": "0-50%", "plot_color": "#8D9591", "corridor_name": "Thies_Numerique - Diass (ac1)" }, "geometry": { "type": "LineString", "coordinates": [ [ -16.85965679, 14.76196798 ], [ -17.1016541, 14.65867849 ] ] } },
{ "type": "Feature", "properties": { "InitialNode": "Senegal States|Cap_Des_Biches", "FinalNode": "Senegal States|Kounoune", "Circuit": "ac1", "LineType": "AC", "Switching": null, "InitialPeriod": 2000, "FinalPeriod": 2050, "Voltage": 225, "Length": 4.5, "Reactance": 0.05, "TTC": 400, "TTCBck": null, "SecurityFactor": 1, "FixedInvestmentCost": null, "FixedChargeRate": null, "BinaryInvestment": null, "SwOnTime": null, "SwOffTime": null, "Resistance": null, "Susceptance": null, "Tap": null, "AngMin": null, "LossFactor": 0.01, "AngMax": null, "InvestmentLo": null, "InvestmentUp": null, "candidate": false, "investment_decision": 0.0, "active_in_year": true, "max_abs_flow_mw": 151.58715871478449, "p95_abs_flow_mw": 140.2743596622735, "mean_abs_flow_mw": 92.478350094509196, "max_loading_pct": 37.896789678696123, "p95_loading_pct": 35.068589915568374, "peak_load_level": "05-30 21:00:00+01:00", "plot_width": 2.5153433812602524, "loading_class": "0-50%", "plot_color": "#8D9591", "corridor_name": "Cap_Des_Biches - Kounoune (ac1)" }, "geometry": { "type": "LineString", "coordinates": [ [ -17.30051519, 14.71989523 ], [ -17.26460936, 14.74293601 ] ] } },
{ "type": "Feature", "properties": { "InitialNode": "Senegal States|Cap_Des_Biches", "FinalNode": "Senegal States|Kounoune", "Circuit": "ac2", "LineType": "AC", "Switching": null, "InitialPeriod": 2000, "FinalPeriod": 2050, "Voltage": 225, "Length": 6.4, "Reactance": 0.05, "TTC": 400, "TTCBck": null, "SecurityFactor": 1, "FixedInvestmentCost": null, "FixedChargeRate": null, "BinaryInvestment": null, "SwOnTime": null, "SwOffTime": null, "Resistance": null, "Susceptance": null, "Tap": null, "AngMin": null, "LossFactor": 0.01, "AngMax": null, "InvestmentLo": null, "InvestmentUp": null, "candidate": false, "investment_decision": 0.0, "active_in_year": true, "max_abs_flow_mw": 151.58715871478449, "p95_abs_flow_mw": 140.2743596622735, "mean_abs_flow_mw": 92.478350094509196, "max_loading_pct": 37.896789678696123, "p95_loading_pct": 35.068589915568374, "peak_load_level": "05-30 21:00:00+01:00", "plot_width": 2.5153433812602524, "loading_class": "0-50%", "plot_color": "#8D9591", "corridor_name": "Cap_Des_Biches - Kounoune (ac2)" }, "geometry": { "type": "LineString", "coordinates": [ [ -17.30051519, 14.71989523 ], [ -17.26460936, 14.74293601 ] ] } },
{ "type": "Feature", "properties": { "InitialNode": "Senegal States|Thiona", "FinalNode": "Senegal States|Tobene", "Circuit": "ac1", "LineType": "AC", "Switching": null, "InitialPeriod": 2000, "FinalPeriod": 2050, "Voltage": 90, "Length": 31.4, "Reactance": 0.05, "TTC": 200, "TTCBck": null, "SecurityFactor": 1, "FixedInvestmentCost": null, "FixedChargeRate": null, "BinaryInvestment": null, "SwOnTime": null, "SwOffTime": null, "Resistance": null, "Susceptance": null, "Tap": null, "AngMin": null, "LossFactor": 0.01, "AngMax": null, "InvestmentLo": null, "InvestmentUp": null, "candidate": false, "investment_decision": 0.0, "active_in_year": true, "max_abs_flow_mw": 54.019567442507658, "p95_abs_flow_mw": 30.41941067158718, "mean_abs_flow_mw": 6.1609445681819857, "max_loading_pct": 27.009783721253829, "p95_loading_pct": 15.20970533579359, "peak_load_level": "09-07 19:00:00+01:00", "plot_width": 1.4652182909679456, "loading_class": "0-50%", "plot_color": "#8D9591", "corridor_name": "Thiona - Tobene (ac1)" }, "geometry": { "type": "LineString", "coordinates": [ [ -16.94273687, 14.77996895 ], [ -16.8652695, 15.00464525 ] ] } },
{ "type": "Feature", "properties": { "InitialNode": "Senegal States|Someta", "FinalNode": "Senegal States|Thiona", "Circuit": "ac2", "LineType": "AC", "Switching": null, "InitialPeriod": 2000, "FinalPeriod": 2050, "Voltage": 90, "Length": 23.7, "Reactance": 0.05, "TTC": 200, "TTCBck": null, "SecurityFactor": 1, "FixedInvestmentCost": null, "FixedChargeRate": null, "BinaryInvestment": null, "SwOnTime": null, "SwOffTime": null, "Resistance": null, "Susceptance": null, "Tap": null, "AngMin": null, "LossFactor": 0.01, "AngMax": null, "InvestmentLo": null, "InvestmentUp": null, "candidate": false, "investment_decision": 0.0, "active_in_year": true, "max_abs_flow_mw": 48.379982828043651, "p95_abs_flow_mw": 32.288325151438514, "mean_abs_flow_mw": 14.08407112581588, "max_loading_pct": 24.189991414021826, "p95_loading_pct": 16.144162575719257, "peak_load_level": "06-06 13:00:00+01:00", "plot_width": 1.4929139306551531, "loading_class": "0-50%", "plot_color": "#8D9591", "corridor_name": "Someta - Thiona (ac2)" }, "geometry": { "type": "LineString", "coordinates": [ [ -17.15590517, 14.7319769 ], [ -16.94273687, 14.77996895 ] ] } },
{ "type": "Feature", "properties": { "InitialNode": "Senegal States|Tobene", "FinalNode": "Senegal States|SDE", "Circuit": "ac1", "LineType": "AC", "Switching": null, "InitialPeriod": 2000, "FinalPeriod": 2050, "Voltage": 90, "Length": 30.6728, "Reactance": 0.05, "TTC": 200, "TTCBck": null, "SecurityFactor": 1, "FixedInvestmentCost": null, "FixedChargeRate": null, "BinaryInvestment": null, "SwOnTime": null, "SwOffTime": null, "Resistance": null, "Susceptance": null, "Tap": null, "AngMin": null, "LossFactor": 0.01, "AngMax": null, "InvestmentLo": null, "InvestmentUp": null, "candidate": false, "investment_decision": 0.0, "active_in_year": true, "max_abs_flow_mw": 31.334993459296467, "p95_abs_flow_mw": 28.650291249195984, "mean_abs_flow_mw": 20.020345234973053, "max_loading_pct": 15.667496729648233, "p95_loading_pct": 14.325145624597992, "peak_load_level": "10-21 19:00:00+01:00", "plot_width": 1.4382062271679201, "loading_class": "0-50%", "plot_color": "#8D9591", "corridor_name": "Tobene - SDE (ac1)" }, "geometry": { "type": "LineString", "coordinates": [ [ -16.8652695, 15.00464525 ], [ -16.61997372, 15.1461977 ] ] } },
{ "type": "Feature", "properties": { "InitialNode": "Senegal States|Linguere", "FinalNode": "Senegal States|Ndioum", "Circuit": "ac1", "LineType": "AC", "Switching": null, "InitialPeriod": 2000, "FinalPeriod": 2050, "Voltage": 225, "Length": 134.8807, "Reactance": 0.05, "TTC": 400, "TTCBck": null, "SecurityFactor": 1, "FixedInvestmentCost": null, "FixedChargeRate": null, "BinaryInvestment": null, "SwOnTime": null, "SwOffTime": null, "Resistance": null, "Susceptance": null, "Tap": null, "AngMin": null, "LossFactor": 0.01, "AngMax": null, "InvestmentLo": null, "InvestmentUp": null, "candidate": false, "investment_decision": 0.0, "active_in_year": true, "max_abs_flow_mw": 22.053596232843251, "p95_abs_flow_mw": 16.338081450230472, "mean_abs_flow_mw": 5.1771941535730894, "max_loading_pct": 5.5133990582108128, "p95_loading_pct": 4.0845203625576181, "peak_load_level": "10-02 23:00:00+01:00", "plot_width": 1.2207332275716507, "loading_class": "0-50%", "plot_color": "#8D9591", "corridor_name": "Linguere - Ndioum (ac1)" }, "geometry": { "type": "LineString", "coordinates": [ [ -15.18648003, 15.40111559 ], [ -14.67801386, 16.51634241 ] ] } },
{ "type": "Feature", "properties": { "InitialNode": "Senegal States|Touba_1", "FinalNode": "Senegal States|Touba_2", "Circuit": "ac1", "LineType": "AC", "Switching": null, "InitialPeriod": 2000, "FinalPeriod": 2050, "Voltage": 225, "Length": 2.0905, "Reactance": 0.05, "TTC": 400, "TTCBck": null, "SecurityFactor": 1, "FixedInvestmentCost": null, "FixedChargeRate": null, "BinaryInvestment": null, "SwOnTime": null, "SwOffTime": null, "Resistance": null, "Susceptance": null, "Tap": null, "AngMin": 0.02, "LossFactor": 0.01, "AngMax": null, "InvestmentLo": null, "InvestmentUp": null, "candidate": false, "investment_decision": 0.0, "active_in_year": true, "max_abs_flow_mw": 28.492901386790169, "p95_abs_flow_mw": 22.661924574781882, "mean_abs_flow_mw": 6.8215622668608047, "max_loading_pct": 7.1232253466975415, "p95_loading_pct": 5.6654811436954704, "peak_load_level": "10-02 23:00:00+01:00", "plot_width": 1.3399465158673944, "loading_class": "0-50%", "plot_color": "#8D9591", "corridor_name": "Touba_1 - Touba_2 (ac1)" }, "geometry": { "type": "LineString", "coordinates": [ [ -15.93549626, 14.7934067 ], [ -15.79681638, 14.92570948 ] ] } },
{ "type": "Feature", "properties": { "InitialNode": "Senegal States|Dagana", "FinalNode": "Senegal States|Ndioum", "Circuit": "ac1", "LineType": "AC", "Switching": null, "InitialPeriod": 2000, "FinalPeriod": 2050, "Voltage": 225, "Length": 84.151, "Reactance": 0.05, "TTC": 400, "TTCBck": null, "SecurityFactor": 1, "FixedInvestmentCost": null, "FixedChargeRate": null, "BinaryInvestment": null, "SwOnTime": null, "SwOffTime": null, "Resistance": null, "Susceptance": null, "Tap": null, "AngMin": 0.02, "LossFactor": 0.01, "AngMax": null, "InvestmentLo": null, "InvestmentUp": null, "candidate": false, "investment_decision": 0.0, "active_in_year": true, "max_abs_flow_mw": 37.076910181820352, "p95_abs_flow_mw": 31.351423936418566, "mean_abs_flow_mw": 15.633974702462829, "max_loading_pct": 9.2692275454550881, "p95_loading_pct": 7.8378559841046407, "peak_load_level": "04-06 15:00:00+01:00", "plot_width": 1.4791330924178685, "loading_class": "0-50%", "plot_color": "#8D9591", "corridor_name": "Dagana - Ndioum (ac1)" }, "geometry": { "type": "LineString", "coordinates": [ [ -15.46626099, 16.51184168 ], [ -14.67801386, 16.51634241 ] ] } },
{ "type": "Feature", "properties": { "InitialNode": "Senegal States|Tambacounda", "FinalNode": "Senegal States|Kedougou", "Circuit": "ac1", "LineType": "AC", "Switching": null, "InitialPeriod": 2000, "FinalPeriod": 2050, "Voltage": 225, "Length": 230.5, "Reactance": 0.05, "TTC": 400, "TTCBck": null, "SecurityFactor": 1, "FixedInvestmentCost": null, "FixedChargeRate": null, "BinaryInvestment": null, "SwOnTime": null, "SwOffTime": null, "Resistance": null, "Susceptance": null, "Tap": null, "AngMin": null, "LossFactor": 0.01, "AngMax": null, "InvestmentLo": null, "InvestmentUp": null, "candidate": false, "investment_decision": 0.0, "active_in_year": true, "max_abs_flow_mw": 26.000374954536497, "p95_abs_flow_mw": 24.45176327128862, "mean_abs_flow_mw": 19.425166510980656, "max_loading_pct": 6.5000937386341242, "p95_loading_pct": 6.1129408178221549, "peak_load_level": "10-01 19:00:00+01:00", "plot_width": 1.3705487426274878, "loading_class": "0-50%", "plot_color": "#8D9591", "corridor_name": "Tambacounda - Kedougou (ac1)" }, "geometry": { "type": "LineString", "coordinates": [ [ -13.72938682, 13.77472789 ], [ -12.24961422, 12.54565362 ] ] } },
{ "type": "Feature", "properties": { "InitialNode": "Senegal States|Kahone", "FinalNode": "Senegal States|Tanaf", "Circuit": "ac1", "LineType": "AC", "Switching": null, "InitialPeriod": 2000, "FinalPeriod": 2050, "Voltage": 225, "Length": 65.5, "Reactance": 0.05, "TTC": 400, "TTCBck": null, "SecurityFactor": 1, "FixedInvestmentCost": null, "FixedChargeRate": null, "BinaryInvestment": null, "SwOnTime": null, "SwOffTime": null, "Resistance": null, "Susceptance": null, "Tap": null, "AngMin": null, "LossFactor": 0.01, "AngMax": null, "InvestmentLo": null, "InvestmentUp": null, "candidate": false, "investment_decision": 0.0, "active_in_year": true, "max_abs_flow_mw": 29.790994969849272, "p95_abs_flow_mw": 27.103285092964835, "mean_abs_flow_mw": 21.465794405760846, "max_loading_pct": 7.4477487424623181, "p95_loading_pct": 6.7758212732412089, "peak_load_level": "10-05 13:00:00+01:00", "plot_width": 1.4138936061868228, "loading_class": "0-50%", "plot_color": "#8D9591", "corridor_name": "Kahone - Tanaf (ac1)" }, "geometry": { "type": "LineString", "coordinates": [ [ -16.03163124, 14.16707562 ], [ -15.4644387, 12.6591533 ] ] } },
{ "type": "Feature", "properties": { "InitialNode": "Senegal States|Tambacounda", "FinalNode": "Senegal States|Kayes", "Circuit": "ac1", "LineType": "AC", "Switching": null, "InitialPeriod": 2000, "FinalPeriod": 2050, "Voltage": 225, "Length": 274.5, "Reactance": 0.05, "TTC": 400, "TTCBck": null, "SecurityFactor": 1, "FixedInvestmentCost": null, "FixedChargeRate": null, "BinaryInvestment": null, "SwOnTime": null, "SwOffTime": null, "Resistance": null, "Susceptance": null, "Tap": null, "AngMin": null, "LossFactor": 0.01, "AngMax": null, "InvestmentLo": null, "InvestmentUp": null, "candidate": false, "investment_decision": 0.0, "active_in_year": true, "max_abs_flow_mw": 185.98255560741717, "p95_abs_flow_mw": 185.20411797234249, "mean_abs_flow_mw": 66.813783354526308, "max_loading_pct": 46.495638901854292, "p95_loading_pct": 46.301029493085622, "peak_load_level": "10-01 23:00:00+01:00", "plot_width": 2.8082634862679852, "loading_class": "0-50%", "plot_color": "#8D9591", "corridor_name": "Tambacounda - Kayes (ac1)" }, "geometry": { "type": "LineString", "coordinates": [ [ -13.72938682, 13.77472789 ], [ -11.34984138, 14.35825708 ] ] } },
{ "type": "Feature", "properties": { "InitialNode": "Senegal States|Kahone", "FinalNode": "Senegal States|Tambacounda", "Circuit": "ac1", "LineType": "AC", "Switching": null, "InitialPeriod": 2000, "FinalPeriod": 2050, "Voltage": 225, "Length": 262.1, "Reactance": 0.05, "TTC": 400, "TTCBck": null, "SecurityFactor": 1, "FixedInvestmentCost": null, "FixedChargeRate": null, "BinaryInvestment": null, "SwOnTime": null, "SwOffTime": null, "Resistance": null, "Susceptance": null, "Tap": null, "AngMin": null, "LossFactor": 0.01, "AngMax": null, "InvestmentLo": null, "InvestmentUp": null, "candidate": false, "investment_decision": 0.0, "active_in_year": true, "max_abs_flow_mw": 284.21031264107137, "p95_abs_flow_mw": 264.74571656939503, "mean_abs_flow_mw": 115.69218921137616, "max_loading_pct": 71.052578160267842, "p95_loading_pct": 66.186429142348757, "peak_load_level": "10-11 23:00:00+01:00", "plot_width": 3.25, "loading_class": "50-80%", "plot_color": "#E58A2F", "corridor_name": "Kahone - Tambacounda (ac1)" }, "geometry": { "type": "LineString", "coordinates": [ [ -16.03163124, 14.16707562 ], [ -13.72938682, 13.77472789 ] ] } },
{ "type": "Feature", "properties": { "InitialNode": "Senegal States|Kahone", "FinalNode": "Senegal States|Tanaf", "Circuit": "ac2", "LineType": "AC", "Switching": null, "InitialPeriod": 2000, "FinalPeriod": 2050, "Voltage": 225, "Length": 215.2, "Reactance": 0.05, "TTC": 400, "TTCBck": null, "SecurityFactor": 1, "FixedInvestmentCost": null, "FixedChargeRate": null, "BinaryInvestment": null, "SwOnTime": null, "SwOffTime": null, "Resistance": null, "Susceptance": null, "Tap": null, "AngMin": null, "LossFactor": 0.01, "AngMax": null, "InvestmentLo": null, "InvestmentUp": null, "candidate": false, "investment_decision": 0.0, "active_in_year": true, "max_abs_flow_mw": 29.790994969849272, "p95_abs_flow_mw": 27.103285092964835, "mean_abs_flow_mw": 21.465794405760843, "max_loading_pct": 7.4477487424623181, "p95_loading_pct": 6.7758212732412089, "peak_load_level": "10-05 13:00:00+01:00", "plot_width": 1.4138936061868228, "loading_class": "0-50%", "plot_color": "#8D9591", "corridor_name": "Kahone - Tanaf (ac2)" }, "geometry": { "type": "LineString", "coordinates": [ [ -16.03163124, 14.16707562 ], [ -15.4644387, 12.6591533 ] ] } },
{ "type": "Feature", "properties": { "InitialNode": "Senegal States|Tambacounda", "FinalNode": "Senegal States|Kayes", "Circuit": "ac2", "LineType": "AC", "Switching": null, "InitialPeriod": 2000, "FinalPeriod": 2050, "Voltage": 225, "Length": 274.5, "Reactance": 0.05, "TTC": 400, "TTCBck": null, "SecurityFactor": 1, "FixedInvestmentCost": null, "FixedChargeRate": null, "BinaryInvestment": null, "SwOnTime": null, "SwOffTime": null, "Resistance": null, "Susceptance": null, "Tap": null, "AngMin": null, "LossFactor": 0.01, "AngMax": null, "InvestmentLo": null, "InvestmentUp": null, "candidate": false, "investment_decision": 0.0, "active_in_year": true, "max_abs_flow_mw": 185.98255560741717, "p95_abs_flow_mw": 185.20411797234249, "mean_abs_flow_mw": 66.813783354526308, "max_loading_pct": 46.495638901854292, "p95_loading_pct": 46.301029493085622, "peak_load_level": "10-02 23:00:00+01:00", "plot_width": 2.8082634862679852, "loading_class": "0-50%", "plot_color": "#8D9591", "corridor_name": "Tambacounda - Kayes (ac2)" }, "geometry": { "type": "LineString", "coordinates": [ [ -13.72938682, 13.77472789 ], [ -11.34984138, 14.35825708 ] ] } },
{ "type": "Feature", "properties": { "InitialNode": "Senegal States|Hann", "FinalNode": "Senegal States|Cap_Des_Biches", "Circuit": "ac1", "LineType": "AC", "Switching": null, "InitialPeriod": 2000, "FinalPeriod": 2050, "Voltage": 90, "Length": 15.6, "Reactance": 0.05, "TTC": 200, "TTCBck": null, "SecurityFactor": 1, "FixedInvestmentCost": null, "FixedChargeRate": null, "BinaryInvestment": null, "SwOnTime": null, "SwOffTime": null, "Resistance": null, "Susceptance": null, "Tap": null, "AngMin": null, "LossFactor": 0.01, "AngMax": null, "InvestmentLo": null, "InvestmentUp": null, "candidate": false, "investment_decision": 0.0, "active_in_year": true, "max_abs_flow_mw": 83.54877438820624, "p95_abs_flow_mw": 58.651758284160323, "mean_abs_flow_mw": 41.585625175795428, "max_loading_pct": 41.77438719410312, "p95_loading_pct": 29.325879142080161, "peak_load_level": "02-09 15:00:00+01:00", "plot_width": 1.8208368841808318, "loading_class": "0-50%", "plot_color": "#8D9591", "corridor_name": "Hann - Cap_Des_Biches (ac1)" }, "geometry": { "type": "LineString", "coordinates": [ [ -17.43771175, 14.73139415 ], [ -17.30051519, 14.71989523 ] ] } },
{ "type": "Feature", "properties": { "InitialNode": "Senegal States|Guediawaye", "FinalNode": "Senegal States|Kounoune", "Circuit": "ac1", "LineType": "AC", "Switching": null, "InitialPeriod": 2000, "FinalPeriod": 2050, "Voltage": 90, "Length": 13.776, "Reactance": 0.05, "TTC": 200, "TTCBck": null, "SecurityFactor": 1, "FixedInvestmentCost": null, "FixedChargeRate": null, "BinaryInvestment": null, "SwOnTime": null, "SwOffTime": null, "Resistance": null, "Susceptance": null, "Tap": null, "AngMin": null, "LossFactor": 0.01, "AngMax": null, "InvestmentLo": null, "InvestmentUp": null, "candidate": false, "investment_decision": 0.0, "active_in_year": true, "max_abs_flow_mw": 46.381327481371642, "p95_abs_flow_mw": 35.386082039306487, "mean_abs_flow_mw": 13.387277197938932, "max_loading_pct": 23.190663740685821, "p95_loading_pct": 17.693041019653243, "peak_load_level": "02-15 15:00:00+01:00", "plot_width": 1.5371099579340266, "loading_class": "0-50%", "plot_color": "#8D9591", "corridor_name": "Guediawaye - Kounoune (ac1)" }, "geometry": { "type": "LineString", "coordinates": [ [ -17.38915175, 14.77147116 ], [ -17.26460936, 14.74293601 ] ] } },
{ "type": "Feature", "properties": { "InitialNode": "Senegal States|Hann", "FinalNode": "Senegal States|Patte_Doie", "Circuit": "ac2", "LineType": "AC", "Switching": null, "InitialPeriod": 2000, "FinalPeriod": 2050, "Voltage": 90, "Length": 1.2, "Reactance": 0.05, "TTC": 200, "TTCBck": null, "SecurityFactor": 1, "FixedInvestmentCost": null, "FixedChargeRate": null, "BinaryInvestment": null, "SwOnTime": null, "SwOffTime": null, "Resistance": null, "Susceptance": null, "Tap": null, "AngMin": null, "LossFactor": 0.01, "AngMax": null, "InvestmentLo": null, "InvestmentUp": null, "candidate": false, "investment_decision": 0.0, "active_in_year": true, "max_abs_flow_mw": 36.249974017047052, "p95_abs_flow_mw": 32.262605097164837, "mean_abs_flow_mw": 9.7518738411456702, "max_loading_pct": 18.124987008523526, "p95_loading_pct": 16.131302548582418, "peak_load_level": "05-30 21:00:00+01:00", "plot_width": 1.4925383052724017, "loading_class": "0-50%", "plot_color": "#8D9591", "corridor_name": "Hann - Patte_Doie (ac2)" }, "geometry": { "type": "LineString", "coordinates": [ [ -17.43771175, 14.73139415 ], [ -17.43249346, 14.73703537 ] ] } },
{ "type": "Feature", "properties": { "InitialNode": "Senegal States|Mbao", "FinalNode": "Senegal States|Cap_Des_Biches", "Circuit": "ac1", "LineType": "AC", "Switching": null, "InitialPeriod": 2000, "FinalPeriod": 2050, "Voltage": 90, "Length": 7.2, "Reactance": 0.05, "TTC": 200, "TTCBck": null, "SecurityFactor": 1, "FixedInvestmentCost": null, "FixedChargeRate": null, "BinaryInvestment": null, "SwOnTime": null, "SwOffTime": null, "Resistance": null, "Susceptance": null, "Tap": null, "AngMin": null, "LossFactor": 0.01, "AngMax": null, "InvestmentLo": null, "InvestmentUp": null, "candidate": false, "investment_decision": 0.0, "active_in_year": true, "max_abs_flow_mw": 59.725816262712726, "p95_abs_flow_mw": 52.397235116983971, "mean_abs_flow_mw": 40.932854460436886, "max_loading_pct": 29.862908131356363, "p95_loading_pct": 26.198617558491989, "peak_load_level": "10-18 13:00:00+01:00", "plot_width": 1.7511672386537738, "loading_class": "0-50%", "plot_color": "#8D9591", "corridor_name": "Mbao - Cap_Des_Biches (ac1)" }, "geometry": { "type": "LineString", "coordinates": [ [ -17.34341222, 14.75841087 ], [ -17.30051519, 14.71989523 ] ] } },
{ "type": "Feature", "properties": { "InitialNode": "Senegal States|Olam", "FinalNode": "Senegal States|Someta", "Circuit": "ac1", "LineType": "AC", "Switching": null, "InitialPeriod": 2000, "FinalPeriod": 2050, "Voltage": 90, "Length": 2.5, "Reactance": 0.05, "TTC": 200, "TTCBck": null, "SecurityFactor": 1, "FixedInvestmentCost": null, "FixedChargeRate": null, "BinaryInvestment": null, "SwOnTime": null, "SwOffTime": null, "Resistance": null, "Susceptance": null, "Tap": null, "AngMin": null, "LossFactor": 0.01, "AngMax": null, "InvestmentLo": null, "InvestmentUp": null, "candidate": false, "investment_decision": 0.0, "active_in_year": true, "max_abs_flow_mw": 110.67472676681372, "p95_abs_flow_mw": 87.133428739993548, "mean_abs_flow_mw": 42.976526503569097, "max_loading_pct": 55.337363383406867, "p95_loading_pct": 43.566714369996774, "peak_load_level": "04-08 07:00:00+01:00", "plot_width": 2.0989653224794482, "loading_class": "50-80%", "plot_color": "#E58A2F", "corridor_name": "Olam - Someta (ac1)" }, "geometry": { "type": "LineString", "coordinates": [ [ -17.17572712, 14.72069022 ], [ -17.15590517, 14.7319769 ] ] } },
{ "type": "Feature", "properties": { "InitialNode": "Senegal States|Kounoune", "FinalNode": "Senegal States|Sococim", "Circuit": "ac1", "LineType": "AC", "Switching": null, "InitialPeriod": 2000, "FinalPeriod": 2050, "Voltage": 90, "Length": 4.7, "Reactance": 0.05, "TTC": 200, "TTCBck": null, "SecurityFactor": 1, "FixedInvestmentCost": null, "FixedChargeRate": null, "BinaryInvestment": null, "SwOnTime": null, "SwOffTime": null, "Resistance": null, "Susceptance": null, "Tap": null, "AngMin": null, "LossFactor": 0.01, "AngMax": null, "InvestmentLo": null, "InvestmentUp": null, "candidate": false, "investment_decision": 0.0, "active_in_year": true, "max_abs_flow_mw": 24.276960123418679, "p95_abs_flow_mw": 20.291287112445815, "mean_abs_flow_mw": 11.456509687416819, "max_loading_pct": 12.138480061709339, "p95_loading_pct": 10.145643556222907, "peak_load_level": "09-07 19:00:00+01:00", "plot_width": 1.2974877694623972, "loading_class": "0-50%", "plot_color": "#8D9591", "corridor_name": "Kounoune - Sococim (ac1)" }, "geometry": { "type": "LineString", "coordinates": [ [ -17.26460936, 14.74293601 ], [ -17.24829086, 14.71018467 ] ] } },
{ "type": "Feature", "properties": { "InitialNode": "Senegal States|Tambacounda", "FinalNode": "Senegal States|Velingara", "Circuit": "ac1", "LineType": "AC", "Switching": null, "InitialPeriod": 2000, "FinalPeriod": 2050, "Voltage": 225, "Length": 77.0132, "Reactance": 0.05, "TTC": 400, "TTCBck": null, "SecurityFactor": 1, "FixedInvestmentCost": null, "FixedChargeRate": null, "BinaryInvestment": null, "SwOnTime": null, "SwOffTime": null, "Resistance": null, "Susceptance": null, "Tap": null, "AngMin": null, "LossFactor": 0.01, "AngMax": null, "InvestmentLo": null, "InvestmentUp": null, "candidate": false, "investment_decision": 0.0, "active_in_year": true, "max_abs_flow_mw": 21.197069410522356, "p95_abs_flow_mw": 17.002366669598203, "mean_abs_flow_mw": 13.215504670994431, "max_loading_pct": 5.29926735263059, "p95_loading_pct": 4.2505916673995507, "peak_load_level": "10-11 13:00:00+01:00", "plot_width": 1.2342329463659292, "loading_class": "0-50%", "plot_color": "#8D9591", "corridor_name": "Tambacounda - Velingara (ac1)" }, "geometry": { "type": "LineString", "coordinates": [ [ -13.72938682, 13.77472789 ], [ -14.06433258, 13.16064066 ] ] } },
{ "type": "Feature", "properties": { "InitialNode": "Senegal States|Velingara", "FinalNode": "Senegal States|Kolda", "Circuit": "ac1", "LineType": "AC", "Switching": null, "InitialPeriod": 2000, "FinalPeriod": 2050, "Voltage": 225, "Length": 100.1054, "Reactance": 0.05, "TTC": 400, "TTCBck": null, "SecurityFactor": 1, "FixedInvestmentCost": null, "FixedChargeRate": null, "BinaryInvestment": null, "SwOnTime": null, "SwOffTime": null, "Resistance": null, "Susceptance": null, "Tap": null, "AngMin": null, "LossFactor": 0.01, "AngMax": null, "InvestmentLo": null, "InvestmentUp": null, "candidate": false, "investment_decision": 0.0, "active_in_year": true, "max_abs_flow_mw": 7.5594684362882969, "p95_abs_flow_mw": 5.2406175152389656, "mean_abs_flow_mw": 2.5327597394153583, "max_loading_pct": 1.8898671090720742, "p95_loading_pct": 1.3101543788097414, "peak_load_level": "10-11 13:00:00+01:00", "plot_width": 0.92987483553732897, "loading_class": "0-50%", "plot_color": "#8D9591", "corridor_name": "Velingara - Kolda (ac1)" }, "geometry": { "type": "LineString", "coordinates": [ [ -14.06433258, 13.16064066 ], [ -14.93616241, 12.86405574 ] ] } },
{ "type": "Feature", "properties": { "InitialNode": "Senegal States|Tobene", "FinalNode": "Senegal States|Saint_Louis", "Circuit": "ac2", "LineType": "AC", "Switching": null, "InitialPeriod": 2000, "FinalPeriod": 2050, "Voltage": 225, "Length": 143.8, "Reactance": 0.05, "TTC": 400, "TTCBck": null, "SecurityFactor": 1, "FixedInvestmentCost": null, "FixedChargeRate": null, "BinaryInvestment": null, "SwOnTime": null, "SwOffTime": null, "Resistance": null, "Susceptance": null, "Tap": null, "AngMin": null, "LossFactor": 0.01, "AngMax": null, "InvestmentLo": null, "InvestmentUp": null, "candidate": false, "investment_decision": 0.0, "active_in_year": true, "max_abs_flow_mw": 8.9305322537688312, "p95_abs_flow_mw": 8.3986196708542575, "mean_abs_flow_mw": 6.5942812003772868, "max_loading_pct": 2.2326330634422078, "p95_loading_pct": 2.0996549177135644, "peak_load_level": "10-01 19:00:00+01:00", "plot_width": 1.0308983095595339, "loading_class": "0-50%", "plot_color": "#8D9591", "corridor_name": "Tobene - Saint_Louis (ac2)" }, "geometry": { "type": "LineString", "coordinates": [ [ -16.8652695, 15.00464525 ], [ -16.43143115, 15.99976973 ] ] } },
{ "type": "Feature", "properties": { "InitialNode": "Senegal States|Patte_Doie", "FinalNode": "Senegal States|Cap_Des_Biches", "Circuit": "ac2", "LineType": "AC", "Switching": null, "InitialPeriod": 2000, "FinalPeriod": 2050, "Voltage": 90, "Length": 18.0, "Reactance": 0.05, "TTC": 200, "TTCBck": null, "SecurityFactor": 1, "FixedInvestmentCost": null, "FixedChargeRate": null, "BinaryInvestment": null, "SwOnTime": null, "SwOffTime": null, "Resistance": null, "Susceptance": null, "Tap": null, "AngMin": null, "LossFactor": 0.01, "AngMax": null, "InvestmentLo": null, "InvestmentUp": null, "candidate": false, "investment_decision": 0.0, "active_in_year": true, "max_abs_flow_mw": 66.838898302935661, "p95_abs_flow_mw": 60.66703635573699, "mean_abs_flow_mw": 50.391398527428656, "max_loading_pct": 33.41944915146783, "p95_loading_pct": 30.333518177868495, "peak_load_level": "02-09 15:00:00+01:00", "plot_width": 1.842485509984876, "loading_class": "0-50%", "plot_color": "#8D9591", "corridor_name": "Patte_Doie - Cap_Des_Biches (ac2)" }, "geometry": { "type": "LineString", "coordinates": [ [ -17.43249346, 14.73703537 ], [ -17.30051519, 14.71989523 ] ] } },
{ "type": "Feature", "properties": { "InitialNode": "Senegal States|Linguere", "FinalNode": "Senegal States|Matam", "Circuit": "ac1", "LineType": "AC", "Switching": null, "InitialPeriod": 2029, "FinalPeriod": 2050, "Voltage": 225, "Length": 75.0, "Reactance": 0.05, "TTC": 400, "TTCBck": null, "SecurityFactor": 1, "FixedInvestmentCost": 31.5, "FixedChargeRate": 0.1, "BinaryInvestment": null, "SwOnTime": null, "SwOffTime": null, "Resistance": null, "Susceptance": null, "Tap": null, "AngMin": null, "LossFactor": 0.01, "AngMax": null, "InvestmentLo": null, "InvestmentUp": null, "candidate": true, "investment_decision": 0.0, "active_in_year": true, "max_abs_flow_mw": 0.0, "p95_abs_flow_mw": 0.0, "mean_abs_flow_mw": 0.0, "max_loading_pct": 0.0, "p95_loading_pct": 0.0, "peak_load_level": "", "plot_width": 0.55, "loading_class": "0-50%", "plot_color": "#8D9591", "corridor_name": "Linguere - Matam (ac1)" }, "geometry": { "type": "LineString", "coordinates": [ [ -15.18648003, 15.40111559 ], [ -13.31461, 15.61303 ] ] } },
{ "type": "Feature", "properties": { "InitialNode": "Senegal States|mtkk", "FinalNode": "Senegal States|Linguere", "Circuit": "ac1", "LineType": "AC", "Switching": null, "InitialPeriod": 2029, "FinalPeriod": 2050, "Voltage": 225, "Length": 157.0, "Reactance": 0.06, "TTC": 400, "TTCBck": null, "SecurityFactor": 1, "FixedInvestmentCost": 65.94, "FixedChargeRate": 0.1, "BinaryInvestment": null, "SwOnTime": null, "SwOffTime": null, "Resistance": null, "Susceptance": null, "Tap": null, "AngMin": null, "LossFactor": 0.01, "AngMax": null, "InvestmentLo": null, "InvestmentUp": null, "candidate": true, "investment_decision": 0.0, "active_in_year": true, "max_abs_flow_mw": 0.0, "p95_abs_flow_mw": 0.0, "mean_abs_flow_mw": 0.0, "max_loading_pct": 0.0, "p95_loading_pct": 0.0, "peak_load_level": "", "plot_width": 0.55, "loading_class": "0-50%", "plot_color": "#8D9591", "corridor_name": "mtkk - Linguere (ac1)" }, "geometry": { "type": "LineString", "coordinates": [ [ -13.0174, 15.1722 ], [ -15.18648003, 15.40111559 ] ] } },
{ "type": "Feature", "properties": { "InitialNode": "Senegal States|mtkk", "FinalNode": "Senegal States|Bakel", "Circuit": "ac1", "LineType": "AC", "Switching": null, "InitialPeriod": 2029, "FinalPeriod": 2050, "Voltage": 225, "Length": 140.0, "Reactance": 0.07, "TTC": 400, "TTCBck": null, "SecurityFactor": 1, "FixedInvestmentCost": 58.8, "FixedChargeRate": 0.1, "BinaryInvestment": null, "SwOnTime": null, "SwOffTime": null, "Resistance": null, "Susceptance": null, "Tap": null, "AngMin": null, "LossFactor": 0.01, "AngMax": null, "InvestmentLo": null, "InvestmentUp": null, "candidate": true, "investment_decision": 0.0, "active_in_year": true, "max_abs_flow_mw": 0.0, "p95_abs_flow_mw": 0.0, "mean_abs_flow_mw": 0.0, "max_loading_pct": 0.0, "p95_loading_pct": 0.0, "peak_load_level": "", "plot_width": 0.55, "loading_class": "0-50%", "plot_color": "#8D9591", "corridor_name": "mtkk - Bakel (ac1)" }, "geometry": { "type": "LineString", "coordinates": [ [ -13.0174, 15.1722 ], [ -12.47410162, 14.89074035 ] ] } },
{ "type": "Feature", "properties": { "InitialNode": "Senegal States|mtkk", "FinalNode": "Senegal States|Tambacounda", "Circuit": "ac1", "LineType": "AC", "Switching": null, "InitialPeriod": 2029, "FinalPeriod": 2050, "Voltage": 225, "Length": 175.0, "Reactance": 0.08, "TTC": 400, "TTCBck": null, "SecurityFactor": 1, "FixedInvestmentCost": 73.5, "FixedChargeRate": 0.1, "BinaryInvestment": null, "SwOnTime": null, "SwOffTime": null, "Resistance": null, "Susceptance": null, "Tap": null, "AngMin": null, "LossFactor": 0.01, "AngMax": null, "InvestmentLo": null, "InvestmentUp": null, "candidate": true, "investment_decision": 0.030935966595477302, "active_in_year": true, "max_abs_flow_mw": 12.374386638190961, "p95_abs_flow_mw": 12.374386638190961, "mean_abs_flow_mw": 9.6321890177583089, "max_loading_pct": 3.0935966595477402, "p95_loading_pct": 3.0935966595477402, "peak_load_level": "05-05 09:00:00+01:00", "plot_width": 1.1337288171056206, "loading_class": "0-50%", "plot_color": "#8D9591", "corridor_name": "mtkk - Tambacounda (ac1)" }, "geometry": { "type": "LineString", "coordinates": [ [ -13.0174, 15.1722 ], [ -13.72938682, 13.77472789 ] ] } },
{ "type": "Feature", "properties": { "InitialNode": "Senegal States|mtkk", "FinalNode": "Senegal States|Matam", "Circuit": "ac1", "LineType": "AC", "Switching": null, "InitialPeriod": 2029, "FinalPeriod": 2050, "Voltage": 225, "Length": 64.0, "Reactance": 0.09, "TTC": 400, "TTCBck": null, "SecurityFactor": 1, "FixedInvestmentCost": 26.88, "FixedChargeRate": 0.1, "BinaryInvestment": null, "SwOnTime": null, "SwOffTime": null, "Resistance": null, "Susceptance": null, "Tap": null, "AngMin": null, "LossFactor": 0.01, "AngMax": null, "InvestmentLo": null, "InvestmentUp": null, "candidate": true, "investment_decision": 0.0072963789975124, "active_in_year": true, "max_abs_flow_mw": 2.9185515990049482, "p95_abs_flow_mw": 2.9185515990049482, "mean_abs_flow_mw": 1.7733950410969703, "max_loading_pct": 0.72963789975123705, "p95_loading_pct": 0.72963789975123705, "peak_load_level": "01-01 01:00:00+01:00", "plot_width": 0.83348689096977036, "loading_class": "0-50%", "plot_color": "#8D9591", "corridor_name": "mtkk - Matam (ac1)" }, "geometry": { "type": "LineString", "coordinates": [ [ -13.0174, 15.1722 ], [ -13.31461, 15.61303 ] ] } },
{ "type": "Feature", "properties": { "InitialNode": "Senegal States|Bakel", "FinalNode": "Senegal States|Kayes", "Circuit": "ac1", "LineType": "AC", "Switching": null, "InitialPeriod": 2029, "FinalPeriod": 2050, "Voltage": 225, "Length": 135.0, "Reactance": 0.1, "TTC": 400, "TTCBck": null, "SecurityFactor": 1, "FixedInvestmentCost": 56.7, "FixedChargeRate": 0.1, "BinaryInvestment": null, "SwOnTime": null, "SwOffTime": null, "Resistance": null, "Susceptance": null, "Tap": null, "AngMin": null, "LossFactor": 0.01, "AngMax": null, "InvestmentLo": null, "InvestmentUp": null, "candidate": true, "investment_decision": 0.047369361117143502, "active_in_year": true, "max_abs_flow_mw": 18.947744446857428, "p95_abs_flow_mw": 18.947744446857428, "mean_abs_flow_mw": 10.185376391128974, "max_loading_pct": 4.7369361117143569, "p95_loading_pct": 4.7369361117143569, "peak_load_level": "06-01 09:00:00+01:00", "plot_width": 1.2723173594489801, "loading_class": "0-50%", "plot_color": "#8D9591", "corridor_name": "Bakel - Kayes (ac1)" }, "geometry": { "type": "LineString", "coordinates": [ [ -12.47410162, 14.89074035 ], [ -11.34984138, 14.35825708 ] ] } },
{ "type": "Feature", "properties": { "InitialNode": "Senegal States|ls", "FinalNode": "Senegal States|Dagana", "Circuit": "ac1", "LineType": "AC", "Switching": null, "InitialPeriod": 2029, "FinalPeriod": 2050, "Voltage": 225, "Length": 66.0, "Reactance": 0.11, "TTC": 400, "TTCBck": null, "SecurityFactor": 1, "FixedInvestmentCost": 27.72, "FixedChargeRate": 0.1, "BinaryInvestment": null, "SwOnTime": null, "SwOffTime": null, "Resistance": null, "Susceptance": null, "Tap": null, "AngMin": null, "LossFactor": 0.01, "AngMax": null, "InvestmentLo": null, "InvestmentUp": null, "candidate": true, "investment_decision": 0.001516348424802, "active_in_year": true, "max_abs_flow_mw": 0.60653936992083324, "p95_abs_flow_mw": 0.60653936992083324, "mean_abs_flow_mw": 0.29524162458257225, "max_loading_pct": 0.15163484248020831, "p95_loading_pct": 0.15163484248020831, "peak_load_level": "04-01 07:00:00+01:00", "plot_width": 0.67923459642549466, "loading_class": "0-50%", "plot_color": "#8D9591", "corridor_name": "ls - Dagana (ac1)" }, "geometry": { "type": "LineString", "coordinates": [ [ -15.5828, 15.9012 ], [ -15.46626099, 16.51184168 ] ] } },
{ "type": "Feature", "properties": { "InitialNode": "Senegal States|ls", "FinalNode": "Senegal States|Linguere", "Circuit": "ac1", "LineType": "AC", "Switching": null, "InitialPeriod": 2029, "FinalPeriod": 2050, "Voltage": 225, "Length": 66.0, "Reactance": 0.12, "TTC": 400, "TTCBck": null, "SecurityFactor": 1, "FixedInvestmentCost": 27.72, "FixedChargeRate": 0.1, "BinaryInvestment": null, "SwOnTime": null, "SwOffTime": null, "Resistance": null, "Susceptance": null, "Tap": null, "AngMin": null, "LossFactor": 0.01, "AngMax": null, "InvestmentLo": null, "InvestmentUp": null, "candidate": true, "investment_decision": 0.014687758125738, "active_in_year": true, "max_abs_flow_mw": 5.8751032502952221, "p95_abs_flow_mw": 5.8751032502952221, "mean_abs_flow_mw": 2.2364760222277091, "max_loading_pct": 1.4687758125738055, "p95_loading_pct": 1.4687758125738055, "peak_load_level": "07-25 21:00:00+01:00", "plot_width": 0.95221387181629913, "loading_class": "0-50%", "plot_color": "#8D9591", "corridor_name": "ls - Linguere (ac1)" }, "geometry": { "type": "LineString", "coordinates": [ [ -15.5828, 15.9012 ], [ -15.18648003, 15.40111559 ] ] } },
{ "type": "Feature", "properties": { "InitialNode": "Senegal States|ls", "FinalNode": "Senegal States|Sakal", "Circuit": "ac1", "LineType": "AC", "Switching": null, "InitialPeriod": 2029, "FinalPeriod": 2050, "Voltage": 225, "Length": 73.0, "Reactance": 0.13, "TTC": 400, "TTCBck": null, "SecurityFactor": 1, "FixedInvestmentCost": 30.66, "FixedChargeRate": 0.1, "BinaryInvestment": null, "SwOnTime": null, "SwOffTime": null, "Resistance": null, "Susceptance": null, "Tap": null, "AngMin": null, "LossFactor": 0.01, "AngMax": null, "InvestmentLo": null, "InvestmentUp": null, "candidate": true, "investment_decision": 0.025744835434384401, "active_in_year": true, "max_abs_flow_mw": 10.2979341737538, "p95_abs_flow_mw": 10.297934173753742, "mean_abs_flow_mw": 7.9718673775927691, "max_loading_pct": 2.5744835434384497, "p95_loading_pct": 2.5744835434384354, "peak_load_level": "07-23 15:00:00+01:00", "plot_width": 1.0825058077653151, "loading_class": "0-50%", "plot_color": "#8D9591", "corridor_name": "ls - Sakal (ac1)" }, "geometry": { "type": "LineString", "coordinates": [ [ -15.5828, 15.9012 ], [ -16.22852109, 15.8590443 ] ] } },
{ "type": "Feature", "properties": { "InitialNode": "Senegal States|Thiona", "FinalNode": "Senegal States|Thies_Numerique", "Circuit": "ac1", "LineType": "AC", "Switching": null, "InitialPeriod": 2029, "FinalPeriod": 2050, "Voltage": 225, "Length": 9.0, "Reactance": 0.14, "TTC": 400, "TTCBck": null, "SecurityFactor": 1, "FixedInvestmentCost": 3.78, "FixedChargeRate": 0.1, "BinaryInvestment": null, "SwOnTime": null, "SwOffTime": null, "Resistance": null, "Susceptance": null, "Tap": null, "AngMin": null, "LossFactor": 0.01, "AngMax": null, "InvestmentLo": null, "InvestmentUp": null, "candidate": true, "investment_decision": 0.21933938427700869, "active_in_year": true, "max_abs_flow_mw": 87.735753710803493, "p95_abs_flow_mw": 87.735753710803493, "mean_abs_flow_mw": 44.617077827486277, "max_loading_pct": 21.933938427700873, "p95_loading_pct": 21.933938427700873, "peak_load_level": "07-29 11:00:00+01:00", "plot_width": 2.104309848154136, "loading_class": "0-50%", "plot_color": "#8D9591", "corridor_name": "Thiona - Thies_Numerique (ac1)" }, "geometry": { "type": "LineString", "coordinates": [ [ -16.94273687, 14.77996895 ], [ -16.85965679, 14.76196798 ] ] } },
{ "type": "Feature", "properties": { "InitialNode": "Senegal States|Ziguinchor", "FinalNode": "Senegal States|Wack_Ngouna", "Circuit": "ac1", "LineType": "AC", "Switching": null, "InitialPeriod": 2029, "FinalPeriod": 2050, "Voltage": 225, "Length": 135.0, "Reactance": 0.15, "TTC": 400, "TTCBck": null, "SecurityFactor": 1, "FixedInvestmentCost": 56.7, "FixedChargeRate": 0.1, "BinaryInvestment": null, "SwOnTime": null, "SwOffTime": null, "Resistance": null, "Susceptance": null, "Tap": null, "AngMin": null, "LossFactor": 0.01, "AngMax": null, "InvestmentLo": null, "InvestmentUp": null, "candidate": true, "investment_decision": 0.0, "active_in_year": true, "max_abs_flow_mw": 0.0, "p95_abs_flow_mw": 0.0, "mean_abs_flow_mw": 0.0, "max_loading_pct": 0.0, "p95_loading_pct": 0.0, "peak_load_level": "", "plot_width": 0.55, "loading_class": "0-50%", "plot_color": "#8D9591", "corridor_name": "Ziguinchor - Wack_Ngouna (ac1)" }, "geometry": { "type": "LineString", "coordinates": [ [ -16.22497827, 12.55982815 ], [ -16.06047435, 13.76829692 ] ] } }
]
}
